{
	"type" : "FeatureCollection",
	"name" : "34101_hiroshima-shi_naka-ku_shelter",
	"features" : [
		{
			"type" : "Feature",
			"geometry" : {
				"type" : "Point",
				"coordinates" : [ 132.4480733582, 34.3878227461 ]
			},
			"properties" : {
				"高さ" : "44.7",
				"行政区域" : "34101",
				"名称" : "アステールプラザ",
				"住所" : "広島県広島市中区",
				"施設の種類" : "生活避難場所",
				"収容人数" : "1215",
				"施設規模" : null,
				"対象とする災害の分類" : "指定なし",
				"レベル" : "3"
			}
		},
		{
			"type" : "Feature",
			"geometry" : {
				"type" : "Point",
				"coordinates" : [ 132.464375363, 34.4129677476 ]
			},
			"properties" : {
				"高さ" : "14",
				"行政区域" : "34101",
				"名称" : "安田女子中学校・高等学校",
				"住所" : "広島県広島市中区白島北町1-41",
				"施設の種類" : "生活避難場所",
				"収容人数" : "677",
				"施設規模" : null,
				"対象とする災害の分類" : "指定なし",
				"レベル" : "1"
			}
		},
		{
			"type" : "Feature",
			"geometry" : {
				"type" : "Point",
				"coordinates" : [ 132.4559866816, 34.4022753152 ]
			},
			"properties" : {
				"高さ" : "7.4",
				"行政区域" : "34101",
				"名称" : "基町小学校",
				"住所" : "広島県広島市中区基町20-2",
				"施設の種類" : "生活避難場所",
				"収容人数" : "967",
				"施設規模" : null,
				"対象とする災害の分類" : "指定なし",
				"レベル" : "1"
			}
		},
		{
			"type" : "Feature",
			"geometry" : {
				"type" : "Point",
				"coordinates" : [ 132.4504924702, 34.3780381826 ]
			},
			"properties" : {
				"高さ" : null,
				"行政区域" : "34101",
				"名称" : "吉島公園",
				"住所" : "広島県広島市中区中区羽衣町16番",
				"施設の種類" : "広域避難場所",
				"収容人数" : null,
				"施設規模" : null,
				"対象とする災害の分類" : "指定なし",
				"レベル" : "1"
			}
		},
		{
			"type" : "Feature",
			"geometry" : {
				"type" : "Point",
				"coordinates" : [ 132.4445977529, 34.3719151376 ]
			},
			"properties" : {
				"高さ" : "13.8",
				"行政区域" : "34101",
				"名称" : "吉島小学校",
				"住所" : "広島県広島市中区吉島西3-4-60",
				"施設の種類" : "生活避難場所",
				"収容人数" : "829",
				"施設規模" : null,
				"対象とする災害の分類" : "指定なし",
				"レベル" : "1"
			}
		},
		{
			"type" : "Feature",
			"geometry" : {
				"type" : "Point",
				"coordinates" : [ 132.4461370079, 34.3705648011 ]
			},
			"properties" : {
				"高さ" : "12.8",
				"行政区域" : "34101",
				"名称" : "吉島体育館",
				"住所" : "広島県広島市中区",
				"施設の種類" : "生活避難場所",
				"収容人数" : "261",
				"施設規模" : null,
				"対象とする災害の分類" : "指定なし",
				"レベル" : "3"
			}
		},
		{
			"type" : "Feature",
			"geometry" : {
				"type" : "Point",
				"coordinates" : [ 132.451781076, 34.3697967102 ]
			},
			"properties" : {
				"高さ" : "16.5",
				"行政区域" : "34101",
				"名称" : "吉島中学校",
				"住所" : "広島県広島市中区吉島東3-1-1",
				"施設の種類" : "生活避難場所",
				"収容人数" : "1146",
				"施設規模" : null,
				"対象とする災害の分類" : "指定なし",
				"レベル" : "1"
			}
		},
		{
			"type" : "Feature",
			"geometry" : {
				"type" : "Point",
				"coordinates" : [ 132.4528503567, 34.3684437453 ]
			},
			"properties" : {
				"高さ" : "18.5",
				"行政区域" : "34101",
				"名称" : "吉島東小学校",
				"住所" : "広島県広島市中区吉島東3-2-7",
				"施設の種類" : "生活避難場所",
				"収容人数" : "1090",
				"施設規模" : null,
				"対象とする災害の分類" : "指定なし",
				"レベル" : "1"
			}
		},
		{
			"type" : "Feature",
			"geometry" : {
				"type" : "Point",
				"coordinates" : [ 132.4468773594, 34.4008017487 ]
			},
			"properties" : {
				"高さ" : "12.5",
				"行政区域" : "34101",
				"名称" : "広瀬小学校",
				"住所" : "広島県広島市中区広瀬町2-8",
				"施設の種類" : "生活避難場所",
				"収容人数" : "488",
				"施設規模" : null,
				"対象とする災害の分類" : "指定なし",
				"レベル" : "1"
			}
		},
		{
			"type" : "Feature",
			"geometry" : {
				"type" : "Point",
				"coordinates" : [ 132.4388137885, 34.3856290085 ]
			},
			"properties" : {
				"高さ" : "27.1",
				"行政区域" : "34101",
				"名称" : "広島原爆養護ホーム舟入むつみ園",
				"住所" : "広島県広島市中区舟入幸町14-11",
				"施設の種類" : "福祉避難所",
				"収容人数" : null,
				"施設規模" : null,
				"対象とする災害の分類" : "指定なし",
				"レベル" : "4"
			}
		},
		{
			"type" : "Feature",
			"geometry" : {
				"type" : "Point",
				"coordinates" : [ 132.4591577784, 34.4029500695 ]
			},
			"properties" : {
				"高さ" : null,
				"行政区域" : "34101",
				"名称" : "広島城跡",
				"住所" : "広島県広島市中区",
				"施設の種類" : "広域避難場所",
				"収容人数" : null,
				"施設規模" : null,
				"対象とする災害の分類" : "指定なし",
				"レベル" : "3"
			}
		},
		{
			"type" : "Feature",
			"geometry" : {
				"type" : "Point",
				"coordinates" : [ 132.4330223769, 34.3645290653 ]
			},
			"properties" : {
				"高さ" : "12.4",
				"行政区域" : "34101",
				"名称" : "江波小学校",
				"住所" : "広島県広島市中区江波南2-2-53",
				"施設の種類" : "生活避難場所",
				"収容人数" : "1492",
				"施設規模" : null,
				"対象とする災害の分類" : "指定なし",
				"レベル" : "1"
			}
		},
		{
			"type" : "Feature",
			"geometry" : {
				"type" : "Point",
				"coordinates" : [ 132.4354423456, 34.3733406318 ]
			},
			"properties" : {
				"高さ" : "14.4",
				"行政区域" : "34101",
				"名称" : "江波中学校",
				"住所" : "広島県広島市中区江波西1-1-13",
				"施設の種類" : "生活避難場所",
				"収容人数" : "1367",
				"施設規模" : null,
				"対象とする災害の分類" : "指定なし",
				"レベル" : "1"
			}
		},
		{
			"type" : "Feature",
			"geometry" : {
				"type" : "Point",
				"coordinates" : [ 132.4509973594, 34.3920947475 ]
			},
			"properties" : {
				"高さ" : "12.5",
				"行政区域" : "34101",
				"名称" : "国際会議場",
				"住所" : "広島県広島市中区中島町1番5号",
				"施設の種類" : "生活避難場所",
				"収容人数" : "1069",
				"施設規模" : null,
				"対象とする災害の分類" : "指定なし",
				"レベル" : "1"
			}
		},
		{
			"type" : "Feature",
			"geometry" : {
				"type" : "Point",
				"coordinates" : [ 132.4584883588, 34.3854977461 ]
			},
			"properties" : {
				"高さ" : "13",
				"行政区域" : "34101",
				"名称" : "国泰寺中学校",
				"住所" : "広島県広島市中区国泰寺町1-1-41",
				"施設の種類" : "生活避難場所",
				"収容人数" : "1496",
				"施設規模" : null,
				"対象とする災害の分類" : "指定なし",
				"レベル" : "1"
			}
		},
		{
			"type" : "Feature",
			"geometry" : {
				"type" : "Point",
				"coordinates" : [ 132.4395814597, 34.3789494662 ]
			},
			"properties" : {
				"高さ" : "14.1",
				"行政区域" : "34101",
				"名称" : "市立舟入高校学校",
				"住所" : "広島県広島市中区舟入南1-4-4",
				"施設の種類" : "生活避難場所",
				"収容人数" : "1733",
				"施設規模" : null,
				"対象とする災害の分類" : "指定なし",
				"レベル" : "1"
			}
		},
		{
			"type" : "Feature",
			"geometry" : {
				"type" : "Point",
				"coordinates" : [ 132.4379063553, 34.3789427475 ]
			},
			"properties" : {
				"高さ" : "10.8",
				"行政区域" : "34101",
				"名称" : "舟入小学校",
				"住所" : "広島県広島市中区舟入南2-9-48",
				"施設の種類" : "生活避難場所",
				"収容人数" : "1316",
				"施設規模" : null,
				"対象とする災害の分類" : "指定なし",
				"レベル" : "1"
			}
		},
		{
			"type" : "Feature",
			"geometry" : {
				"type" : "Point",
				"coordinates" : [ 132.4666549868, 34.4001351793 ]
			},
			"properties" : {
				"高さ" : null,
				"行政区域" : "34101",
				"名称" : "縮景園",
				"住所" : "広島県広島市中区",
				"施設の種類" : "広域避難場所",
				"収容人数" : null,
				"施設規模" : null,
				"対象とする災害の分類" : "指定なし",
				"レベル" : "1"
			}
		},
		{
			"type" : "Feature",
			"geometry" : {
				"type" : "Point",
				"coordinates" : [ 132.4455723574, 34.3873027478 ]
			},
			"properties" : {
				"高さ" : "13.3",
				"行政区域" : "34101",
				"名称" : "神崎小学校",
				"住所" : "広島県広島市中区舟入中町1-36",
				"施設の種類" : "生活避難場所",
				"収容人数" : "836",
				"施設規模" : null,
				"対象とする災害の分類" : "指定なし",
				"レベル" : "1"
			}
		},
		{
			"type" : "Feature",
			"geometry" : {
				"type" : "Point",
				"coordinates" : [ 132.4595433581, 34.3798037457 ]
			},
			"properties" : {
				"高さ" : "13.3",
				"行政区域" : "34101",
				"名称" : "千田小学校",
				"住所" : "広島県広島市中区東千田町2-1-34",
				"施設の種類" : "生活避難場所",
				"収容人数" : "1051",
				"施設規模" : null,
				"対象とする災害の分類" : "指定なし",
				"レベル" : "1"
			}
		},
		{
			"type" : "Feature",
			"geometry" : {
				"type" : "Point",
				"coordinates" : [ 132.4582653593, 34.3913857471 ]
			},
			"properties" : {
				"高さ" : "18.1",
				"行政区域" : "34101",
				"名称" : "袋町小学校",
				"住所" : "広島県広島市中区袋町6-36",
				"施設の種類" : "生活避難場所",
				"収容人数" : "867",
				"施設規模" : null,
				"対象とする災害の分類" : "指定なし",
				"レベル" : "1"
			}
		},
		{
			"type" : "Feature",
			"geometry" : {
				"type" : "Point",
				"coordinates" : [ 132.4665572067, 34.3858417154 ]
			},
			"properties" : {
				"高さ" : "15.7",
				"行政区域" : "34101",
				"名称" : "竹屋小学校",
				"住所" : "広島県広島市中区鶴見町8-49",
				"施設の種類" : "生活避難場所",
				"収容人数" : "813",
				"施設規模" : null,
				"対象とする災害の分類" : "指定なし",
				"レベル" : "1"
			}
		},
		{
			"type" : "Feature",
			"geometry" : {
				"type" : "Point",
				"coordinates" : [ 132.4531528896, 34.4011904871 ]
			},
			"properties" : {
				"高さ" : null,
				"行政区域" : "34101",
				"名称" : "中央公園（芝生広場・自由広場）",
				"住所" : "広島県広島市中区",
				"施設の種類" : "広域避難場所",
				"収容人数" : null,
				"施設規模" : null,
				"対象とする災害の分類" : "指定なし",
				"レベル" : "1"
			}
		},
		{
			"type" : "Feature",
			"geometry" : {
				"type" : "Point",
				"coordinates" : [ 132.4570613578, 34.3757517458 ]
			},
			"properties" : {
				"高さ" : "23.9",
				"行政区域" : "34101",
				"名称" : "中区スポーツセンター",
				"住所" : "広島県広島市中区千田町三丁目8番12号",
				"施設の種類" : "生活避難場所",
				"収容人数" : "1062",
				"施設規模" : null,
				"対象とする災害の分類" : "指定なし",
				"レベル" : "1"
			}
		},
		{
			"type" : "Feature",
			"geometry" : {
				"type" : "Point",
				"coordinates" : [ 132.447994994, 34.386800297 ]
			},
			"properties" : {
				"高さ" : "16.7",
				"行政区域" : "34101",
				"名称" : "中島小学校",
				"住所" : "広島県広島市中区加古町10-8",
				"施設の種類" : "生活避難場所",
				"収容人数" : "795",
				"施設規模" : null,
				"対象とする災害の分類" : "指定なし",
				"レベル" : "1"
			}
		},
		{
			"type" : "Feature",
			"geometry" : {
				"type" : "Point",
				"coordinates" : [ 132.4574996206, 34.3816957343 ]
			},
			"properties" : {
				"高さ" : null,
				"行政区域" : "34101",
				"名称" : "東千田公園",
				"住所" : "広島県広島市中区東千田町1丁目",
				"施設の種類" : "広域避難場所",
				"収容人数" : null,
				"施設規模" : null,
				"対象とする災害の分類" : "指定なし",
				"レベル" : "1"
			}
		},
		{
			"type" : "Feature",
			"geometry" : {
				"type" : "Point",
				"coordinates" : [ 132.4289612853, 34.3680268458 ]
			},
			"properties" : {
				"高さ" : "25.9",
				"行政区域" : "34101",
				"名称" : "特別養護老人ホーム悠悠タウン江波",
				"住所" : "広島県広島市中区江波西二丁目14-8",
				"施設の種類" : "福祉避難所",
				"収容人数" : null,
				"施設規模" : null,
				"対象とする災害の分類" : "指定なし",
				"レベル" : "1"
			}
		},
		{
			"type" : "Feature",
			"geometry" : {
				"type" : "Point",
				"coordinates" : [ 132.4616263617, 34.4044127478 ]
			},
			"properties" : {
				"高さ" : "17.6",
				"行政区域" : "34101",
				"名称" : "白島小学校",
				"住所" : "広島県広島市中区西白島町26-3",
				"施設の種類" : "生活避難場所",
				"収容人数" : "1438",
				"施設規模" : null,
				"対象とする災害の分類" : "指定なし",
				"レベル" : "1"
			}
		},
		{
			"type" : "Feature",
			"geometry" : {
				"type" : "Point",
				"coordinates" : [ 132.4525014536, 34.3925925626 ]
			},
			"properties" : {
				"高さ" : null,
				"行政区域" : "34101",
				"名称" : "平和記念公園",
				"住所" : "広島県広島市中区中島町、大手町1丁目",
				"施設の種類" : "広域避難場所",
				"収容人数" : null,
				"施設規模" : null,
				"対象とする災害の分類" : "指定なし",
				"レベル" : "1"
			}
		},
		{
			"type" : "Feature",
			"geometry" : {
				"type" : "Point",
				"coordinates" : [ 132.4510433594, 34.3959967476 ]
			},
			"properties" : {
				"高さ" : "20.6",
				"行政区域" : "34101",
				"名称" : "本川小学校",
				"住所" : "広島県広島市中区本川町1-5-39",
				"施設の種類" : "生活避難場所",
				"収容人数" : "1013",
				"施設規模" : null,
				"対象とする災害の分類" : "指定なし",
				"レベル" : "1"
			}
		},
		{
			"type" : "Feature",
			"geometry" : {
				"type" : "Point",
				"coordinates" : [ 132.4666263612, 34.3965247463 ]
			},
			"properties" : {
				"高さ" : "13.5",
				"行政区域" : "34101",
				"名称" : "幟町小学校",
				"住所" : "広島県広島市中区幟町3-10",
				"施設の種類" : "生活避難場所",
				"収容人数" : "813",
				"施設規模" : null,
				"対象とする災害の分類" : "指定なし",
				"レベル" : "1"
			}
		},
		{
			"type" : "Feature",
			"geometry" : {
				"type" : "Point",
				"coordinates" : [ 132.468986362, 34.3993297469 ]
			},
			"properties" : {
				"高さ" : "14.9",
				"行政区域" : "34101",
				"名称" : "幟町中学校",
				"住所" : "広島県広島市中区上幟町6-29",
				"施設の種類" : "生活避難場所",
				"収容人数" : "1298",
				"施設規模" : null,
				"対象とする災害の分類" : "指定なし",
				"レベル" : "1"
			}
		}
	]
}