{"features":[{"type":"Feature","geometry":{"type":"Point","coordinates":[132.4442543552,34.3703007459]},"properties":{"名称":"広島少年鑑別所","種類":"国の機関","高さ":"10"}},{"type":"Feature","geometry":{"type":"Point","coordinates":[132.4471733571,34.3777507463]},"properties":{"名称":"広島刑務所","種類":"国の機関","高さ":"18.5"}},{"type":"Feature","geometry":{"type":"Point","coordinates":[132.4505403563,34.3703867458]},"properties":{"名称":"近畿中国森林管理局広島森林管理署","種類":"国の機関","高さ":"9.8"}},{"type":"Feature","geometry":{"type":"Point","coordinates":[132.4654043622,34.4017907473]},"properties":{"名称":"広島家庭裁判所","種類":"国の機関","高さ":"23"}},{"type":"Feature","geometry":{"type":"Point","coordinates":[132.4645073622,34.4020317468]},"properties":{"名称":"広島拘置所","種類":"国の機関","高さ":"17.4"}},{"type":"Feature","geometry":{"type":"Point","coordinates":[132.4648723618,34.400478747]},"properties":{"名称":"広島国税局広島東税務署","種類":"国の機関","高さ":"19.9"}},{"type":"Feature","geometry":{"type":"Point","coordinates":[132.4631993621,34.4031987478]},"properties":{"名称":"中国総合通信局","種類":"国の機関","高さ":"8.3"}},{"type":"Feature","geometry":{"type":"Point","coordinates":[132.4624963612,34.396872747]},"properties":{"名称":"中国地方整備局太田川河川事務所","種類":"国の機関","高さ":"56.4"}},{"type":"Feature","geometry":{"type":"Point","coordinates":[132.4637183609,34.396155747]},"properties":{"名称":"広島労働局職業安定部庁舎","種類":"国の機関","高さ":"44"}},{"type":"Feature","geometry":{"type":"Point","coordinates":[132.455285359,34.3852817463]},"properties":{"名称":"広島市役所","種類":"ランドマーク","高さ":"77.2"}},{"type":"Feature","geometry":{"type":"Point","coordinates":[132.459653361,34.3965617472]},"properties":{"名称":"広島県庁舎","種類":"ランドマーク","高さ":"37"}},{"type":"Feature","geometry":{"type":"Point","coordinates":[132.4550173584,34.3862927463]},"properties":{"名称":"広島市中区役所","種類":"ランドマーク","高さ":"32.9"}},{"type":"Feature","geometry":{"type":"Point","coordinates":[132.4614663598,34.3857827465]},"properties":{"名称":"広島市保健所","種類":"保健所","高さ":"52.8"}},{"type":"Feature","geometry":{"type":"Point","coordinates":[132.4612013605,34.3960867468]},"properties":{"名称":"広島県警察本部","種類":"警察署","高さ":"77.8"}},{"type":"Feature","geometry":{"type":"Point","coordinates":[132.4612753604,34.3964557467]},"properties":{"名称":"広島中央警察署","種類":"警察署","高さ":"25.5"}},{"type":"Feature","geometry":{"type":"Point","coordinates":[132.449384357,34.378859747]},"properties":{"名称":"広島中央警察署羽衣町交番","種類":"警察署","高さ":"6.8"}},{"type":"Feature","geometry":{"type":"Point","coordinates":[132.4570313612,34.4046857477]},"properties":{"名称":"広島中央警察署基町交番","種類":"警察署","高さ":"6.8"}},{"type":"Feature","geometry":{"type":"Point","coordinates":[132.4468053553,34.369742746]},"properties":{"名称":"広島中央警察署吉島交番","種類":"警察署","高さ":"3.5"}},{"type":"Feature","geometry":{"type":"Point","coordinates":[132.430924353,34.3625597465]},"properties":{"名称":"広島中央警察署江波町交番","種類":"警察署","高さ":"3.9"}},{"type":"Feature","geometry":{"type":"Point","coordinates":[132.4430363575,34.3857517475]},"properties":{"名称":"広島中央警察署舟入本町交番","種類":"警察署","高さ":"6.5"}},{"type":"Feature","geometry":{"type":"Point","coordinates":[132.4469723593,34.3981007484]},"properties":{"名称":"広島中央警察署十日市交番","種類":"警察署","高さ":"7.5"}},{"type":"Feature","geometry":{"type":"Point","coordinates":[132.4586153602,34.3934747468]},"properties":{"名称":"広島中央警察署本通交番","種類":"警察署","高さ":"2.5"}},{"type":"Feature","geometry":{"type":"Point","coordinates":[132.4665753615,34.3947837464]},"properties":{"名称":"広島中央警察署幟町交番","種類":"警察署","高さ":"6.8"}},{"type":"Feature","geometry":{"type":"Point","coordinates":[132.4628823603,34.3908537468]},"properties":{"名称":"広島中央警察署新天地交番","種類":"警察署","高さ":"5.1"}},{"type":"Feature","geometry":{"type":"Point","coordinates":[132.4620233593,34.3845127462]},"properties":{"名称":"広島中央警察署宝町交番","種類":"警察署","高さ":"7.1"}},{"type":"Feature","geometry":{"type":"Point","coordinates":[132.4666823605,34.3897507459]},"properties":{"名称":"広島中央警察署弥生町交番","種類":"警察署","高さ":"7.8"}},{"type":"Feature","geometry":{"type":"Point","coordinates":[132.4523653574,34.3804777468]},"properties":{"名称":"広島市消防局","種類":"消防署","高さ":"31.8"}},{"type":"Feature","geometry":{"type":"Point","coordinates":[132.4368103551,34.374650747]},"properties":{"名称":"広島市消防局広島市中消防署江波出張所","種類":"消防署","高さ":"17.5"}},{"type":"Feature","geometry":{"type":"Point","coordinates":[132.4580812902,34.404445527]},"properties":{"名称":"広島市消防局広島市中消防署基町出張所","種類":"消防署","高さ":"9.6"}},{"type":"Feature","geometry":{"type":"Point","coordinates":[132.4664533629,34.407646747]},"properties":{"名称":"広島市消防局広島市中消防署白島出張所","種類":"消防署","高さ":"16.8"}},{"type":"Feature","geometry":{"type":"Point","coordinates":[132.4526543558,34.3684467459]},"properties":{"名称":"市立吉島東小学校","種類":"学校","高さ":"18.5"}},{"type":"Feature","geometry":{"type":"Point","coordinates":[132.4468963598,34.4008097485]},"properties":{"名称":"市立広瀬小学校","種類":"学校","高さ":"12.5"}},{"type":"Feature","geometry":{"type":"Point","coordinates":[132.4329543536,34.3645487465]},"properties":{"名称":"市立江波小学校","種類":"学校","高さ":"12.4"}},{"type":"Feature","geometry":{"type":"Point","coordinates":[132.4584513589,34.3855467466]},"properties":{"名称":"市立国泰寺中学校","種類":"学校","高さ":"13"}},{"type":"Feature","geometry":{"type":"Point","coordinates":[132.4407293561,34.3792257475]},"properties":{"名称":"市立舟入高等学校","種類":"学校","高さ":"22.9"}},{"type":"Feature","geometry":{"type":"Point","coordinates":[132.4377043556,34.3795137476]},"properties":{"名称":"市立舟入小学校","種類":"学校","高さ":"16.9"}},{"type":"Feature","geometry":{"type":"Point","coordinates":[132.4595633583,34.3798097459]},"properties":{"名称":"市立千田小学校","種類":"学校","高さ":"13.3"}},{"type":"Feature","geometry":{"type":"Point","coordinates":[132.4480813579,34.3868057472]},"properties":{"名称":"市立中島小学校","種類":"学校","高さ":"16.7"}},{"type":"Feature","geometry":{"type":"Point","coordinates":[132.4616463615,34.4044207477]},"properties":{"名称":"市立白島小学校","種類":"学校","高さ":"17.6"}},{"type":"Feature","geometry":{"type":"Point","coordinates":[132.4666463615,34.3965317462]},"properties":{"名称":"市立幟町小学校","種類":"学校","高さ":"13.5"}},{"type":"Feature","geometry":{"type":"Point","coordinates":[132.4690073622,34.3993367469]},"properties":{"名称":"市立幟町中学校","種類":"学校","高さ":"14.9"}},{"type":"Feature","geometry":{"type":"Point","coordinates":[132.4656783619,34.3986397465]},"properties":{"名称":"私立広島女学院高等学校","種類":"学校","高さ":"16.7"}},{"type":"Feature","geometry":{"type":"Point","coordinates":[132.4667293619,34.3981177466]},"properties":{"名称":"私立広島女学院中学校","種類":"学校","高さ":"18.6"}},{"type":"Feature","geometry":{"type":"Point","coordinates":[132.4598133612,34.4041977474]},"properties":{"名称":"市立基町高等学校","種類":"学校","高さ":"23.8"}},{"type":"Feature","geometry":{"type":"Point","coordinates":[132.4679993618,34.3952107462]},"properties":{"名称":"エリザベト音楽大学","種類":"学校","高さ":"40.6"}},{"type":"Feature","geometry":{"type":"Point","coordinates":[132.4338963544,34.3753927473]},"properties":{"名称":"県立広島商業高等学校","種類":"学校","高さ":"17.1"}},{"type":"Feature","geometry":{"type":"Point","coordinates":[132.4356403548,34.373306747]},"properties":{"名称":"市立江波中学校","種類":"学校","高さ":"14.4"}},{"type":"Feature","geometry":{"type":"Point","coordinates":[132.4454803574,34.3873547476]},"properties":{"名称":"市立神崎小学校","種類":"学校","高さ":"13.3"}},{"type":"Feature","geometry":{"type":"Point","coordinates":[132.4503983593,34.3962917482]},"properties":{"名称":"市立本川小学校","種類":"学校","高さ":"15.1"}},{"type":"Feature","geometry":{"type":"Point","coordinates":[132.4523813559,34.3699427458]},"properties":{"名称":"市立吉島中学校","種類":"学校","高さ":"16.5"}},{"type":"Feature","geometry":{"type":"Point","coordinates":[132.4565793608,34.4025917482]},"properties":{"名称":"市立基町小学校","種類":"学校","高さ":"11.4"}},{"type":"Feature","geometry":{"type":"Point","coordinates":[132.4577573593,34.3868097466]},"properties":{"名称":"県立広島国泰寺高等学校","種類":"学校","高さ":"15.3"}},{"type":"Feature","geometry":{"type":"Point","coordinates":[132.4587073598,34.3916937464]},"properties":{"名称":"市立袋町小学校","種類":"学校","高さ":"14.1"}},{"type":"Feature","geometry":{"type":"Point","coordinates":[132.4604013588,34.3835467458]},"properties":{"名称":"私立広島三育学院小学校","種類":"学校","高さ":"17.8"}},{"type":"Feature","geometry":{"type":"Point","coordinates":[132.464811363,34.411693748]},"properties":{"名称":"私立安田小学校","種類":"学校","高さ":"15.2"}},{"type":"Feature","geometry":{"type":"Point","coordinates":[132.4576033586,34.3804467458]},"properties":{"名称":"広島大学(東千田キャンパス)","種類":"学校","高さ":"32.5"}},{"type":"Feature","geometry":{"type":"Point","coordinates":[132.4452063554,34.3720937459]},"properties":{"名称":"市立吉島小学校","種類":"学校","高さ":"13.8"}},{"type":"Feature","geometry":{"type":"Point","coordinates":[132.46689636,34.385743746]},"properties":{"名称":"市立竹屋小学校","種類":"学校","高さ":"15.7"}},{"type":"Feature","geometry":{"type":"Point","coordinates":[132.448024356,34.3705307463]},"properties":{"名称":"県立広島南特別支援学校","種類":"学校","高さ":"13.5"}},{"type":"Feature","geometry":{"type":"Point","coordinates":[132.4595613592,34.3873947465]},"properties":{"名称":"私立並木学院高等学校","種類":"学校","高さ":"15.2"}},{"type":"Feature","geometry":{"type":"Point","coordinates":[132.4512263585,34.3860217467]},"properties":{"名称":"市立広島みらい創生高等学校","種類":"学校","高さ":"20.3"}},{"type":"Feature","geometry":{"type":"Point","coordinates":[132.4559813589,34.3861157461]},"properties":{"名称":"一ノ瀬病院","種類":"病院","高さ":"27.8"}},{"type":"Feature","geometry":{"type":"Point","coordinates":[132.4594233584,34.3821977456]},"properties":{"名称":"翠清会梶川病院","種類":"病院","高さ":"25.9"}},{"type":"Feature","geometry":{"type":"Point","coordinates":[132.4440293583,34.3917577479]},"properties":{"名称":"シムラ病院","種類":"病院","高さ":"33.3"}},{"type":"Feature","geometry":{"type":"Point","coordinates":[132.4516113588,34.3903427475]},"properties":{"名称":"土谷総合病院","種類":"病院","高さ":"43.6"}},{"type":"Feature","geometry":{"type":"Point","coordinates":[132.4531773587,34.3851467466]},"properties":{"名称":"浜脇整形外科病院","種類":"病院","高さ":"42.2"}},{"type":"Feature","geometry":{"type":"Point","coordinates":[132.4615363601,34.3907857465]},"properties":{"名称":"林病院","種類":"病院","高さ":"27.3"}},{"type":"Feature","geometry":{"type":"Point","coordinates":[132.4427803572,34.3848987477]},"properties":{"名称":"藤井病院","種類":"病院","高さ":"27.9"}},{"type":"Feature","geometry":{"type":"Point","coordinates":[132.4540933582,34.3807727459]},"properties":{"名称":"広島赤十字・原爆病院","種類":"病院","高さ":"41.3"}},{"type":"Feature","geometry":{"type":"Point","coordinates":[132.4596453608,34.3978707475]},"properties":{"名称":"広島市立広島市民病院","種類":"病院","高さ":"53"}},{"type":"Feature","geometry":{"type":"Point","coordinates":[132.4511693565,34.3693057452]},"properties":{"名称":"吉島病院","種類":"病院","高さ":"9.6"}},{"type":"Feature","geometry":{"type":"Point","coordinates":[132.4494153596,34.3956617479]},"properties":{"名称":"広島記念病院","種類":"病院","高さ":"41.5"}},{"type":"Feature","geometry":{"type":"Point","coordinates":[132.4398413572,34.3860057478]},"properties":{"名称":"広島市立舟入市民病院","種類":"病院","高さ":"36"}},{"type":"Feature","geometry":{"type":"Point","coordinates":[132.4645133617,34.4030697471]},"properties":{"名称":"広島逓信病院","種類":"病院","高さ":"26.5"}},{"type":"Feature","geometry":{"type":"Point","coordinates":[132.4553963589,34.3867257465]},"properties":{"名称":"広島中央郵便局","種類":"郵便局","高さ":"42.9"}},{"type":"Feature","geometry":{"type":"Point","coordinates":[132.4563203605,34.395907747]},"properties":{"名称":"広島中郵便局","種類":"郵便局","高さ":"54.1"}},{"type":"Feature","geometry":{"type":"Point","coordinates":[132.4659013607,34.3930317464]},"properties":{"名称":"広島胡町郵便局","種類":"郵便局","高さ":"26"}},{"type":"Feature","geometry":{"type":"Point","coordinates":[132.4301283534,34.3651307475]},"properties":{"名称":"広島江波栄町郵便局","種類":"郵便局","高さ":"8.3"}},{"type":"Feature","geometry":{"type":"Point","coordinates":[132.434797354,34.3694737472]},"properties":{"名称":"広島江波郵便局","種類":"郵便局","高さ":"11.2"}},{"type":"Feature","geometry":{"type":"Point","coordinates":[132.4394893557,34.3740967472]},"properties":{"名称":"広島舟入南郵便局","種類":"郵便局","高さ":"7.6"}},{"type":"Feature","geometry":{"type":"Point","coordinates":[132.441482356,34.3807897478]},"properties":{"名称":"広島舟入川口郵便局","種類":"郵便局","高さ":"9.2"}},{"type":"Feature","geometry":{"type":"Point","coordinates":[132.446245359,34.3977307484]},"properties":{"名称":"広島十日市郵便局","種類":"郵便局","高さ":"11.8"}},{"type":"Feature","geometry":{"type":"Point","coordinates":[132.4480773554,34.3679637456]},"properties":{"名称":"広島光南郵便局","種類":"郵便局","高さ":"11.1"}},{"type":"Feature","geometry":{"type":"Point","coordinates":[132.448620357,34.3810067464]},"properties":{"名称":"広島吉島郵便局","種類":"郵便局","高さ":"10.6"}},{"type":"Feature","geometry":{"type":"Point","coordinates":[132.4492573585,34.3877817472]},"properties":{"名称":"広島加古町郵便局","種類":"郵便局","高さ":"26.4"}},{"type":"Feature","geometry":{"type":"Point","coordinates":[132.4547773587,34.3832657468]},"properties":{"名称":"広島鷹野橋郵便局","種類":"郵便局","高さ":"21.1"}},{"type":"Feature","geometry":{"type":"Point","coordinates":[132.46107036,34.3899587461]},"properties":{"名称":"広島並木通り郵便局","種類":"郵便局","高さ":"8.8"}},{"type":"Feature","geometry":{"type":"Point","coordinates":[132.4609623599,34.3932117471]},"properties":{"名称":"広島立町郵便局","種類":"郵便局","高さ":"23.1"}},{"type":"Feature","geometry":{"type":"Point","coordinates":[132.4624743608,34.394984747]},"properties":{"名称":"広島八丁堀郵便局","種類":"郵便局","高さ":"39.2"}},{"type":"Feature","geometry":{"type":"Point","coordinates":[132.4643203625,34.4092347477]},"properties":{"名称":"広島白島中郵便局","種類":"郵便局","高さ":"12.6"}},{"type":"Feature","geometry":{"type":"Point","coordinates":[132.4548383604,34.4032757484]},"properties":{"名称":"広島基町郵便局","種類":"郵便局","高さ":"17.1"}},{"type":"Feature","geometry":{"type":"Point","coordinates":[132.4596343596,34.3852407459]},"properties":{"名称":"広島富士見郵便局","種類":"郵便局","高さ":"27.1"}},{"type":"Feature","geometry":{"type":"Point","coordinates":[132.4484663561,34.3731447465]},"properties":{"名称":"広島吉島東郵便局","種類":"郵便局","高さ":"9"}},{"type":"Feature","geometry":{"type":"Point","coordinates":[132.4589093582,34.3759637455]},"properties":{"名称":"広島千田郵便局","種類":"郵便局","高さ":"8.1"}},{"type":"Feature","geometry":{"type":"Point","coordinates":[132.4445913578,34.3891377482]},"properties":{"名称":"広島舟入町郵便局","種類":"郵便局","高さ":"12.3"}},{"type":"Feature","geometry":{"type":"Point","coordinates":[132.4616463606,34.3971187467]},"properties":{"名称":"日本銀行(広島支店)","種類":"指定公共機関","高さ":"27.9"}},{"type":"Feature","geometry":{"type":"Point","coordinates":[132.4541474271,34.3796664925]},"properties":{"名称":"日本赤十字社(広島県支部)","種類":"指定公共機関","高さ":"17.4"}},{"type":"Feature","geometry":{"type":"Point","coordinates":[132.4644593619,34.4037147472]},"properties":{"名称":"日本郵政株式会社(中国支社)","種類":"指定公共機関","高さ":"41.8"}},{"type":"Feature","geometry":{"type":"Point","coordinates":[132.4558123595,34.3884537471]},"properties":{"名称":"中国電力株式会社(本社)","種類":"指定公共機関","高さ":"78.1"}},{"type":"Feature","geometry":{"type":"Point","coordinates":[132.4453573548,34.3616277454]},"properties":{"名称":"西濃運輸（広島支店）","種類":"指定公共機関","高さ":"25.1"}},{"type":"Feature","geometry":{"type":"Point","coordinates":[132.4661183618,34.399975747]},"properties":{"名称":"広島県立美術館","種類":"博物館・美術館","高さ":"27.7"}},{"type":"Feature","geometry":{"type":"Point","coordinates":[132.4590823614,34.4027187475]},"properties":{"名称":"広島城","種類":"博物館・美術館","高さ":"33.1"}},{"type":"Feature","geometry":{"type":"Point","coordinates":[132.4581963604,34.3986227473]},"properties":{"名称":"ひろしま美術館","種類":"博物館・美術館","高さ":"15.0"}},{"type":"Feature","geometry":{"type":"Point","coordinates":[132.4537243605,34.3986137481]},"properties":{"名称":"広島市こども文化科学館","種類":"博物館・美術館","高さ":"27.2"}},{"type":"Feature","geometry":{"type":"Point","coordinates":[132.4351193541,34.3661717466]},"properties":{"名称":"広島市江波山気象館","種類":"博物館・美術館","高さ":"14.5"}},{"type":"Feature","geometry":{"type":"Point","coordinates":[132.4573053597,34.3914817466]},"properties":{"名称":"頼山陽史跡資料館（広島県立歴史博物館分館）","種類":"博物館・美術館","高さ":"3.4"}},{"type":"Feature","geometry":{"type":"Point","coordinates":[132.4767573638,34.4021977462]},"properties":{"名称":"広島労働局広島東公共職業安定所","種類":"国の機関","高さ":"15.8"}},{"type":"Feature","geometry":{"type":"Point","coordinates":[132.4824963631,34.3953337452]},"properties":{"名称":"広島市東区役所","種類":"ランドマーク","高さ":"25.3"}},{"type":"Feature","geometry":{"type":"Point","coordinates":[132.471700363,34.4027127462]},"properties":{"名称":"広島東警察署","種類":"警察署","高さ":"22.5"}},{"type":"Feature","geometry":{"type":"Point","coordinates":[132.4710083635,34.4110087473]},"properties":{"名称":"広島東警察署牛田交番","種類":"警察署","高さ":"5.5"}},{"type":"Feature","geometry":{"type":"Point","coordinates":[132.4972143677,34.4124717451]},"properties":{"名称":"広島東警察署中山交番","種類":"警察署","高さ":"7.5"}},{"type":"Feature","geometry":{"type":"Point","coordinates":[132.4817563636,34.3998087452]},"properties":{"名称":"広島市消防局広島市東消防署","種類":"消防署","高さ":"19.7"}},{"type":"Feature","geometry":{"type":"Point","coordinates":[132.4836123645,34.4045087454]},"properties":{"名称":"私立広島桜が丘高等学校","種類":"学校","高さ":"18.4"}},{"type":"Feature","geometry":{"type":"Point","coordinates":[132.4709723639,34.4129847477]},"properties":{"名称":"市立牛田小学校","種類":"学校","高さ":"25.9"}},{"type":"Feature","geometry":{"type":"Point","coordinates":[132.4842393643,34.4005547452]},"properties":{"名称":"市立二葉中学校","種類":"学校","高さ":"15.6"}},{"type":"Feature","geometry":{"type":"Point","coordinates":[132.4857863646,34.3996407451]},"properties":{"名称":"市立尾長小学校","種類":"学校","高さ":"16.7"}},{"type":"Feature","geometry":{"type":"Point","coordinates":[132.4960173654,34.3985787438]},"properties":{"名称":"市立矢賀小学校","種類":"学校","高さ":"16.4"}},{"type":"Feature","geometry":{"type":"Point","coordinates":[132.4868933645,34.3989087445]},"properties":{"名称":"私立広島県瀬戸内高等学校","種類":"学校","高さ":"17.8"}},{"type":"Feature","geometry":{"type":"Point","coordinates":[132.4842013659,34.4135317467]},"properties":{"名称":"広島女学院大学","種類":"学校","高さ":"12"}},{"type":"Feature","geometry":{"type":"Point","coordinates":[132.4778323631,34.4014007462]},"properties":{"名称":"JR広島病院","種類":"病院","高さ":"32.9"}},{"type":"Feature","geometry":{"type":"Point","coordinates":[132.4832323642,34.3987037452]},"properties":{"名称":"森整形外科","種類":"病院","高さ":"25.7"}},{"type":"Feature","geometry":{"type":"Point","coordinates":[132.468646363,34.4098647477]},"properties":{"名称":"広島牛田郵便局","種類":"郵便局","高さ":"13.2"}},{"type":"Feature","geometry":{"type":"Point","coordinates":[132.4763343643,34.4115017471]},"properties":{"名称":"広島牛田早稲田郵便局","種類":"郵便局","高さ":"7.9"}},{"type":"Feature","geometry":{"type":"Point","coordinates":[132.4797423633,34.4014467455]},"properties":{"名称":"広島光郵便局","種類":"郵便局","高さ":"13.3"}},{"type":"Feature","geometry":{"type":"Point","coordinates":[132.4823173653,34.414449747]},"properties":{"名称":"広島牛田早稲田団地郵便局","種類":"郵便局","高さ":"9"}},{"type":"Feature","geometry":{"type":"Point","coordinates":[132.4825533632,34.3967467448]},"properties":{"名称":"広島愛宕町郵便局","種類":"郵便局","高さ":"5.3"}},{"type":"Feature","geometry":{"type":"Point","coordinates":[132.4876323647,34.4005607452]},"properties":{"名称":"広島山根町郵便局","種類":"郵便局","高さ":"10"}},{"type":"Feature","geometry":{"type":"Point","coordinates":[132.4993983675,34.4089507451]},"properties":{"名称":"広島中山郵便局","種類":"郵便局","高さ":"22.9"}},{"type":"Feature","geometry":{"type":"Point","coordinates":[132.491737364,34.3943677439]},"properties":{"名称":"広島曙郵便局","種類":"郵便局","高さ":"7.6"}},{"type":"Feature","geometry":{"type":"Point","coordinates":[132.5087062977,34.4149469349]},"properties":{"名称":"広島東警察署温品交番","種類":"警察署","高さ":"8.6"}},{"type":"Feature","geometry":{"type":"Point","coordinates":[132.5072686346,34.4117742849]},"properties":{"名称":"広島市消防局広島市東消防署温品出張所","種類":"消防署","高さ":"9.7"}},{"type":"Feature","geometry":{"type":"Point","coordinates":[132.510580496,34.4160949986]},"properties":{"名称":"市立温品小学校","種類":"学校","高さ":"19.2"}},{"type":"Feature","geometry":{"type":"Point","coordinates":[132.5002013669,34.4096147451]},"properties":{"名称":"市立中山小学校","種類":"学校","高さ":"13.9"}},{"type":"Feature","geometry":{"type":"Point","coordinates":[132.5006012443,34.4101124596]},"properties":{"名称":"中山整形外科医院","種類":"病院","高さ":"9.1"}},{"type":"Feature","geometry":{"type":"Point","coordinates":[132.5072407629,34.4051833483]},"properties":{"名称":"広島鶴江郵便局","種類":"郵便局","高さ":"8"}},{"type":"Feature","geometry":{"type":"Point","coordinates":[132.5103753694,34.4140657439]},"properties":{"名称":"広島温品郵便局","種類":"郵便局","高さ":"9.3"}},{"type":"Feature","geometry":{"type":"Point","coordinates":[132.4883963689,34.4325617477]},"properties":{"名称":"広島東警察署戸坂交番","種類":"警察署","高さ":"9.7"}},{"type":"Feature","geometry":{"type":"Point","coordinates":[132.4881473682,34.4325867479]},"properties":{"名称":"広島市消防局広島市東消防署戸坂出張所","種類":"消防署","高さ":"17.8"}},{"type":"Feature","geometry":{"type":"Point","coordinates":[132.4709123646,34.4193037482]},"properties":{"名称":"市立牛田新町小学校","種類":"学校","高さ":"11.7"}},{"type":"Feature","geometry":{"type":"Point","coordinates":[132.4696203653,34.4206907486]},"properties":{"名称":"市立牛田中学校","種類":"学校","高さ":"20.3"}},{"type":"Feature","geometry":{"type":"Point","coordinates":[132.4857933685,34.4348717476]},"properties":{"名称":"市立戸坂小学校","種類":"学校","高さ":"15.6"}},{"type":"Feature","geometry":{"type":"Point","coordinates":[132.4888093688,34.4298527475]},"properties":{"名称":"市立戸坂城山小学校","種類":"学校","高さ":"16.6"}},{"type":"Feature","geometry":{"type":"Point","coordinates":[132.4700423652,34.4224907481]},"properties":{"名称":"市立広島商業高等学校","種類":"学校","高さ":"19"}},{"type":"Feature","geometry":{"type":"Point","coordinates":[132.4805553662,34.4189297472]},"properties":{"名称":"市立早稲田小学校","種類":"学校","高さ":"23.1"}},{"type":"Feature","geometry":{"type":"Point","coordinates":[132.4857083668,34.4173627463]},"properties":{"名称":"市立早稲田中学校","種類":"学校","高さ":"13.9"}},{"type":"Feature","geometry":{"type":"Point","coordinates":[132.4882065485,34.428401185]},"properties":{"名称":"私立広島城北中学校","種類":"学校","高さ":"16.6"}},{"type":"Feature","geometry":{"type":"Point","coordinates":[132.4741695262,34.4280046724]},"properties":{"名称":"比治山大学短期大学部","種類":"学校","高さ":"18.8"}},{"type":"Feature","geometry":{"type":"Point","coordinates":[132.4737911921,34.427647753]},"properties":{"名称":"比治山大学","種類":"学校","高さ":"27.7"}},{"type":"Feature","geometry":{"type":"Point","coordinates":[132.4892154396,34.4286557875]},"properties":{"名称":"私立広島城北高等学校","種類":"学校","高さ":"26.8"}},{"type":"Feature","geometry":{"type":"Point","coordinates":[132.4877843693,34.4386297483]},"properties":{"名称":"県立広島中央特別支援学校","種類":"学校","高さ":"14.3"}},{"type":"Feature","geometry":{"type":"Point","coordinates":[132.4839983892,34.4369361479]},"properties":{"名称":"太田川病院","種類":"病院","高さ":"24.2"}},{"type":"Feature","geometry":{"type":"Point","coordinates":[132.4685813655,34.4254827488]},"properties":{"名称":"広島牛田新町郵便局","種類":"郵便局","高さ":"6.7"}},{"type":"Feature","geometry":{"type":"Point","coordinates":[132.488373369,34.4341757476]},"properties":{"名称":"広島戸坂中町郵便局","種類":"郵便局","高さ":"7.4"}},{"type":"Feature","geometry":{"type":"Point","coordinates":[132.4970513687,34.4236317463]},"properties":{"名称":"広島戸坂新町郵便局","種類":"郵便局","高さ":"7"}},{"type":"Feature","geometry":{"type":"Point","coordinates":[132.4791413674,34.4338797482]},"properties":{"名称":"広島くるめ木郵便局","種類":"郵便局","高さ":"6.2"}},{"type":"Feature","geometry":{"type":"Point","coordinates":[132.531662652,34.4405494367]},"properties":{"名称":"広島東警察署福木交番","種類":"警察署","高さ":"6.5"}},{"type":"Feature","geometry":{"type":"Point","coordinates":[132.5486486559,34.4554898196]},"properties":{"名称":"広島市消防局広島市東消防署福田出張所","種類":"消防署","高さ":"9.4"}},{"type":"Feature","geometry":{"type":"Point","coordinates":[132.5123133695,34.4175867445]},"properties":{"名称":"市立温品中学校","種類":"学校","高さ":"16.1"}},{"type":"Feature","geometry":{"type":"Point","coordinates":[132.5029793696,34.4250037453]},"properties":{"名称":"市立戸坂中学校","種類":"学校","高さ":"14.4"}},{"type":"Feature","geometry":{"type":"Point","coordinates":[132.5167013714,34.4278927445]},"properties":{"名称":"市立上温品小学校","種類":"学校","高さ":"11.5"}},{"type":"Feature","geometry":{"type":"Point","coordinates":[132.5003003685,34.4211037452]},"properties":{"名称":"市立東浄小学校","種類":"学校","高さ":"12.6"}},{"type":"Feature","geometry":{"type":"Point","coordinates":[132.5189943714,34.421952996]},"properties":{"名称":"県立安芸高等学校","種類":"学校","高さ":"26.8"}},{"type":"Feature","geometry":{"type":"Point","coordinates":[132.5359533762,34.4459357444]},"properties":{"名称":"市立福木小学校","種類":"学校","高さ":"13"}},{"type":"Feature","geometry":{"type":"Point","coordinates":[132.5384063763,34.4461507443]},"properties":{"名称":"市立福木中学校","種類":"学校","高さ":"12.7"}},{"type":"Feature","geometry":{"type":"Point","coordinates":[132.5123993704,34.4216067449]},"properties":{"名称":"山崎病院","種類":"病院","高さ":"20.3"}},{"type":"Feature","geometry":{"type":"Point","coordinates":[132.5135110254,34.423444801]},"properties":{"名称":"広島上温品郵便局","種類":"郵便局","高さ":"10.3"}},{"type":"Feature","geometry":{"type":"Point","coordinates":[132.5280430345,34.436892965]},"properties":{"名称":"広島馬木郵便局","種類":"郵便局","高さ":"11"}},{"type":"Feature","geometry":{"type":"Point","coordinates":[132.4684793576,34.3637257441]},"properties":{"名称":"広島国税局広島南税務署","種類":"国の機関","高さ":"11.8"}},{"type":"Feature","geometry":{"type":"Point","coordinates":[132.4812834069,34.3816742537]},"properties":{"名称":"中国四国管区警察学校","種類":"国の機関","高さ":"7"}},{"type":"Feature","geometry":{"type":"Point","coordinates":[132.4944643635,34.382264743]},"properties":{"名称":"中国地方整備局広島国道事務所","種類":"国の機関","高さ":"25"}},{"type":"Feature","geometry":{"type":"Point","coordinates":[132.4819407455,34.3795410877]},"properties":{"名称":"税務大学校広島研修所","種類":"国の機関","高さ":"17.4"}},{"type":"Feature","geometry":{"type":"Point","coordinates":[132.4690113599,34.3799027449]},"properties":{"名称":"広島市南区役所","種類":"ランドマーク","高さ":"25.7"}},{"type":"Feature","geometry":{"type":"Point","coordinates":[132.4751874504,34.3662437456]},"properties":{"名称":"広島南警察署","種類":"警察署","高さ":"13.3"}},{"type":"Feature","geometry":{"type":"Point","coordinates":[132.4796783628,34.3922127452]},"properties":{"名称":"広島南警察署荒神交番","種類":"警察署","高さ":"12.5"}},{"type":"Feature","geometry":{"type":"Point","coordinates":[132.4712123609,34.3869157449]},"properties":{"名称":"広島南警察署比治山交番","種類":"警察署","高さ":"7.1"}},{"type":"Feature","geometry":{"type":"Point","coordinates":[132.4762763594,34.3721197436]},"properties":{"名称":"広島南警察署旭町交番","種類":"警察署","高さ":"3.3"}},{"type":"Feature","geometry":{"type":"Point","coordinates":[132.4639933557,34.3536117431]},"properties":{"名称":"広島南警察署宇品海岸交番","種類":"警察署","高さ":"5.6"}},{"type":"Feature","geometry":{"type":"Point","coordinates":[132.4639833573,34.3624367443]},"properties":{"名称":"広島南警察署宇品御幸交番","種類":"警察署","高さ":"7.4"}},{"type":"Feature","geometry":{"type":"Point","coordinates":[132.4640683581,34.373316745]},"properties":{"名称":"広島南警察署皆実交番","種類":"警察署","高さ":"3.5"}},{"type":"Feature","geometry":{"type":"Point","coordinates":[132.4968683606,34.3616267409]},"properties":{"名称":"広島南警察署仁保交番","種類":"警察署","高さ":"6.9"}},{"type":"Feature","geometry":{"type":"Point","coordinates":[132.4776873612,34.3827267442]},"properties":{"名称":"広島南警察署段原交番","種類":"警察署","高さ":"8.2"}},{"type":"Feature","geometry":{"type":"Point","coordinates":[132.4850623625,34.3838087441]},"properties":{"名称":"広島南警察署東雲交番","種類":"警察署","高さ":"3.4"}},{"type":"Feature","geometry":{"type":"Point","coordinates":[132.4894213619,34.3788057428]},"properties":{"名称":"広島南警察署本浦交番","種類":"警察署","高さ":"3.4"}},{"type":"Feature","geometry":{"type":"Point","coordinates":[132.4922283601,34.3613197415]},"properties":{"名称":"広島市消防局広島市南消防署日宇那出張所","種類":"消防署","高さ":"14.2"}},{"type":"Feature","geometry":{"type":"Point","coordinates":[132.4704003586,34.3666357434]},"properties":{"名称":"広島市消防局広島市南消防署宇品出張所","種類":"消防署","高さ":"20.1"}},{"type":"Feature","geometry":{"type":"Point","coordinates":[132.4928673616,34.3750207422]},"properties":{"名称":"広島市消防局広島市南消防署東本浦出張所","種類":"消防署","高さ":"10.1"}},{"type":"Feature","geometry":{"type":"Point","coordinates":[132.4636823557,34.3533697436]},"properties":{"名称":"広島市消防局広島市南消防署水上出張所","種類":"消防署","高さ":"18.8"}},{"type":"Feature","geometry":{"type":"Point","coordinates":[132.4752003615,34.391129745]},"properties":{"名称":"広島市消防局広島市南消防署","種類":"消防署","高さ":"27.4"}},{"type":"Feature","geometry":{"type":"Point","coordinates":[132.4472503536,34.3497607447]},"properties":{"名称":"市立広島特別支援学校","種類":"学校","高さ":"13.8"}},{"type":"Feature","geometry":{"type":"Point","coordinates":[132.4755073603,34.3757817437]},"properties":{"名称":"県立広島皆実高等学校","種類":"学校","高さ":"19.3"}},{"type":"Feature","geometry":{"type":"Point","coordinates":[132.4731743594,34.3751707445]},"properties":{"名称":"県立広島工業高等学校","種類":"学校","高さ":"13"}},{"type":"Feature","geometry":{"type":"Point","coordinates":[132.4794793611,34.3808097445]},"properties":{"名称":"広島大学(医学部・歯学部)","種類":"学校","高さ":"37.4"}},{"type":"Feature","geometry":{"type":"Point","coordinates":[132.4658403579,34.3714757444]},"properties":{"名称":"国立広島大学附属小学校","種類":"学校","高さ":"13.8"}},{"type":"Feature","geometry":{"type":"Point","coordinates":[132.4656763585,34.3721617446]},"properties":{"名称":"広島大学附属中・高等学校","種類":"学校","高さ":"18.7"}},{"type":"Feature","geometry":{"type":"Point","coordinates":[132.4953683628,34.3802817431]},"properties":{"名称":"国立広島大学附属東雲小学校","種類":"学校","高さ":"17.6"}},{"type":"Feature","geometry":{"type":"Point","coordinates":[132.4961373633,34.3805707428]},"properties":{"名称":"国立広島大学附属東雲中学校","種類":"学校","高さ":"18.2"}},{"type":"Feature","geometry":{"type":"Point","coordinates":[132.461275356,34.360828744]},"properties":{"名称":"市立宇品小学校","種類":"学校","高さ":"18.6"}},{"type":"Feature","geometry":{"type":"Point","coordinates":[132.4821183606,34.3717537432]},"properties":{"名称":"市立黄金山小学校","種類":"学校","高さ":"20"}},{"type":"Feature","geometry":{"type":"Point","coordinates":[132.4896153618,34.3778877427]},"properties":{"名称":"市立広島工業高等学校","種類":"学校","高さ":"14.2"}},{"type":"Feature","geometry":{"type":"Point","coordinates":[132.4797853624,34.3928097449]},"properties":{"名称":"市立荒神町小学校","種類":"学校","高さ":"15.3"}},{"type":"Feature","geometry":{"type":"Point","coordinates":[132.494664362,34.3754277428]},"properties":{"名称":"市立仁保小学校","種類":"学校","高さ":"17.8"}},{"type":"Feature","geometry":{"type":"Point","coordinates":[132.4917823612,34.3698637423]},"properties":{"名称":"市立仁保中学校","種類":"学校","高さ":"19.6"}},{"type":"Feature","geometry":{"type":"Point","coordinates":[132.4718683584,34.3683227439]},"properties":{"名称":"市立翠町中学校","種類":"学校","高さ":"17"}},{"type":"Feature","geometry":{"type":"Point","coordinates":[132.4786183602,34.3751147441]},"properties":{"名称":"市立大河小学校","種類":"学校","高さ":"14.5"}},{"type":"Feature","geometry":{"type":"Point","coordinates":[132.4972853639,34.3849477426]},"properties":{"名称":"市立大州小学校","種類":"学校","高さ":"15.7"}},{"type":"Feature","geometry":{"type":"Point","coordinates":[132.495962364,34.3856417433]},"properties":{"名称":"市立大州中学校","種類":"学校","高さ":"13.4"}},{"type":"Feature","geometry":{"type":"Point","coordinates":[132.4741183619,34.3917257456]},"properties":{"名称":"市立段原小学校","種類":"学校","高さ":"13.5"}},{"type":"Feature","geometry":{"type":"Point","coordinates":[132.4828833611,34.3805787435]},"properties":{"名称":"市立段原中学校","種類":"学校","高さ":"16.8"}},{"type":"Feature","geometry":{"type":"Point","coordinates":[132.4862573593,34.3627817421]},"properties":{"名称":"市立楠那小学校","種類":"学校","高さ":"17.9"}},{"type":"Feature","geometry":{"type":"Point","coordinates":[132.4875073596,34.3627257421]},"properties":{"名称":"市立楠那中学校","種類":"学校","高さ":"13"}},{"type":"Feature","geometry":{"type":"Point","coordinates":[132.4854443623,34.385227744]},"properties":{"名称":"市立比治山小学校","種類":"学校","高さ":"13.6"}},{"type":"Feature","geometry":{"type":"Point","coordinates":[132.4800463608,34.3770777438]},"properties":{"名称":"私立比治山女子高等学校","種類":"学校","高さ":"18.8"}},{"type":"Feature","geometry":{"type":"Point","coordinates":[132.480984361,34.3773417434]},"properties":{"名称":"私立比治山女子中学校","種類":"学校","高さ":"20.9"}},{"type":"Feature","geometry":{"type":"Point","coordinates":[132.4604583544,34.3483877431]},"properties":{"名称":"市立元宇品小学校","種類":"学校","高さ":"10.7"}},{"type":"Feature","geometry":{"type":"Point","coordinates":[132.4679673566,34.3579097434]},"properties":{"名称":"市立宇品東小学校","種類":"学校","高さ":"17.8"}},{"type":"Feature","geometry":{"type":"Point","coordinates":[132.4719013603,34.3787757447]},"properties":{"名称":"私立進徳女子高等学校","種類":"学校","高さ":"27.4"}},{"type":"Feature","geometry":{"type":"Point","coordinates":[132.4725073576,34.3631227438]},"properties":{"名称":"市立宇品中学校","種類":"学校","高さ":"17.8"}},{"type":"Feature","geometry":{"type":"Point","coordinates":[132.4695403584,34.3662777441]},"properties":{"名称":"県立広島大学広島キャンパス","種類":"学校","高さ":"44.4"}},{"type":"Feature","geometry":{"type":"Point","coordinates":[132.4742573591,34.368309744]},"properties":{"名称":"市立翠町小学校","種類":"学校","高さ":"18.4"}},{"type":"Feature","geometry":{"type":"Point","coordinates":[132.4681463593,34.3786497446]},"properties":{"名称":"市立皆実小学校","種類":"学校","高さ":"15.4"}},{"type":"Feature","geometry":{"type":"Point","coordinates":[132.4577643554,34.3600157445]},"properties":{"名称":"広島都市学園大学","種類":"学校","高さ":"24.3"}},{"type":"Feature","geometry":{"type":"Point","coordinates":[132.4652913581,34.3748307447]},"properties":{"名称":"真田病院","種類":"病院","高さ":"17.9"}},{"type":"Feature","geometry":{"type":"Point","coordinates":[132.4792363606,34.3800267444]},"properties":{"名称":"広島大学病院","種類":"病院","高さ":"19.6"}},{"type":"Feature","geometry":{"type":"Point","coordinates":[132.4905193622,34.3774917432]},"properties":{"名称":"広島厚生病院","種類":"病院","高さ":"27.4"}},{"type":"Feature","geometry":{"type":"Point","coordinates":[132.4668103582,34.3670137441]},"properties":{"名称":"県立広島病院","種類":"病院","高さ":"43.1"}},{"type":"Feature","geometry":{"type":"Point","coordinates":[132.4711653597,34.3799377445]},"properties":{"名称":"ヒロシマ平松病院","種類":"病院","高さ":"31"}},{"type":"Feature","geometry":{"type":"Point","coordinates":[132.4599873552,34.3561107438]},"properties":{"名称":"福原整形外科医院","種類":"病院","高さ":"15.6"}},{"type":"Feature","geometry":{"type":"Point","coordinates":[132.4735353627,34.3975597463]},"properties":{"名称":"広島東郵便局","種類":"郵便局","高さ":"91.5"}},{"type":"Feature","geometry":{"type":"Point","coordinates":[132.4496033542,34.3550837449]},"properties":{"名称":"広島出島郵便局","種類":"郵便局","高さ":"8.2"}},{"type":"Feature","geometry":{"type":"Point","coordinates":[132.4620413547,34.3480697427]},"properties":{"名称":"広島元宇品郵便局","種類":"郵便局","高さ":"7.6"}},{"type":"Feature","geometry":{"type":"Point","coordinates":[132.4647773583,34.3718117447]},"properties":{"名称":"広島翠一郵便局","種類":"郵便局","高さ":"6.9"}},{"type":"Feature","geometry":{"type":"Point","coordinates":[132.4666993588,34.377428745]},"properties":{"名称":"広島皆実町郵便局","種類":"郵便局","高さ":"7"}},{"type":"Feature","geometry":{"type":"Point","coordinates":[132.4691193579,34.3671687439]},"properties":{"名称":"宇品郵便局","種類":"郵便局","高さ":"18.5"}},{"type":"Feature","geometry":{"type":"Point","coordinates":[132.4715655794,34.3709645494]},"properties":{"名称":"広島翠三郵便局","種類":"郵便局","高さ":"10.1"}},{"type":"Feature","geometry":{"type":"Point","coordinates":[132.4727023613,34.3924747453]},"properties":{"名称":"広島金屋町郵便局","種類":"郵便局","高さ":"12.8"}},{"type":"Feature","geometry":{"type":"Point","coordinates":[132.4779043603,34.373611744]},"properties":{"名称":"広島旭郵便局","種類":"郵便局","高さ":"12.3"}},{"type":"Feature","geometry":{"type":"Point","coordinates":[132.4809983628,34.3931987447]},"properties":{"名称":"広島蟹屋郵便局","種類":"郵便局","高さ":"9.8"}},{"type":"Feature","geometry":{"type":"Point","coordinates":[132.4887843618,34.3760847431]},"properties":{"名称":"広島本浦郵便局","種類":"郵便局","高さ":"12.7"}},{"type":"Feature","geometry":{"type":"Point","coordinates":[132.4891973637,34.389382744]},"properties":{"名称":"広島大州郵便局","種類":"郵便局","高さ":"12.1"}},{"type":"Feature","geometry":{"type":"Point","coordinates":[132.4898523623,34.3805557436]},"properties":{"名称":"広島東雲二郵便局","種類":"郵便局","高さ":"7"}},{"type":"Feature","geometry":{"type":"Point","coordinates":[132.4982093627,34.3713057419]},"properties":{"名称":"広島仁保二郵便局","種類":"郵便局","高さ":"4.9"}},{"type":"Feature","geometry":{"type":"Point","coordinates":[132.48997036,34.3617407414]},"properties":{"名称":"広島日宇那郵便局","種類":"郵便局","高さ":"7.9"}},{"type":"Feature","geometry":{"type":"Point","coordinates":[132.4626303561,34.3567807439]},"properties":{"名称":"広島宇品本通郵便局","種類":"郵便局","高さ":"7.5"}},{"type":"Feature","geometry":{"type":"Point","coordinates":[132.4671433577,34.3621337435]},"properties":{"名称":"広島郵政研修所前郵便局","種類":"郵便局","高さ":"7.4"}},{"type":"Feature","geometry":{"type":"Point","coordinates":[132.4772703605,34.3802827447]},"properties":{"名称":"広島霞郵便局","種類":"郵便局","高さ":"8.2"}},{"type":"Feature","geometry":{"type":"Point","coordinates":[132.4701303601,34.3849337452]},"properties":{"名称":"広島比治山本町郵便局","種類":"郵便局","高さ":"10.3"}},{"type":"Feature","geometry":{"type":"Point","coordinates":[132.4818753629,34.3932807449]},"properties":{"名称":"日本通運株式会社(広島支店)","種類":"指定公共機関","高さ":"32.3"}},{"type":"Feature","geometry":{"type":"Point","coordinates":[132.4742663584,34.366243743]},"properties":{"名称":"福山通運（広島宇品支店）","種類":"指定公共機関","高さ":"17.5"}},{"type":"Feature","geometry":{"type":"Point","coordinates":[132.4533753557,34.3598057451]},"properties":{"名称":"佐川急便（中国支店）","種類":"指定公共機関","高さ":"37.3"}},{"type":"Feature","geometry":{"type":"Point","coordinates":[132.4618173574,34.3659957443]},"properties":{"名称":"広島市郷土資料館","種類":"博物館・美術館","高さ":"9"}},{"type":"Feature","geometry":{"type":"Point","coordinates":[132.4732553609,34.3862337447]},"properties":{"名称":"広島市現代美術館","種類":"博物館・美術館","高さ":"19.4"}},{"type":"Feature","geometry":{"type":"Point","coordinates":[132.5060343634,34.3745267416]},"properties":{"名称":"広島南警察署青崎交番","種類":"警察署","高さ":"6.4"}},{"type":"Feature","geometry":{"type":"Point","coordinates":[132.5059513641,34.3746977414]},"properties":{"名称":"広島市消防局広島市南消防署青崎出張所","種類":"消防署","高さ":"9.5"}},{"type":"Feature","geometry":{"type":"Point","coordinates":[132.505915363,34.3720907415]},"properties":{"名称":"市立青崎小学校","種類":"学校","高さ":"13.9"}},{"type":"Feature","geometry":{"type":"Point","coordinates":[132.5088278297,34.3664305103]},"properties":{"名称":"市立向洋新町小学校","種類":"学校","高さ":"17.9"}},{"type":"Feature","geometry":{"type":"Point","coordinates":[132.5070643633,34.3744497415]},"properties":{"名称":"山本整形外科病院","種類":"病院","高さ":"17.3"}},{"type":"Feature","geometry":{"type":"Point","coordinates":[132.5053593633,34.3716857408]},"properties":{"名称":"広島青崎郵便局","種類":"郵便局","高さ":"14.3"}},{"type":"Feature","geometry":{"type":"Point","coordinates":[132.372607565,34.370996089]},"properties":{"名称":"私立広島修道大学ひろしま協創中学校","種類":"学校","高さ":"12.1"}},{"type":"Feature","geometry":{"type":"Point","coordinates":[132.3745553465,34.3701177524]},"properties":{"名称":"広島井口西郵便局","種類":"郵便局","高さ":"7.7"}},{"type":"Feature","geometry":{"type":"Point","coordinates":[132.4276743538,34.3770597484]},"properties":{"名称":"広島国税局広島西税務署","種類":"国の機関","高さ":"15.1"}},{"type":"Feature","geometry":{"type":"Point","coordinates":[132.4147193512,34.3643127479]},"properties":{"名称":"中国運輸局広島運輸支局","種類":"国の機関","高さ":"9.8"}},{"type":"Feature","geometry":{"type":"Point","coordinates":[132.4323173575,34.4012017499]},"properties":{"名称":"中国地方整備局太田川河川事務所己斐出張所","種類":"国の機関","高さ":"33.7"}},{"type":"Feature","geometry":{"type":"Point","coordinates":[132.4344513572,34.3938927493]},"properties":{"名称":"広島市西区役所","種類":"ランドマーク","高さ":"21.5"}},{"type":"Feature","geometry":{"type":"Point","coordinates":[132.3953003487,34.3691767504]},"properties":{"名称":"広島西警察署","種類":"警察署","高さ":"21.4"}},{"type":"Feature","geometry":{"type":"Point","coordinates":[132.3798173473,34.3729437521]},"properties":{"名称":"広島西警察署井口交番","種類":"警察署","高さ":"3.8"}},{"type":"Feature","geometry":{"type":"Point","coordinates":[132.4281233564,34.3974707497]},"properties":{"名称":"広島西警察署己斐交番","種類":"警察署","高さ":"10.5"}},{"type":"Feature","geometry":{"type":"Point","coordinates":[132.4206673575,34.4088617513]},"properties":{"名称":"広島西警察署己斐上交番","種類":"警察署","高さ":"10.2"}},{"type":"Feature","geometry":{"type":"Point","coordinates":[132.4122853528,34.3783097499]},"properties":{"名称":"広島西警察署庚午交番","種類":"警察署","高さ":"5.1"}},{"type":"Feature","geometry":{"type":"Point","coordinates":[132.4161763543,34.3900007501]},"properties":{"名称":"広島西警察署高須交番","種類":"警察署","高さ":"6.8"}},{"type":"Feature","geometry":{"type":"Point","coordinates":[132.4024513514,34.3783687508]},"properties":{"名称":"広島西警察署草津交番","種類":"警察署","高さ":"6.1"}},{"type":"Feature","geometry":{"type":"Point","coordinates":[132.4495613608,34.4093347491]},"properties":{"名称":"広島西警察署横川交番","種類":"警察署","高さ":"8.6"}},{"type":"Feature","geometry":{"type":"Point","coordinates":[132.4256673537,34.3774787482]},"properties":{"名称":"広島西警察署観音新町交番","種類":"警察署","高さ":"3.5"}},{"type":"Feature","geometry":{"type":"Point","coordinates":[132.4357193567,34.3882477483]},"properties":{"名称":"広島西警察署観音町交番","種類":"警察署","高さ":"6.7"}},{"type":"Feature","geometry":{"type":"Point","coordinates":[132.4405233591,34.4000967494]},"properties":{"名称":"広島西警察署中広交番","種類":"警察署","高さ":"6.7"}},{"type":"Feature","geometry":{"type":"Point","coordinates":[132.3963083493,34.3680107504]},"properties":{"名称":"広島市消防局広島市西消防署井口出張所","種類":"消防署","高さ":"9.3"}},{"type":"Feature","geometry":{"type":"Point","coordinates":[132.4120053529,34.3820357503]},"properties":{"名称":"広島市消防局広島市西消防署庚午出張所","種類":"消防署","高さ":"19.9"}},{"type":"Feature","geometry":{"type":"Point","coordinates":[132.4366113574,34.394668749]},"properties":{"名称":"広島市消防局広島市西消防署","種類":"消防署","高さ":"25.5"}},{"type":"Feature","geometry":{"type":"Point","coordinates":[132.4222453573,34.4059137508]},"properties":{"名称":"広島市消防局広島市西消防署己斐出張所","種類":"消防署","高さ":"15.4"}},{"type":"Feature","geometry":{"type":"Point","coordinates":[132.4560263628,34.4148897489]},"properties":{"名称":"広島市消防局広島市西消防署三篠出張所","種類":"消防署","高さ":"16"}},{"type":"Feature","geometry":{"type":"Point","coordinates":[132.3854793479,34.3692817516]},"properties":{"名称":"県立広島井口高等学校","種類":"学校","高さ":"19.5"}},{"type":"Feature","geometry":{"type":"Point","coordinates":[132.4358863562,34.3871527481]},"properties":{"名称":"県立広島観音高等学校","種類":"学校","高さ":"11.7"}},{"type":"Feature","geometry":{"type":"Point","coordinates":[132.3844513484,34.3721427516]},"properties":{"名称":"市立井口小学校","種類":"学校","高さ":"19.2"}},{"type":"Feature","geometry":{"type":"Point","coordinates":[132.3819243485,34.3801427527]},"properties":{"名称":"市立井口台小学校","種類":"学校","高さ":"18.3"}},{"type":"Feature","geometry":{"type":"Point","coordinates":[132.3876523498,34.3795897518]},"properties":{"名称":"市立井口台中学校","種類":"学校","高さ":"21.7"}},{"type":"Feature","geometry":{"type":"Point","coordinates":[132.3870153479,34.3701257508]},"properties":{"名称":"市立井口中学校","種類":"学校","高さ":"16.8"}},{"type":"Feature","geometry":{"type":"Point","coordinates":[132.3904863487,34.3726047508]},"properties":{"名称":"市立井口明神小学校","種類":"学校","高さ":"16.8"}},{"type":"Feature","geometry":{"type":"Point","coordinates":[132.435118357,34.3905037483]},"properties":{"名称":"市立観音小学校","種類":"学校","高さ":"12.2"}},{"type":"Feature","geometry":{"type":"Point","coordinates":[132.4297853556,34.3872257493]},"properties":{"名称":"市立観音中学校","種類":"学校","高さ":"17.1"}},{"type":"Feature","geometry":{"type":"Point","coordinates":[132.4073963527,34.3870037509]},"properties":{"名称":"市立古田小学校","種類":"学校","高さ":"20"}},{"type":"Feature","geometry":{"type":"Point","coordinates":[132.404507352,34.3855867513]},"properties":{"名称":"市立古田中学校","種類":"学校","高さ":"16.2"}},{"type":"Feature","geometry":{"type":"Point","coordinates":[132.422311356,34.399960751]},"properties":{"名称":"市立己斐小学校","種類":"学校","高さ":"16.9"}},{"type":"Feature","geometry":{"type":"Point","coordinates":[132.4141183567,34.4072537522]},"properties":{"名称":"市立己斐中学校","種類":"学校","高さ":"17.9"}},{"type":"Feature","geometry":{"type":"Point","coordinates":[132.4252603574,34.4066087512]},"properties":{"名称":"市立己斐東小学校","種類":"学校","高さ":"18.2"}},{"type":"Feature","geometry":{"type":"Point","coordinates":[132.4171386615,34.3834224101]},"properties":{"名称":"市立庚午小学校","種類":"学校","高さ":"19.3"}},{"type":"Feature","geometry":{"type":"Point","coordinates":[132.4163403536,34.3808927493]},"properties":{"名称":"市立庚午中学校","種類":"学校","高さ":"17.3"}},{"type":"Feature","geometry":{"type":"Point","coordinates":[132.4508963618,34.4122817493]},"properties":{"名称":"市立三篠小学校","種類":"学校","高さ":"17.5"}},{"type":"Feature","geometry":{"type":"Point","coordinates":[132.4055223517,34.3816387505]},"properties":{"名称":"市立草津小学校","種類":"学校","高さ":"18.3"}},{"type":"Feature","geometry":{"type":"Point","coordinates":[132.4469223598,34.4061397492]},"properties":{"名称":"市立中広中学校","種類":"学校","高さ":"17.9"}},{"type":"Feature","geometry":{"type":"Point","coordinates":[132.4417853586,34.3973927485]},"properties":{"名称":"市立天満小学校","種類":"学校","高さ":"13.9"}},{"type":"Feature","geometry":{"type":"Point","coordinates":[132.4267423545,34.3823397487]},"properties":{"名称":"市立南観音小学校","種類":"学校","高さ":"19.2"}},{"type":"Feature","geometry":{"type":"Point","coordinates":[132.3937013499,34.3800037515]},"properties":{"名称":"市立鈴が峰小学校","種類":"学校","高さ":"16.1"}},{"type":"Feature","geometry":{"type":"Point","coordinates":[132.3767853466,34.3663647515]},"properties":{"名称":"私立広島工業大学高等学校","種類":"学校","高さ":"20.2"}},{"type":"Feature","geometry":{"type":"Point","coordinates":[132.4165097309,34.3655212389]},"properties":{"名称":"私立山陽高等学校","種類":"学校","高さ":"18.5"}},{"type":"Feature","geometry":{"type":"Point","coordinates":[132.4599353626,34.4137087488]},"properties":{"名称":"崇徳学園","種類":"学校","高さ":"29"}},{"type":"Feature","geometry":{"type":"Point","coordinates":[132.3872373518,34.398109753]},"properties":{"名称":"市立山田小学校","種類":"学校","高さ":"12.7"}},{"type":"Feature","geometry":{"type":"Point","coordinates":[132.4033603528,34.3919337514]},"properties":{"名称":"市立古田台小学校","種類":"学校","高さ":"18.8"}},{"type":"Feature","geometry":{"type":"Point","coordinates":[132.4322645766,34.4042772193]},"properties":{"名称":"私立広島音楽高等学校","種類":"学校","高さ":"12.7"}},{"type":"Feature","geometry":{"type":"Point","coordinates":[132.4146113547,34.3963077511]},"properties":{"名称":"市立高須小学校","種類":"学校","高さ":"17.1"}},{"type":"Feature","geometry":{"type":"Point","coordinates":[132.4219273551,34.3906777503]},"properties":{"名称":"荒木脳神経外科病院","種類":"病院","高さ":"20.3"}},{"type":"Feature","geometry":{"type":"Point","coordinates":[132.453100362,34.4117617485]},"properties":{"名称":"いまだ病院","種類":"病院","高さ":"24.7"}},{"type":"Feature","geometry":{"type":"Point","coordinates":[132.4062843522,34.3842747508]},"properties":{"名称":"加川整形外科病院","種類":"病院","高さ":"14.4"}},{"type":"Feature","geometry":{"type":"Point","coordinates":[132.4351123573,34.3950777491]},"properties":{"名称":"福島生協病院","種類":"病院","高さ":"32.1"}},{"type":"Feature","geometry":{"type":"Point","coordinates":[132.4469223602,34.4091597493]},"properties":{"名称":"長崎病院","種類":"病院","高さ":"25.3"}},{"type":"Feature","geometry":{"type":"Point","coordinates":[132.4470843604,34.4081687494]},"properties":{"名称":"槇殿順記念病院","種類":"病院","高さ":"36"}},{"type":"Feature","geometry":{"type":"Point","coordinates":[132.3917523487,34.3723287506]},"properties":{"名称":"奥田整形外科皮膚科医院","種類":"病院","高さ":"18"}},{"type":"Feature","geometry":{"type":"Point","coordinates":[132.4259953565,34.3941097502]},"properties":{"名称":"蜂須賀整形外科","種類":"病院","高さ":"14.9"}},{"type":"Feature","geometry":{"type":"Point","coordinates":[132.438525358,34.3970817488]},"properties":{"名称":"広島西郵便局","種類":"郵便局","高さ":"24.2"}},{"type":"Feature","geometry":{"type":"Point","coordinates":[132.380363348,34.378119752]},"properties":{"名称":"広島井口台郵便局","種類":"郵便局","高さ":"8.8"}},{"type":"Feature","geometry":{"type":"Point","coordinates":[132.3838113481,34.3691777514]},"properties":{"名称":"広島井口明神郵便局","種類":"郵便局","高さ":"6.4"}},{"type":"Feature","geometry":{"type":"Point","coordinates":[132.3865943487,34.3734777519]},"properties":{"名称":"広島井口郵便局","種類":"郵便局","高さ":"4.6"}},{"type":"Feature","geometry":{"type":"Point","coordinates":[132.3938133506,34.3807257516]},"properties":{"名称":"広島鈴が峰郵便局","種類":"郵便局","高さ":"28.5"}},{"type":"Feature","geometry":{"type":"Point","coordinates":[132.3942743494,34.372926751]},"properties":{"名称":"広島商工センター郵便局","種類":"郵便局","高さ":"7.9"}},{"type":"Feature","geometry":{"type":"Point","coordinates":[132.3990793496,34.3666957496]},"properties":{"名称":"広島総合卸センター郵便局","種類":"郵便局","高さ":"3.8"}},{"type":"Feature","geometry":{"type":"Point","coordinates":[132.4114323527,34.3834127501]},"properties":{"名称":"広島庚午郵便局","種類":"郵便局","高さ":"8.4"}},{"type":"Feature","geometry":{"type":"Point","coordinates":[132.4159683546,34.3894637505]},"properties":{"名称":"広島高須郵便局","種類":"郵便局","高さ":"12"}},{"type":"Feature","geometry":{"type":"Point","coordinates":[132.4196443565,34.4053447508]},"properties":{"名称":"広島己斐上郵便局","種類":"郵便局","高さ":"10.7"}},{"type":"Feature","geometry":{"type":"Point","coordinates":[132.4223223553,34.3903897495]},"properties":{"名称":"広島庚午北郵便局","種類":"郵便局","高さ":"24.6"}},{"type":"Feature","geometry":{"type":"Point","coordinates":[132.4227203579,34.4154187519]},"properties":{"名称":"広島己斐上四郵便局","種類":"郵便局","高さ":"9.4"}},{"type":"Feature","geometry":{"type":"Point","coordinates":[132.4258653538,34.3770857489]},"properties":{"名称":"広島観音新町郵便局","種類":"郵便局","高さ":"19.4"}},{"type":"Feature","geometry":{"type":"Point","coordinates":[132.4291503572,34.3979827499]},"properties":{"名称":"広島己斐郵便局","種類":"郵便局","高さ":"12.7"}},{"type":"Feature","geometry":{"type":"Point","coordinates":[132.4298543553,34.3810687482]},"properties":{"名称":"広島南観音七郵便局","種類":"郵便局","高さ":"6.5"}},{"type":"Feature","geometry":{"type":"Point","coordinates":[132.4374343572,34.390892749]},"properties":{"名称":"広島観音町郵便局","種類":"郵便局","高さ":"19.3"}},{"type":"Feature","geometry":{"type":"Point","coordinates":[132.4508393614,34.4084477485]},"properties":{"名称":"広島横川郵便局","種類":"郵便局","高さ":"8.3"}},{"type":"Feature","geometry":{"type":"Point","coordinates":[132.4526903622,34.4135797489]},"properties":{"名称":"広島三篠郵便局","種類":"郵便局","高さ":"10.4"}},{"type":"Feature","geometry":{"type":"Point","coordinates":[132.457103362,34.4130767487]},"properties":{"名称":"広島楠木郵便局","種類":"郵便局","高さ":"8.3"}},{"type":"Feature","geometry":{"type":"Point","coordinates":[132.4308093559,34.3854727483]},"properties":{"名称":"広島南観音郵便局","種類":"郵便局","高さ":"7"}},{"type":"Feature","geometry":{"type":"Point","coordinates":[132.4070783524,34.3802327502]},"properties":{"名称":"広島草津郵便局","種類":"郵便局","高さ":"5.3"}},{"type":"Feature","geometry":{"type":"Point","coordinates":[132.410245353,34.3862567503]},"properties":{"名称":"広島古江郵便局","種類":"郵便局","高さ":"8.1"}},{"type":"Feature","geometry":{"type":"Point","coordinates":[132.441507359,34.4027207491]},"properties":{"名称":"広島中広町郵便局","種類":"郵便局","高さ":"7.1"}},{"type":"Feature","geometry":{"type":"Point","coordinates":[132.4311993566,34.390880749]},"properties":{"名称":"福山通運（広島支店）","種類":"指定公共機関","高さ":"11.9"}},{"type":"Feature","geometry":{"type":"Point","coordinates":[132.3994953499,34.3735487505]},"properties":{"名称":"泉美術館","種類":"博物館・美術館","高さ":"27.4"}},{"type":"Feature","geometry":{"type":"Point","coordinates":[132.4625883643,34.424171749]},"properties":{"名称":"中国地方整備局太田川河川事務所大芝出張所","種類":"国の機関","高さ":"14.2"}},{"type":"Feature","geometry":{"type":"Point","coordinates":[132.424606359,34.4172117518]},"properties":{"名称":"市立己斐上小学校","種類":"学校","高さ":"17.7"}},{"type":"Feature","geometry":{"type":"Point","coordinates":[132.4289913595,34.4178017517]},"properties":{"名称":"市立己斐上中学校","種類":"学校","高さ":"14.9"}},{"type":"Feature","geometry":{"type":"Point","coordinates":[132.4571183632,34.4168097493]},"properties":{"名称":"市立大芝小学校","種類":"学校","高さ":"13.1"}},{"type":"Feature","geometry":{"type":"Point","coordinates":[132.4576093629,34.4202067488]},"properties":{"名称":"広島大宮郵便局","種類":"郵便局","高さ":"21.9"}},{"type":"Feature","geometry":{"type":"Point","coordinates":[132.4716743689,34.4519477507]},"properties":{"名称":"広島市安佐南区役所","種類":"ランドマーク","高さ":"21"}},{"type":"Feature","geometry":{"type":"Point","coordinates":[132.4700633685,34.4481977503]},"properties":{"名称":"安佐南警察署","種類":"警察署","高さ":"18.8"}},{"type":"Feature","geometry":{"type":"Point","coordinates":[132.4366753676,34.4743067551]},"properties":{"名称":"安佐南警察署安交番","種類":"警察署","高さ":"7.3"}},{"type":"Feature","geometry":{"type":"Point","coordinates":[132.4655983671,34.4411997502]},"properties":{"名称":"安佐南警察署祇園交番","種類":"警察署","高さ":"3.5"}},{"type":"Feature","geometry":{"type":"Point","coordinates":[132.4735500093,34.4574401742]},"properties":{"名称":"安佐南警察署古市交番","種類":"警察署","高さ":"6.8"}},{"type":"Feature","geometry":{"type":"Point","coordinates":[132.4850723734,34.4748827514]},"properties":{"名称":"安佐南警察署佐東交番","種類":"警察署","高さ":"7.8"}},{"type":"Feature","geometry":{"type":"Point","coordinates":[132.4529493644,34.4363567506]},"properties":{"名称":"安佐南警察署山本交番","種類":"警察署","高さ":"5.2"}},{"type":"Feature","geometry":{"type":"Point","coordinates":[132.4850313714,34.4598597499]},"properties":{"名称":"安佐南警察署川内交番","種類":"警察署","高さ":"8.2"}},{"type":"Feature","geometry":{"type":"Point","coordinates":[132.4055373621,34.4597517572]},"properties":{"名称":"安佐南警察署伴交番","種類":"警察署","高さ":"6.7"}},{"type":"Feature","geometry":{"type":"Point","coordinates":[132.4650146186,34.4384513221]},"properties":{"名称":"広島市消防局広島市安佐南消防署祇園出張所","種類":"消防署","高さ":"18.5"}},{"type":"Feature","geometry":{"type":"Point","coordinates":[132.410712673,34.4641752947]},"properties":{"名称":"広島市消防局広島市安佐南消防署沼田出張所","種類":"消防署","高さ":"17.2"}},{"type":"Feature","geometry":{"type":"Point","coordinates":[132.4491613707,34.4846817548]},"properties":{"名称":"広島市消防局広島市安佐南消防署上安出張所","種類":"消防署","高さ":"9.9"}},{"type":"Feature","geometry":{"type":"Point","coordinates":[132.476937478,34.4649756083]},"properties":{"名称":"広島市消防局広島市安佐南消防署","種類":"消防署","高さ":"30.2"}},{"type":"Feature","geometry":{"type":"Point","coordinates":[132.3893273586,34.4490017575]},"properties":{"名称":"市立大塚中学校","種類":"学校","高さ":"21.2"}},{"type":"Feature","geometry":{"type":"Point","coordinates":[132.4517105708,34.4806279909]},"properties":{"名称":"安田女子短期大学","種類":"学校","高さ":"23"}},{"type":"Feature","geometry":{"type":"Point","coordinates":[132.4627573709,34.4791427532]},"properties":{"名称":"県立安古市高等学校","種類":"学校","高さ":"15.2"}},{"type":"Feature","geometry":{"type":"Point","coordinates":[132.4336463657,34.4642817545]},"properties":{"名称":"県立安西高等学校","種類":"学校","高さ":"18.9"}},{"type":"Feature","geometry":{"type":"Point","coordinates":[132.4598493679,34.4517497516]},"properties":{"名称":"県立祇園北高等学校","種類":"学校","高さ":"20.5"}},{"type":"Feature","geometry":{"type":"Point","coordinates":[132.4568323665,34.4484317514]},"properties":{"名称":"広島経済大学","種類":"学校","高さ":"29.5"}},{"type":"Feature","geometry":{"type":"Point","coordinates":[132.4150903607,34.4394477546]},"properties":{"名称":"広島市立大学","種類":"学校","高さ":"33"}},{"type":"Feature","geometry":{"type":"Point","coordinates":[132.4050903581,34.4342817551]},"properties":{"名称":"広島修道大学","種類":"学校","高さ":"19.9"}},{"type":"Feature","geometry":{"type":"Point","coordinates":[132.4660473706,34.4685837526]},"properties":{"名称":"市立安佐中学校","種類":"学校","高さ":"18"}},{"type":"Feature","geometry":{"type":"Point","coordinates":[132.4592403684,34.457889752]},"properties":{"名称":"市立安佐南中学校","種類":"学校","高さ":"12.9"}},{"type":"Feature","geometry":{"type":"Point","coordinates":[132.4327013665,34.4677537549]},"properties":{"名称":"市立安西小学校","種類":"学校","高さ":"13.1"}},{"type":"Feature","geometry":{"type":"Point","coordinates":[132.431396366,34.4650037547]},"properties":{"名称":"市立安西中学校","種類":"学校","高さ":"16.1"}},{"type":"Feature","geometry":{"type":"Point","coordinates":[132.4356263685,34.480944756]},"properties":{"名称":"市立安北小学校","種類":"学校","高さ":"20.5"}},{"type":"Feature","geometry":{"type":"Point","coordinates":[132.4640593672,34.4426917501]},"properties":{"名称":"市立祇園小学校","種類":"学校","高さ":"16.6"}},{"type":"Feature","geometry":{"type":"Point","coordinates":[132.4556533664,34.4450167512]},"properties":{"名称":"市立祇園中学校","種類":"学校","高さ":"17.1"}},{"type":"Feature","geometry":{"type":"Point","coordinates":[132.4670353658,34.4315867494]},"properties":{"名称":"市立原南小学校","種類":"学校","高さ":"17.1"}},{"type":"Feature","geometry":{"type":"Point","coordinates":[132.4717983695,34.454640751]},"properties":{"名称":"市立古市小学校","種類":"学校","高さ":"17.3"}},{"type":"Feature","geometry":{"type":"Point","coordinates":[132.4340683683,34.4802227561]},"properties":{"名称":"市立高取北中学校","種類":"学校","高さ":"17.7"}},{"type":"Feature","geometry":{"type":"Point","coordinates":[132.4530903649,34.4383367513]},"properties":{"名称":"市立山本小学校","種類":"学校","高さ":"19.3"}},{"type":"Feature","geometry":{"type":"Point","coordinates":[132.4908963746,34.4736147508]},"properties":{"名称":"市立城南中学校","種類":"学校","高さ":"16.7"}},{"type":"Feature","geometry":{"type":"Point","coordinates":[132.4865573724,34.4645897507]},"properties":{"名称":"市立川内小学校","種類":"学校","高さ":"14.3"}},{"type":"Feature","geometry":{"type":"Point","coordinates":[132.4627423684,34.4572047515]},"properties":{"名称":"市立大町小学校","種類":"学校","高さ":"16.2"}},{"type":"Feature","geometry":{"type":"Point","coordinates":[132.392701359,34.4488927567]},"properties":{"名称":"市立大塚小学校","種類":"学校","高さ":"18.1"}},{"type":"Feature","geometry":{"type":"Point","coordinates":[132.4792013695,34.4494757501]},"properties":{"名称":"市立中筋小学校","種類":"学校","高さ":"18.4"}},{"type":"Feature","geometry":{"type":"Point","coordinates":[132.4486183627,34.4277817506]},"properties":{"名称":"市立長束中学校","種類":"学校","高さ":"13.1"}},{"type":"Feature","geometry":{"type":"Point","coordinates":[132.4772293687,34.4461427492]},"properties":{"名称":"市立東原中学校","種類":"学校","高さ":"14.1"}},{"type":"Feature","geometry":{"type":"Point","coordinates":[132.4655353718,34.4799477533]},"properties":{"名称":"市立毘沙門台小学校","種類":"学校","高さ":"9.3"}},{"type":"Feature","geometry":{"type":"Point","coordinates":[132.4729443714,34.4698667519]},"properties":{"名称":"市立緑井小学校","種類":"学校","高さ":"17.8"}},{"type":"Feature","geometry":{"type":"Point","coordinates":[132.4237693645,34.4613397552]},"properties":{"名称":"市立沼田高等学校","種類":"学校","高さ":"16.9"}},{"type":"Feature","geometry":{"type":"Point","coordinates":[132.4427903678,34.4733647551]},"properties":{"名称":"市立安小学校","種類":"学校","高さ":"16.9"}},{"type":"Feature","geometry":{"type":"Point","coordinates":[132.4477323703,34.485481755]},"properties":{"名称":"市立上安小学校","種類":"学校","高さ":"23.2"}},{"type":"Feature","geometry":{"type":"Point","coordinates":[132.4475073631,34.4316147506]},"properties":{"名称":"広島文化学園短期大学","種類":"学校","高さ":"21"}},{"type":"Feature","geometry":{"type":"Point","coordinates":[132.448836363,34.4284597504]},"properties":{"名称":"市立長束西小学校","種類":"学校","高さ":"12.6"}},{"type":"Feature","geometry":{"type":"Point","coordinates":[132.4512703694,34.4788017546]},"properties":{"名称":"安田女子大学","種類":"学校","高さ":"36.8"}},{"type":"Feature","geometry":{"type":"Point","coordinates":[132.4547343639,34.4270457502]},"properties":{"名称":"市立長束小学校","種類":"学校","高さ":"16.2"}},{"type":"Feature","geometry":{"type":"Point","coordinates":[132.4587793698,34.4742127533]},"properties":{"名称":"市立安東小学校","種類":"学校","高さ":"18.7"}},{"type":"Feature","geometry":{"type":"Point","coordinates":[132.4751703679,34.4390557493]},"properties":{"名称":"市立祇園東中学校","種類":"学校","高さ":"19.8"}},{"type":"Feature","geometry":{"type":"Point","coordinates":[132.4923333753,34.4803807512]},"properties":{"名称":"市立梅林小学校","種類":"学校","高さ":"10.3"}},{"type":"Feature","geometry":{"type":"Point","coordinates":[132.4702653669,34.4396277501]},"properties":{"名称":"市立原小学校","種類":"学校","高さ":"15.6"}},{"type":"Feature","geometry":{"type":"Point","coordinates":[132.4073883626,34.4618117568]},"properties":{"名称":"市立伴小学校","種類":"学校","高さ":"13.6"}},{"type":"Feature","geometry":{"type":"Point","coordinates":[132.4207673644,34.462790756]},"properties":{"名称":"市立伴東小学校","種類":"学校","高さ":"21.1"}},{"type":"Feature","geometry":{"type":"Point","coordinates":[132.4061133624,34.4642307572]},"properties":{"名称":"市立伴中学校","種類":"学校","高さ":"16.4"}},{"type":"Feature","geometry":{"type":"Point","coordinates":[132.4127193638,34.4712367574]},"properties":{"名称":"私立広陵高等学校","種類":"学校","高さ":"13.3"}},{"type":"Feature","geometry":{"type":"Point","coordinates":[132.3956023633,34.4820687592]},"properties":{"名称":"広島工業大学(沼田校舎)","種類":"学校","高さ":"5.9"}},{"type":"Feature","geometry":{"type":"Point","coordinates":[132.3844453579,34.4512987579]},"properties":{"名称":"市立伴南小学校","種類":"学校","高さ":"11.4"}},{"type":"Feature","geometry":{"type":"Point","coordinates":[132.4848433699,34.4455677489]},"properties":{"名称":"市立東野小学校","種類":"学校","高さ":"14.4"}},{"type":"Feature","geometry":{"type":"Point","coordinates":[132.4340693626,34.4418077532]},"properties":{"名称":"市立春日野小学校","種類":"学校","高さ":"15"}},{"type":"Feature","geometry":{"type":"Point","coordinates":[132.4477381004,34.4314533798]},"properties":{"名称":"広島文化学園大学（長束キャンパス）","種類":"学校","高さ":"24.7"}},{"type":"Feature","geometry":{"type":"Point","coordinates":[132.4650463665,34.4388587501]},"properties":{"名称":"野村病院","種類":"病院","高さ":"28.2"}},{"type":"Feature","geometry":{"type":"Point","coordinates":[132.4210753644,34.4641477557]},"properties":{"名称":"日比野病院","種類":"病院","高さ":"17.4"}},{"type":"Feature","geometry":{"type":"Point","coordinates":[132.4746163702,34.4607487505]},"properties":{"名称":"広島共立病院","種類":"病院","高さ":"26.7"}},{"type":"Feature","geometry":{"type":"Point","coordinates":[132.4672633672,34.4445747504]},"properties":{"名称":"山口整形外科病院","種類":"病院","高さ":"20.2"}},{"type":"Feature","geometry":{"type":"Point","coordinates":[132.4447573679,34.4732647548]},"properties":{"名称":"原田整形外科病院","種類":"病院","高さ":"19.5"}},{"type":"Feature","geometry":{"type":"Point","coordinates":[132.4817943726,34.4723847514]},"properties":{"名称":"サカ緑井病院","種類":"病院","高さ":"32.2"}},{"type":"Feature","geometry":{"type":"Point","coordinates":[132.4653453708,34.4702437529]},"properties":{"名称":"山崎整形外科内科クリニック","種類":"病院","高さ":"18.1"}},{"type":"Feature","geometry":{"type":"Point","coordinates":[132.4572663695,34.4699897535]},"properties":{"名称":"谷川脳神経外科","種類":"病院","高さ":"17.9"}},{"type":"Feature","geometry":{"type":"Point","coordinates":[132.4684793675,34.4429477498]},"properties":{"名称":"安佐南郵便局","種類":"郵便局","高さ":"17.8"}},{"type":"Feature","geometry":{"type":"Point","coordinates":[132.4740813715,34.4675667517]},"properties":{"名称":"広島下緑井郵便局","種類":"郵便局","高さ":"8.4"}},{"type":"Feature","geometry":{"type":"Point","coordinates":[132.4519073641,34.4306517507]},"properties":{"名称":"広島祇園平原郵便局","種類":"郵便局","高さ":"8.1"}},{"type":"Feature","geometry":{"type":"Point","coordinates":[132.4591953648,34.4316027499]},"properties":{"名称":"長束郵便局","種類":"郵便局","高さ":"10.7"}},{"type":"Feature","geometry":{"type":"Point","coordinates":[132.4531273645,34.4362967506]},"properties":{"名称":"山本郵便局","種類":"郵便局","高さ":"9.2"}},{"type":"Feature","geometry":{"type":"Point","coordinates":[132.4732693675,34.4411077498]},"properties":{"名称":"広島祇園原郵便局","種類":"郵便局","高さ":"7.6"}},{"type":"Feature","geometry":{"type":"Point","coordinates":[132.4013263587,34.4429827554]},"properties":{"名称":"広島大塚郵便局","種類":"郵便局","高さ":"7.6"}},{"type":"Feature","geometry":{"type":"Point","coordinates":[132.4834483697,34.4491777494]},"properties":{"名称":"広島東野郵便局","種類":"郵便局","高さ":"4"}},{"type":"Feature","geometry":{"type":"Point","coordinates":[132.47410237,34.4547347506]},"properties":{"名称":"古市郵便局","種類":"郵便局","高さ":"8.8"}},{"type":"Feature","geometry":{"type":"Point","coordinates":[132.4655003695,34.460509752]},"properties":{"名称":"大町郵便局","種類":"郵便局","高さ":"6.6"}},{"type":"Feature","geometry":{"type":"Point","coordinates":[132.4101343629,34.4628637566]},"properties":{"名称":"伴郵便局","種類":"郵便局","高さ":"8.1"}},{"type":"Feature","geometry":{"type":"Point","coordinates":[132.4361303675,34.4739367551]},"properties":{"名称":"広島高取郵便局","種類":"郵便局","高さ":"8.8"}},{"type":"Feature","geometry":{"type":"Point","coordinates":[132.4619553712,34.4759217529]},"properties":{"名称":"広島毘沙門台郵便局","種類":"郵便局","高さ":"7.7"}},{"type":"Feature","geometry":{"type":"Point","coordinates":[132.4435843691,34.4773967551]},"properties":{"名称":"広島上安郵便局","種類":"郵便局","高さ":"7.6"}},{"type":"Feature","geometry":{"type":"Point","coordinates":[132.4996773763,34.4837217502]},"properties":{"名称":"八木郵便局","種類":"郵便局","高さ":"5"}},{"type":"Feature","geometry":{"type":"Point","coordinates":[132.4634113666,34.4397397504]},"properties":{"名称":"中祇園郵便局","種類":"郵便局","高さ":"7.5"}},{"type":"Feature","geometry":{"type":"Point","coordinates":[132.4176743641,34.4676597563]},"properties":{"名称":"広島小野原郵便局","種類":"郵便局","高さ":"5.1"}},{"type":"Feature","geometry":{"type":"Point","coordinates":[132.4803943724,34.4706747508]},"properties":{"名称":"広島緑井郵便局","種類":"郵便局","高さ":"8.4"}},{"type":"Feature","geometry":{"type":"Point","coordinates":[132.4473693679,34.4711177543]},"properties":{"名称":"広島相田簡易郵便局","種類":"郵便局","高さ":"7"}},{"type":"Feature","geometry":{"type":"Point","coordinates":[132.4857133719,34.4631487498]},"properties":{"名称":"広島川内簡易郵便局","種類":"郵便局","高さ":"8.3"}},{"type":"Feature","geometry":{"type":"Point","coordinates":[132.471837371,34.4659827515]},"properties":{"名称":"西日本高速道路株式会社(中国支社)","種類":"指定公共機関","高さ":"20.7"}},{"type":"Feature","geometry":{"type":"Point","coordinates":[132.3799753576,34.4542327589]},"properties":{"名称":"ヤマト運輸（中国支社）","種類":"指定公共機関","高さ":"14.4"}},{"type":"Feature","geometry":{"type":"Point","coordinates":[132.428618366,34.4706977554]},"properties":{"名称":"広島市交通科学館","種類":"博物館・美術館","高さ":"31.7"}},{"type":"Feature","geometry":{"type":"Point","coordinates":[132.500693376,34.4802057505]},"properties":{"名称":"中国地方整備局太田川河川事務所高瀬分室","種類":"国の機関","高さ":"10.7"}},{"type":"Feature","geometry":{"type":"Point","coordinates":[132.5040723771,34.4836997506]},"properties":{"名称":"市立城山北中学校","種類":"学校","高さ":"18.8"}},{"type":"Feature","geometry":{"type":"Point","coordinates":[132.5065633778,34.4882767505]},"properties":{"名称":"市立八木小学校","種類":"学校","高さ":"16.1"}},{"type":"Feature","geometry":{"type":"Point","coordinates":[132.4960223732,34.4584027491]},"properties":{"名称":"市立口田小学校","種類":"学校","高さ":"11.7"}},{"type":"Feature","geometry":{"type":"Point","coordinates":[132.4963133736,34.4620867493]},"properties":{"名称":"口田郵便局","種類":"郵便局","高さ":"10.2"}},{"type":"Feature","geometry":{"type":"Point","coordinates":[132.4409353707,34.4987157572]},"properties":{"名称":"広島市安佐動物公園","種類":"博物館・美術館","高さ":"7"}},{"type":"Feature","geometry":{"type":"Point","coordinates":[132.5000653737,34.4633187492]},"properties":{"名称":"安佐北警察署口田交番","種類":"警察署","高さ":"8.3"}},{"type":"Feature","geometry":{"type":"Point","coordinates":[132.5243323793,34.4816017482]},"properties":{"名称":"安佐北警察署高陽交番","種類":"警察署","高さ":"21.5"}},{"type":"Feature","geometry":{"type":"Point","coordinates":[132.5569563823,34.4739757447]},"properties":{"名称":"安佐北警察署上深川交番","種類":"警察署","高さ":"5.7"}},{"type":"Feature","geometry":{"type":"Point","coordinates":[132.5217420832,34.4808359495]},"properties":{"名称":"広島市消防局広島市安佐北消防署高陽出張所","種類":"消防署","高さ":"9.3"}},{"type":"Feature","geometry":{"type":"Point","coordinates":[132.5125073778,34.4835867492]},"properties":{"名称":"県立高陽高等学校","種類":"学校","高さ":"17.2"}},{"type":"Feature","geometry":{"type":"Point","coordinates":[132.5242573783,34.4721147479]},"properties":{"名称":"県立高陽東高等学校","種類":"学校","高さ":"19.6"}},{"type":"Feature","geometry":{"type":"Point","coordinates":[132.5276673801,34.4843797485]},"properties":{"名称":"市立亀崎中学校","種類":"学校","高さ":"16.4"}},{"type":"Feature","geometry":{"type":"Point","coordinates":[132.5074991284,34.4563440505]},"properties":{"名称":"市立口田中学校","種類":"学校","高さ":"17.6"}},{"type":"Feature","geometry":{"type":"Point","coordinates":[132.501751375,34.4692277496]},"properties":{"名称":"市立口田東小学校","種類":"学校","高さ":"17.5"}},{"type":"Feature","geometry":{"type":"Point","coordinates":[132.5670073849,34.4815037445]},"properties":{"名称":"市立狩小川小学校","種類":"学校","高さ":"17.5"}},{"type":"Feature","geometry":{"type":"Point","coordinates":[132.5307625373,34.4822967725]},"properties":{"名称":"市立深川小学校","種類":"学校","高さ":"13.7"}},{"type":"Feature","geometry":{"type":"Point","coordinates":[132.5181743789,34.4831147494]},"properties":{"名称":"市立真亀小学校","種類":"学校","高さ":"17.4"}},{"type":"Feature","geometry":{"type":"Point","coordinates":[132.5287616622,34.4729832067]},"properties":{"名称":"市立倉掛小学校","種類":"学校","高さ":"16.4"}},{"type":"Feature","geometry":{"type":"Point","coordinates":[132.5137273952,34.466699817]},"properties":{"名称":"市立落合小学校","種類":"学校","高さ":"18.8"}},{"type":"Feature","geometry":{"type":"Point","coordinates":[132.517057668,34.4821952142]},"properties":{"名称":"市立落合中学校","種類":"学校","高さ":"17.1"}},{"type":"Feature","geometry":{"type":"Point","coordinates":[132.5153646671,34.4753970757]},"properties":{"名称":"市立落合東小学校","種類":"学校","高さ":"19.5"}},{"type":"Feature","geometry":{"type":"Point","coordinates":[132.5253329204,34.4833137355]},"properties":{"名称":"市立亀崎小学校","種類":"学校","高さ":"12.4"}},{"type":"Feature","geometry":{"type":"Point","coordinates":[132.5340823801,34.478635747]},"properties":{"名称":"市立高陽中学校","種類":"学校","高さ":"12.7"}},{"type":"Feature","geometry":{"type":"Point","coordinates":[132.5270903786,34.4698927475]},"properties":{"名称":"県立広島特別支援学校","種類":"学校","高さ":"8.6"}},{"type":"Feature","geometry":{"type":"Point","coordinates":[132.5258883794,34.4821187486]},"properties":{"名称":"高陽ニュータウン病院","種類":"病院","高さ":"27.8"}},{"type":"Feature","geometry":{"type":"Point","coordinates":[132.5203273778,34.4761357478]},"properties":{"名称":"新谷整形外科病院","種類":"病院","高さ":"14.1"}},{"type":"Feature","geometry":{"type":"Point","coordinates":[132.5144188618,34.476486296]},"properties":{"名称":"広島高陽金平郵便局","種類":"郵便局","高さ":"7.4"}},{"type":"Feature","geometry":{"type":"Point","coordinates":[132.5221410451,34.4819010626]},"properties":{"名称":"高陽郵便局","種類":"郵便局","高さ":"14.2"}},{"type":"Feature","geometry":{"type":"Point","coordinates":[132.5304343791,34.4748847476]},"properties":{"名称":"広島倉掛郵便局","種類":"郵便局","高さ":"5"}},{"type":"Feature","geometry":{"type":"Point","coordinates":[132.5341278204,34.4806864515]},"properties":{"名称":"広島中深川郵便局","種類":"郵便局","高さ":"7.6"}},{"type":"Feature","geometry":{"type":"Point","coordinates":[132.5769243859,34.4832537435]},"properties":{"名称":"狩留家郵便局","種類":"郵便局","高さ":"4.9"}},{"type":"Feature","geometry":{"type":"Point","coordinates":[132.5080088037,34.4690890889]},"properties":{"名称":"高陽岩上郵便局","種類":"郵便局","高さ":"7.5"}},{"type":"Feature","geometry":{"type":"Point","coordinates":[132.4365555937,34.5077836612]},"properties":{"名称":"安佐北警察署あさひが丘交番","種類":"警察署","高さ":"4.8"}},{"type":"Feature","geometry":{"type":"Point","coordinates":[132.4927733805,34.5241427547]},"properties":{"名称":"安佐北警察署虹山交番","種類":"警察署","高さ":"7.8"}},{"type":"Feature","geometry":{"type":"Point","coordinates":[132.4927013802,34.5199757537]},"properties":{"名称":"市立亀山中学校","種類":"学校","高さ":"13"}},{"type":"Feature","geometry":{"type":"Point","coordinates":[132.4942533801,34.5202427542]},"properties":{"名称":"市立亀山南小学校","種類":"学校","高さ":"14.8"}},{"type":"Feature","geometry":{"type":"Point","coordinates":[132.4392321114,34.5079808355]},"properties":{"名称":"市立日浦小学校","種類":"学校","高さ":"18.8"}},{"type":"Feature","geometry":{"type":"Point","coordinates":[132.4388973722,34.5091907575]},"properties":{"名称":"市立日浦中学校","種類":"学校","高さ":"13"}},{"type":"Feature","geometry":{"type":"Point","coordinates":[132.496007381,34.5268367547]},"properties":{"名称":"市立亀山小学校","種類":"学校","高さ":"15.4"}},{"type":"Feature","geometry":{"type":"Point","coordinates":[132.4930386458,34.5274432326]},"properties":{"名称":"サカ整形外科","種類":"病院","高さ":"11.1"}},{"type":"Feature","geometry":{"type":"Point","coordinates":[132.4370833714,34.5051387575]},"properties":{"名称":"日浦郵便局","種類":"郵便局","高さ":"8.5"}},{"type":"Feature","geometry":{"type":"Point","coordinates":[132.4957123817,34.5257427546]},"properties":{"名称":"広島亀山郵便局","種類":"郵便局","高さ":"5.5"}},{"type":"Feature","geometry":{"type":"Point","coordinates":[132.5086973821,34.5170707522]},"properties":{"名称":"可部区検察庁","種類":"国の機関","高さ":"4"}},{"type":"Feature","geometry":{"type":"Point","coordinates":[132.5103673817,34.5151117524]},"properties":{"名称":"中国地方整備局太田川河川事務所可部出張所","種類":"国の機関","高さ":"3.9"}},{"type":"Feature","geometry":{"type":"Point","coordinates":[132.5106513824,34.5161897527]},"properties":{"名称":"中国四国農政局中国土地改良調査管理事務所","種類":"国の機関","高さ":"7.7"}},{"type":"Feature","geometry":{"type":"Point","coordinates":[132.508384382,34.5170857529]},"properties":{"名称":"可部簡易裁判所","種類":"国の機関","高さ":"7.7"}},{"type":"Feature","geometry":{"type":"Point","coordinates":[132.514859381,34.502513751]},"properties":{"名称":"広島労働局広島北労働基準監督署","種類":"国の機関","高さ":"7.7"}},{"type":"Feature","geometry":{"type":"Point","coordinates":[132.5145353804,34.5024477506]},"properties":{"名称":"広島労働局可部公共職業安定所","種類":"国の機関","高さ":"8.5"}},{"type":"Feature","geometry":{"type":"Point","coordinates":[132.5118013814,34.5071887514]},"properties":{"名称":"広島法務局可部出張所","種類":"国の機関","高さ":"22.1"}},{"type":"Feature","geometry":{"type":"Point","coordinates":[132.5038249239,34.5175223211]},"properties":{"名称":"広島国税局広島北税務署","種類":"国の機関","高さ":"9"}},{"type":"Feature","geometry":{"type":"Point","coordinates":[132.5129823805,34.5022227512]},"properties":{"名称":"中国地方整備局広島国道事務所広島維持出張所可部分室","種類":"国の機関","高さ":"3.9"}},{"type":"Feature","geometry":{"type":"Point","coordinates":[132.5077853814,34.5183367523]},"properties":{"名称":"広島市安佐北区役所","種類":"ランドマーク","高さ":"21.1"}},{"type":"Feature","geometry":{"type":"Point","coordinates":[132.5063813812,34.5182797525]},"properties":{"名称":"安佐北警察署","種類":"警察署","高さ":"14.9"}},{"type":"Feature","geometry":{"type":"Point","coordinates":[132.5136613821,34.5161047521]},"properties":{"名称":"安佐北警察署可部交番","種類":"警察署","高さ":"3.9"}},{"type":"Feature","geometry":{"type":"Point","coordinates":[132.5288819409,34.5429172222]},"properties":{"名称":"安佐北警察署三入交番","種類":"警察署","高さ":"4.6"}},{"type":"Feature","geometry":{"type":"Point","coordinates":[132.5135443806,34.5039397513]},"properties":{"名称":"広島市消防局広島市安佐北消防署","種類":"消防署","高さ":"17.2"}},{"type":"Feature","geometry":{"type":"Point","coordinates":[132.5096743825,34.5185867529]},"properties":{"名称":"市立可部小学校","種類":"学校","高さ":"16.9"}},{"type":"Feature","geometry":{"type":"Point","coordinates":[132.5268963873,34.5393097527]},"properties":{"名称":"市立三入小学校","種類":"学校","高さ":"12.6"}},{"type":"Feature","geometry":{"type":"Point","coordinates":[132.5461783914,34.5548547524]},"properties":{"名称":"市立大林小学校","種類":"学校","高さ":"8.8"}},{"type":"Feature","geometry":{"type":"Point","coordinates":[132.5123233834,34.5248847531]},"properties":{"名称":"市立可部中学校","種類":"学校","高さ":"21.7"}},{"type":"Feature","geometry":{"type":"Point","coordinates":[132.5192713835,34.5165117515]},"properties":{"名称":"県立可部高等学校","種類":"学校","高さ":"14.8"}},{"type":"Feature","geometry":{"type":"Point","coordinates":[132.5167013809,34.5041907509]},"properties":{"名称":"市立可部南小学校","種類":"学校","高さ":"16.6"}},{"type":"Feature","geometry":{"type":"Point","coordinates":[132.5195433821,34.505619751]},"properties":{"名称":"広島文教大学","種類":"学校","高さ":"28.4"}},{"type":"Feature","geometry":{"type":"Point","coordinates":[132.5219273819,34.5069327503]},"properties":{"名称":"私立広島文教大学附属高等学校","種類":"学校","高さ":"14"}},{"type":"Feature","geometry":{"type":"Point","coordinates":[132.515783381,34.5060627512]},"properties":{"名称":"広島市立安佐市民病院","種類":"病院","高さ":"37.5"}},{"type":"Feature","geometry":{"type":"Point","coordinates":[132.5130153806,34.505353751]},"properties":{"名称":"野村病院","種類":"病院","高さ":"19"}},{"type":"Feature","geometry":{"type":"Point","coordinates":[132.5109413826,34.5190027522]},"properties":{"名称":"可部郵便局","種類":"郵便局","高さ":"12.3"}},{"type":"Feature","geometry":{"type":"Point","coordinates":[132.516804381,34.5028357504]},"properties":{"名称":"広島可部南郵便局","種類":"郵便局","高さ":"5"}},{"type":"Feature","geometry":{"type":"Point","coordinates":[132.5324563879,34.5451727524]},"properties":{"名称":"三入郵便局","種類":"郵便局","高さ":"4.7"}},{"type":"Feature","geometry":{"type":"Point","coordinates":[132.5009713809,34.517191753]},"properties":{"名称":"可部四日市簡易郵便局","種類":"郵便局","高さ":"9"}},{"type":"Feature","geometry":{"type":"Point","coordinates":[132.5440923911,34.5541537526]},"properties":{"名称":"大林簡易郵便局","種類":"郵便局","高さ":"4.8"}},{"type":"Feature","geometry":{"type":"Point","coordinates":[132.5217653657,34.3727407396]},"properties":{"名称":"中国地方整備局中国技術事務所","種類":"国の機関","高さ":"15.7"}},{"type":"Feature","geometry":{"type":"Point","coordinates":[132.5255633658,34.3716707393]},"properties":{"名称":"広島市安芸区役所","種類":"ランドマーク","高さ":"26.7"}},{"type":"Feature","geometry":{"type":"Point","coordinates":[132.5188277885,34.3742649334]},"properties":{"名称":"海田警察署船越交番","種類":"警察署","高さ":"7.4"}},{"type":"Feature","geometry":{"type":"Point","coordinates":[132.5632073732,34.3912867375]},"properties":{"名称":"海田警察署中野交番","種類":"警察署","高さ":"6.5"}},{"type":"Feature","geometry":{"type":"Point","coordinates":[132.5794333769,34.4045707373]},"properties":{"名称":"海田警察署中野東駅前交番","種類":"警察署","高さ":"4.7"}},{"type":"Feature","geometry":{"type":"Point","coordinates":[132.5291913636,34.3504727373]},"properties":{"名称":"海田警察署矢野交番","種類":"警察署","高さ":"6.3"}},{"type":"Feature","geometry":{"type":"Point","coordinates":[132.5216274827,34.3529679683]},"properties":{"名称":"広島市消防局広島市安芸消防署矢野出張所","種類":"消防署","高さ":"10.7"}},{"type":"Feature","geometry":{"type":"Point","coordinates":[132.5855353787,34.413142738]},"properties":{"名称":"広島市消防局広島市安芸消防署瀬野川出張所","種類":"消防署","高さ":"23.9"}},{"type":"Feature","geometry":{"type":"Point","coordinates":[132.5214793623,34.3504207382]},"properties":{"名称":"県立安芸南高等学校","種類":"学校","高さ":"19.2"}},{"type":"Feature","geometry":{"type":"Point","coordinates":[132.5271751925,34.3745582691]},"properties":{"名称":"市立船越小学校","種類":"学校","高さ":"12.8"}},{"type":"Feature","geometry":{"type":"Point","coordinates":[132.5334139326,34.3831908823]},"properties":{"名称":"市立船越中学校","種類":"学校","高さ":"17.7"}},{"type":"Feature","geometry":{"type":"Point","coordinates":[132.5504829408,34.3939951299]},"properties":{"名称":"市立畑賀小学校","種類":"学校","高さ":"15.8"}},{"type":"Feature","geometry":{"type":"Point","coordinates":[132.5353683639,34.3479207367]},"properties":{"名称":"市立矢野小学校","種類":"学校","高さ":"19.1"}},{"type":"Feature","geometry":{"type":"Point","coordinates":[132.5336463637,34.3503367369]},"properties":{"名称":"市立矢野西小学校","種類":"学校","高さ":"18.6"}},{"type":"Feature","geometry":{"type":"Point","coordinates":[132.5346243624,34.3381267358]},"properties":{"名称":"市立矢野南小学校","種類":"学校","高さ":"15.3"}},{"type":"Feature","geometry":{"type":"Point","coordinates":[132.540262239,34.3592603977]},"properties":{"名称":"市立矢野中学校","種類":"学校","高さ":"13.4"}},{"type":"Feature","geometry":{"type":"Point","coordinates":[132.5726720315,34.4011591082]},"properties":{"名称":"市立瀬野川中学校","種類":"学校","高さ":"12"}},{"type":"Feature","geometry":{"type":"Point","coordinates":[132.5733141806,34.3993492754]},"properties":{"名称":"市立中野小学校","種類":"学校","高さ":"11.5"}},{"type":"Feature","geometry":{"type":"Point","coordinates":[132.5808993763,34.4038557374]},"properties":{"名称":"市立中野東小学校","種類":"学校","高さ":"18.5"}},{"type":"Feature","geometry":{"type":"Point","coordinates":[132.5798433777,34.4100707377]},"properties":{"名称":"広島国際学院大学(中野キャンパス)","種類":"学校","高さ":"17.4"}},{"type":"Feature","geometry":{"type":"Point","coordinates":[132.5524233721,34.3924987386]},"properties":{"名称":"安芸市民病院","種類":"病院","高さ":"10.4"}},{"type":"Feature","geometry":{"type":"Point","coordinates":[132.524577365,34.370104739]},"properties":{"名称":"松石病院","種類":"病院","高さ":"8.7"}},{"type":"Feature","geometry":{"type":"Point","coordinates":[132.5612473718,34.3856607377]},"properties":{"名称":"シラネ外科・胃腸科","種類":"病院","高さ":"22.3"}},{"type":"Feature","geometry":{"type":"Point","coordinates":[132.5226143657,34.3749867398]},"properties":{"名称":"広島船越郵便局","種類":"郵便局","高さ":"9.6"}},{"type":"Feature","geometry":{"type":"Point","coordinates":[132.5348328309,34.3539919066]},"properties":{"名称":"矢野郵便局","種類":"郵便局","高さ":"9.9"}},{"type":"Feature","geometry":{"type":"Point","coordinates":[132.5379391128,34.3455376228]},"properties":{"名称":"広島矢野東郵便局","種類":"郵便局","高さ":"7.7"}},{"type":"Feature","geometry":{"type":"Point","coordinates":[132.563260373,34.3916227377]},"properties":{"名称":"広島中野郵便局","種類":"郵便局","高さ":"10.7"}},{"type":"Feature","geometry":{"type":"Point","coordinates":[132.579650735,34.4040859136]},"properties":{"名称":"広島中野東郵便局","種類":"郵便局","高さ":"7.7"}},{"type":"Feature","geometry":{"type":"Point","coordinates":[132.552853372,34.391280739]},"properties":{"名称":"広島畑賀簡易郵便局","種類":"郵便局","高さ":"5"}},{"type":"Feature","geometry":{"type":"Point","coordinates":[132.5260513629,34.3475157376]},"properties":{"名称":"矢野大井簡易郵便局","種類":"郵便局","高さ":"8.7"}},{"type":"Feature","geometry":{"type":"Point","coordinates":[132.5231643637,34.3570807382]},"properties":{"名称":"福山通運（広島海田支店）","種類":"指定公共機関","高さ":"15"}},{"type":"Feature","geometry":{"type":"Point","coordinates":[132.6022553812,34.4214967366]},"properties":{"名称":"海田警察署瀬野交番","種類":"警察署","高さ":"7.2"}},{"type":"Feature","geometry":{"type":"Point","coordinates":[132.6066888533,34.4216090256]},"properties":{"名称":"市立瀬野小学校","種類":"学校","高さ":"13"}},{"type":"Feature","geometry":{"type":"Point","coordinates":[132.5884163798,34.4209467376]},"properties":{"名称":"市立瀬野川東中学校","種類":"学校","高さ":"15.6"}},{"type":"Feature","geometry":{"type":"Point","coordinates":[132.5900023684,34.4268268013]},"properties":{"名称":"市立みどり坂小学校","種類":"学校","高さ":"17.5"}},{"type":"Feature","geometry":{"type":"Point","coordinates":[132.5999523808,34.4212317372]},"properties":{"名称":"瀬野川郵便局","種類":"郵便局","高さ":"5.6"}},{"type":"Feature","geometry":{"type":"Point","coordinates":[132.6203243844,34.4250757358]},"properties":{"名称":"広島上瀬野郵便局","種類":"郵便局","高さ":"6.9"}},{"type":"Feature","geometry":{"type":"Point","coordinates":[132.6279509602,34.4259206312]},"properties":{"名称":"広島国際学院大学自動車短期大学部","種類":"学校","高さ":"27.9"}},{"type":"Feature","geometry":{"type":"Point","coordinates":[132.6267977108,34.4254743589]},"properties":{"名称":"広島国際学院大学(上瀬野キャンパス)","種類":"学校","高さ":"24.9"}},{"type":"Feature","geometry":{"type":"Point","coordinates":[132.3608403447,34.3644477534]},"properties":{"名称":"広島市佐伯区役所","種類":"ランドマーク","高さ":"33.9"}},{"type":"Feature","geometry":{"type":"Point","coordinates":[132.35514535,34.4131347574]},"properties":{"名称":"佐伯警察署河内駐在所","種類":"警察署","高さ":"4.9"}},{"type":"Feature","geometry":{"type":"Point","coordinates":[132.3504266413,34.3736550897]},"properties":{"名称":"佐伯警察署観音交番","種類":"警察署","高さ":"6.7"}},{"type":"Feature","geometry":{"type":"Point","coordinates":[132.3636393443,34.361913753]},"properties":{"名称":"佐伯警察署五日市交番","種類":"警察署","高さ":"5.6"}},{"type":"Feature","geometry":{"type":"Point","coordinates":[132.3598047051,34.3789333192]},"properties":{"名称":"佐伯警察署五日市中央交番","種類":"警察署","高さ":"5.8"}},{"type":"Feature","geometry":{"type":"Point","coordinates":[132.3532353454,34.3846147549]},"properties":{"名称":"佐伯警察署","種類":"警察署","高さ":"26.3"}},{"type":"Feature","geometry":{"type":"Point","coordinates":[132.3560353438,34.3646147534]},"properties":{"名称":"広島市消防局広島市佐伯消防署海老園出張所","種類":"消防署","高さ":"15.2"}},{"type":"Feature","geometry":{"type":"Point","coordinates":[132.3592573464,34.3809757544]},"properties":{"名称":"広島市消防局広島市佐伯消防署","種類":"消防署","高さ":"18.5"}},{"type":"Feature","geometry":{"type":"Point","coordinates":[132.3634111548,34.3979367444]},"properties":{"名称":"広島市消防局広島市佐伯消防署八幡出張所","種類":"消防署","高さ":"16.6"}},{"type":"Feature","geometry":{"type":"Point","coordinates":[132.3715368069,34.371290547]},"properties":{"名称":"私立広島修道大学ひろしま協創高等学校","種類":"学校","高さ":"19.2"}},{"type":"Feature","geometry":{"type":"Point","coordinates":[132.3400633446,34.3875597562]},"properties":{"名称":"県立五日市高等学校","種類":"学校","高さ":"15.5"}},{"type":"Feature","geometry":{"type":"Point","coordinates":[132.3515353495,34.4132257574]},"properties":{"名称":"市立河内小学校","種類":"学校","高さ":"10.5"}},{"type":"Feature","geometry":{"type":"Point","coordinates":[132.3493829411,34.3737169559]},"properties":{"名称":"市立五日市観音小学校","種類":"学校","高さ":"16.5"}},{"type":"Feature","geometry":{"type":"Point","coordinates":[132.3388846014,34.3813393791]},"properties":{"名称":"市立五日市観音西小学校","種類":"学校","高さ":"17.1"}},{"type":"Feature","geometry":{"type":"Point","coordinates":[132.3392293437,34.3792817561]},"properties":{"名称":"市立五日市観音中学校","種類":"学校","高さ":"19.4"}},{"type":"Feature","geometry":{"type":"Point","coordinates":[132.3608133449,34.3688927537]},"properties":{"名称":"市立五日市小学校","種類":"学校","高さ":"17.1"}},{"type":"Feature","geometry":{"type":"Point","coordinates":[132.3530290794,34.3689539802]},"properties":{"名称":"市立五日市中央小学校","種類":"学校","高さ":"19.8"}},{"type":"Feature","geometry":{"type":"Point","coordinates":[132.3560512445,34.3774057984]},"properties":{"名称":"市立五日市中学校","種類":"学校","高さ":"15.5"}},{"type":"Feature","geometry":{"type":"Point","coordinates":[132.3690033467,34.3754597533]},"properties":{"名称":"市立五日市東小学校","種類":"学校","高さ":"14.2"}},{"type":"Feature","geometry":{"type":"Point","coordinates":[132.3572853436,34.3612257532]},"properties":{"名称":"市立五日市南小学校","種類":"学校","高さ":"17.3"}},{"type":"Feature","geometry":{"type":"Point","coordinates":[132.3600076644,34.35945696]},"properties":{"名称":"市立五日市南中学校","種類":"学校","高さ":"16.7"}},{"type":"Feature","geometry":{"type":"Point","coordinates":[132.3574793474,34.3921427551]},"properties":{"名称":"市立八幡小学校","種類":"学校","高さ":"15.4"}},{"type":"Feature","geometry":{"type":"Point","coordinates":[132.3654212167,34.3941845601]},"properties":{"名称":"市立八幡東小学校","種類":"学校","高さ":"18.6"}},{"type":"Feature","geometry":{"type":"Point","coordinates":[132.3440713475,34.4103667582]},"properties":{"名称":"市立彩が丘小学校","種類":"学校","高さ":"17.8"}},{"type":"Feature","geometry":{"type":"Point","coordinates":[132.3530403456,34.3862457556]},"properties":{"名称":"市立城山中学校","種類":"学校","高さ":"17.5"}},{"type":"Feature","geometry":{"type":"Point","coordinates":[132.3540113428,34.357456753]},"properties":{"名称":"市立楽々園小学校","種類":"学校","高さ":"14.2"}},{"type":"Feature","geometry":{"type":"Point","coordinates":[132.3626622105,34.401018403]},"properties":{"名称":"市立三和中学校","種類":"学校","高さ":"19.2"}},{"type":"Feature","geometry":{"type":"Point","coordinates":[132.3431408068,34.3713400004]},"properties":{"名称":"広島工業大学","種類":"学校","高さ":"23.2"}},{"type":"Feature","geometry":{"type":"Point","coordinates":[132.370407345,34.3607647515]},"properties":{"名称":"私立なぎさ公園小学校","種類":"学校","高さ":"8.4"}},{"type":"Feature","geometry":{"type":"Point","coordinates":[132.364445345,34.3640787522]},"properties":{"名称":"原田病院","種類":"病院","高さ":"23.9"}},{"type":"Feature","geometry":{"type":"Point","coordinates":[132.3517653456,34.3832427555]},"properties":{"名称":"五日市記念病院","種類":"病院","高さ":"26.8"}},{"type":"Feature","geometry":{"type":"Point","coordinates":[132.3649813475,34.3877977543]},"properties":{"名称":"生協さえき病院","種類":"病院","高さ":"20"}},{"type":"Feature","geometry":{"type":"Point","coordinates":[132.3598683458,34.3800597543]},"properties":{"名称":"安芸五日市郵便局","種類":"郵便局","高さ":"12.1"}},{"type":"Feature","geometry":{"type":"Point","coordinates":[132.3514903882,34.37289061]},"properties":{"名称":"観音郵便局","種類":"郵便局","高さ":"4.7"}},{"type":"Feature","geometry":{"type":"Point","coordinates":[132.3548442514,34.4113645272]},"properties":{"名称":"五日市河内郵便局","種類":"郵便局","高さ":"11"}},{"type":"Feature","geometry":{"type":"Point","coordinates":[132.3592983458,34.3752767537]},"properties":{"名称":"広島コイン通郵便局","種類":"郵便局","高さ":"8.2"}},{"type":"Feature","geometry":{"type":"Point","coordinates":[132.3663733492,34.3971127555]},"properties":{"名称":"広島八幡東郵便局","種類":"郵便局","高さ":"4.5"}},{"type":"Feature","geometry":{"type":"Point","coordinates":[132.3688823453,34.3660697521]},"properties":{"名称":"吉見園郵便局","種類":"郵便局","高さ":"10.2"}},{"type":"Feature","geometry":{"type":"Point","coordinates":[132.3859963512,34.3922217527]},"properties":{"名称":"佐伯警察署美鈴が丘駐在所","種類":"警察署","高さ":"5"}},{"type":"Feature","geometry":{"type":"Point","coordinates":[132.3773773502,34.3924727543]},"properties":{"名称":"市立美鈴が丘高等学校","種類":"学校","高さ":"21"}},{"type":"Feature","geometry":{"type":"Point","coordinates":[132.38058335,34.3919607537]},"properties":{"名称":"市立美鈴が丘小学校","種類":"学校","高さ":"21.1"}},{"type":"Feature","geometry":{"type":"Point","coordinates":[132.3777143493,34.3900587533]},"properties":{"名称":"市立美鈴が丘中学校","種類":"学校","高さ":"19.9"}},{"type":"Feature","geometry":{"type":"Point","coordinates":[132.3854723505,34.3930697533]},"properties":{"名称":"広島美鈴が丘郵便局","種類":"郵便局","高さ":"9.5"}},{"type":"Feature","geometry":{"type":"Point","coordinates":[132.3642125794,34.4267382168]},"properties":{"名称":"市立藤の木小学校","種類":"学校","高さ":"13.4"}},{"type":"Feature","geometry":{"type":"Point","coordinates":[132.4004413565,34.421731754]},"properties":{"名称":"佐伯警察署五月が丘交番","種類":"警察署","高さ":"8.8"}},{"type":"Feature","geometry":{"type":"Point","coordinates":[132.4054793575,34.4225597541]},"properties":{"名称":"市立五月が丘小学校","種類":"学校","高さ":"15.8"}},{"type":"Feature","geometry":{"type":"Point","coordinates":[132.4051343566,34.4203057534]},"properties":{"名称":"市立五月が丘中学校","種類":"学校","高さ":"20.3"}},{"type":"Feature","geometry":{"type":"Point","coordinates":[132.3842973543,34.4193217556]},"properties":{"名称":"市立石内小学校","種類":"学校","高さ":"15.4"}},{"type":"Feature","geometry":{"type":"Point","coordinates":[132.3861543568,34.4433767569]},"properties":{"名称":"市立石内北小学校","種類":"学校","高さ":"15"}},{"type":"Feature","geometry":{"type":"Point","coordinates":[132.4009793566,34.4248927543]},"properties":{"名称":"広島五月が丘郵便局","種類":"郵便局","高さ":"7.4"}}],"name":"34100_hiroshima-shi_city_2022_landmark","type":"FeatureCollection"}