{
	"type" : "FeatureCollection",
	"name" : "34101_hiroshima-shi_naka-ku_station",
	"features" : [
		{
			"type" : "Feature",
			"geometry" : {
				"type" : "Point",
				"coordinates" : [ 132.4589129441, 34.4054549259 ]
			},
			"properties" : {
				"駅名" : "城北駅",
				"高さ" : "9",
				"鉄道区分" : "24",
				"事業者種別" : "5",
				"路線名" : "広島新交通1号線",
				"運営会社" : "広島高速交通"
			}
		},
		{
			"type" : "Feature",
			"geometry" : {
				"type" : "Point",
				"coordinates" : [ 132.4581760806, 34.3967090567 ]
			},
			"properties" : {
				"駅名" : "県庁前駅",
				"高さ" : "0",
				"鉄道区分" : "24",
				"事業者種別" : "5",
				"路線名" : "広島新交通1号線",
				"運営会社" : "広島高速交通"
			}
		},
		{
			"type" : "Feature",
			"geometry" : {
				"type" : "Point",
				"coordinates" : [ 132.4569642337, 34.3934222705 ]
			},
			"properties" : {
				"駅名" : "本通駅",
				"高さ" : "3",
				"鉄道区分" : "16",
				"事業者種別" : "5",
				"路線名" : "広島新交通1号線",
				"運営会社" : "広島高速交通"
			}
		},
		{
			"type" : "Feature",
			"geometry" : {
				"type" : "Point",
				"coordinates" : [ 132.462817362, 34.4109987482 ]
			},
			"properties" : {
				"駅名" : "白島駅",
				"高さ" : "16.7",
				"鉄道区分" : "24",
				"事業者種別" : "5",
				"路線名" : "広島新交通1号線",
				"運営会社" : "広島高速交通"
			}
		},
		{
			"type" : "Feature",
			"geometry" : {
				"type" : "Point",
				"coordinates" : [ 132.4583473588, 34.3773487462 ]
			},
			"properties" : {
				"駅名" : "広電本社前駅",
				"高さ" : "0",
				"鉄道区分" : "21",
				"事業者種別" : "4",
				"路線名" : "宇品線",
				"運営会社" : "広島電鉄"
			}
		},
		{
			"type" : "Feature",
			"geometry" : {
				"type" : "Point",
				"coordinates" : [ 132.454436641, 34.3857740996 ]
			},
			"properties" : {
				"駅名" : "市役所前駅",
				"高さ" : "3.5",
				"鉄道区分" : "21",
				"事業者種別" : "4",
				"路線名" : "宇品線",
				"運営会社" : "広島電鉄"
			}
		},
		{
			"type" : "Feature",
			"geometry" : {
				"type" : "Point",
				"coordinates" : [ 132.4593423581, 34.3759587455 ]
			},
			"properties" : {
				"駅名" : "御幸橋駅",
				"高さ" : "0",
				"鉄道区分" : "21",
				"事業者種別" : "4",
				"路線名" : "宇品線",
				"運営会社" : "広島電鉄"
			}
		},
		{
			"type" : "Feature",
			"geometry" : {
				"type" : "Point",
				"coordinates" : [ 132.4558696844, 34.3808137465 ]
			},
			"properties" : {
				"駅名" : "日赤病院前駅",
				"高さ" : "3",
				"鉄道区分" : "21",
				"事業者種別" : "4",
				"路線名" : "宇品線",
				"運営会社" : "広島電鉄"
			}
		},
		{
			"type" : "Feature",
			"geometry" : {
				"type" : "Point",
				"coordinates" : [ 132.4563123595, 34.3911087466 ]
			},
			"properties" : {
				"駅名" : "袋町駅",
				"高さ" : "0",
				"鉄道区分" : "21",
				"事業者種別" : "4",
				"路線名" : "宇品線",
				"運営会社" : "広島電鉄"
			}
		},
		{
			"type" : "Feature",
			"geometry" : {
				"type" : "Point",
				"coordinates" : [ 132.4569052128, 34.39325358 ]
			},
			"properties" : {
				"駅名" : "本通駅",
				"高さ" : "3",
				"鉄道区分" : "21",
				"事業者種別" : "4",
				"路線名" : "宇品線",
				"運営会社" : "広島電鉄"
			}
		},
		{
			"type" : "Feature",
			"geometry" : {
				"type" : "Point",
				"coordinates" : [ 132.4554175334, 34.3886130951 ]
			},
			"properties" : {
				"駅名" : "中電前駅",
				"高さ" : "3.3",
				"鉄道区分" : "21",
				"事業者種別" : "4",
				"路線名" : "宇品線",
				"運営会社" : "広島電鉄"
			}
		},
		{
			"type" : "Feature",
			"geometry" : {
				"type" : "Point",
				"coordinates" : [ 132.4542101489, 34.3832427934 ]
			},
			"properties" : {
				"駅名" : "鷹野橋駅",
				"高さ" : "3.4",
				"鉄道区分" : "21",
				"事業者種別" : "4",
				"路線名" : "宇品線",
				"運営会社" : "広島電鉄"
			}
		},
		{
			"type" : "Feature",
			"geometry" : {
				"type" : "Point",
				"coordinates" : [ 132.4583123599, 34.3949787476 ]
			},
			"properties" : {
				"駅名" : "紙屋町東駅",
				"高さ" : "3.1",
				"鉄道区分" : "21",
				"事業者種別" : "4",
				"路線名" : "宇品線",
				"運営会社" : "広島電鉄"
			}
		},
		{
			"type" : "Feature",
			"geometry" : {
				"type" : "Point",
				"coordinates" : [ 132.4569666451, 34.395414992 ]
			},
			"properties" : {
				"駅名" : "紙屋町西駅",
				"高さ" : "3.8",
				"鉄道区分" : "21",
				"事業者種別" : "4",
				"路線名" : "宇品線",
				"運営会社" : "広島電鉄"
			}
		},
		{
			"type" : "Feature",
			"geometry" : {
				"type" : "Point",
				"coordinates" : [ 132.4494318977, 34.4045791305 ]
			},
			"properties" : {
				"駅名" : "別院前駅",
				"高さ" : "3.9",
				"鉄道区分" : "21",
				"事業者種別" : "4",
				"路線名" : "横川線",
				"運営会社" : "広島電鉄"
			}
		},
		{
			"type" : "Feature",
			"geometry" : {
				"type" : "Point",
				"coordinates" : [ 132.448135538, 34.4008076841 ]
			},
			"properties" : {
				"駅名" : "寺町駅",
				"高さ" : "3.3",
				"鉄道区分" : "21",
				"事業者種別" : "4",
				"路線名" : "横川線",
				"運営会社" : "広島電鉄"
			}
		},
		{
			"type" : "Feature",
			"geometry" : {
				"type" : "Point",
				"coordinates" : [ 132.4469081946, 34.3968783887 ]
			},
			"properties" : {
				"駅名" : "十日市町駅",
				"高さ" : "3.6",
				"鉄道区分" : "21",
				"事業者種別" : "4",
				"路線名" : "横川線",
				"運営会社" : "広島電鉄"
			}
		},
		{
			"type" : "Feature",
			"geometry" : {
				"type" : "Point",
				"coordinates" : [ 132.4358755765, 34.3724500957 ]
			},
			"properties" : {
				"駅名" : "江波駅",
				"高さ" : "4",
				"鉄道区分" : "21",
				"事業者種別" : "4",
				"路線名" : "江波線",
				"運営会社" : "広島電鉄"
			}
		},
		{
			"type" : "Feature",
			"geometry" : {
				"type" : "Point",
				"coordinates" : [ 132.439552554, 34.3804198221 ]
			},
			"properties" : {
				"駅名" : "舟入川口町駅",
				"高さ" : "3.2",
				"鉄道区分" : "21",
				"事業者種別" : "4",
				"路線名" : "江波線",
				"運営会社" : "広島電鉄"
			}
		},
		{
			"type" : "Feature",
			"geometry" : {
				"type" : "Point",
				"coordinates" : [ 132.4450641057, 34.3894480061 ]
			},
			"properties" : {
				"駅名" : "舟入町駅",
				"高さ" : "0",
				"鉄道区分" : "21",
				"事業者種別" : "4",
				"路線名" : "江波線",
				"運営会社" : "広島電鉄"
			}
		},
		{
			"type" : "Feature",
			"geometry" : {
				"type" : "Point",
				"coordinates" : [ 132.4412873561, 34.3833587473 ]
			},
			"properties" : {
				"駅名" : "舟入幸町駅",
				"高さ" : "0",
				"鉄道区分" : "21",
				"事業者種別" : "4",
				"路線名" : "江波線",
				"運営会社" : "広島電鉄"
			}
		},
		{
			"type" : "Feature",
			"geometry" : {
				"type" : "Point",
				"coordinates" : [ 132.4372273548, 34.3749687473 ]
			},
			"properties" : {
				"駅名" : "舟入南駅",
				"高さ" : "3.1",
				"鉄道区分" : "21",
				"事業者種別" : "4",
				"路線名" : "江波線",
				"運営会社" : "広島電鉄"
			}
		},
		{
			"type" : "Feature",
			"geometry" : {
				"type" : "Point",
				"coordinates" : [ 132.4427923573, 34.3858087481 ]
			},
			"properties" : {
				"駅名" : "舟入本町駅",
				"高さ" : "0",
				"鉄道区分" : "21",
				"事業者種別" : "4",
				"路線名" : "江波線",
				"運営会社" : "広島電鉄"
			}
		},
		{
			"type" : "Feature",
			"geometry" : {
				"type" : "Point",
				"coordinates" : [ 132.4463032681, 34.3944997391 ]
			},
			"properties" : {
				"駅名" : "土橋駅",
				"高さ" : "3.5",
				"鉄道区分" : "21",
				"事業者種別" : "4",
				"路線名" : "江波線",
				"運営会社" : "広島電鉄"
			}
		},
		{
			"type" : "Feature",
			"geometry" : {
				"type" : "Point",
				"coordinates" : [ 132.4657023622, 34.4040687471 ]
			},
			"properties" : {
				"駅名" : "白島駅",
				"高さ" : "0",
				"鉄道区分" : "21",
				"事業者種別" : "4",
				"路線名" : "白島線",
				"運営会社" : "広島電鉄"
			}
		},
		{
			"type" : "Feature",
			"geometry" : {
				"type" : "Point",
				"coordinates" : [ 132.4658823614, 34.4013187471 ]
			},
			"properties" : {
				"駅名" : "家庭裁判所前駅",
				"高さ" : "0",
				"鉄道区分" : "21",
				"事業者種別" : "4",
				"路線名" : "白島線",
				"運営会社" : "広島電鉄"
			}
		},
		{
			"type" : "Feature",
			"geometry" : {
				"type" : "Point",
				"coordinates" : [ 132.4640273607, 34.3952687468 ]
			},
			"properties" : {
				"駅名" : "八丁堀駅",
				"高さ" : "0",
				"鉄道区分" : "21",
				"事業者種別" : "4",
				"路線名" : "白島線",
				"運営会社" : "広島電鉄"
			}
		},
		{
			"type" : "Feature",
			"geometry" : {
				"type" : "Point",
				"coordinates" : [ 132.4653123619, 34.3994437467 ]
			},
			"properties" : {
				"駅名" : "縮景園前駅",
				"高さ" : "0",
				"鉄道区分" : "21",
				"事業者種別" : "4",
				"路線名" : "白島線",
				"運営会社" : "広島電鉄"
			}
		},
		{
			"type" : "Feature",
			"geometry" : {
				"type" : "Point",
				"coordinates" : [ 132.4649123618, 34.3981587469 ]
			},
			"properties" : {
				"駅名" : "女学院前駅",
				"高さ" : "0",
				"鉄道区分" : "21",
				"事業者種別" : "4",
				"路線名" : "白島線",
				"運営会社" : "広島電鉄"
			}
		},
		{
			"type" : "Feature",
			"geometry" : {
				"type" : "Point",
				"coordinates" : [ 132.4631073605, 34.393818747 ]
			},
			"properties" : {
				"駅名" : "八丁堀駅",
				"高さ" : "0",
				"鉄道区分" : "21",
				"事業者種別" : "4",
				"路線名" : "白島線",
				"運営会社" : "広島電鉄"
			}
		},
		{
			"type" : "Feature",
			"geometry" : {
				"type" : "Point",
				"coordinates" : [ 132.4469081946, 34.3968783887 ]
			},
			"properties" : {
				"駅名" : "十日市町駅",
				"高さ" : "3.6",
				"鉄道区分" : "21",
				"事業者種別" : "4",
				"路線名" : "本線",
				"運営会社" : "広島電鉄"
			}
		},
		{
			"type" : "Feature",
			"geometry" : {
				"type" : "Point",
				"coordinates" : [ 132.4463897926, 34.394493674 ]
			},
			"properties" : {
				"駅名" : "土橋駅",
				"高さ" : "3.4",
				"鉄道区分" : "21",
				"事業者種別" : "4",
				"路線名" : "本線",
				"運営会社" : "広島電鉄"
			}
		},
		{
			"type" : "Feature",
			"geometry" : {
				"type" : "Point",
				"coordinates" : [ 132.4445023581, 34.3944587484 ]
			},
			"properties" : {
				"駅名" : "小網町駅",
				"高さ" : "0",
				"鉄道区分" : "21",
				"事業者種別" : "4",
				"路線名" : "本線",
				"運営会社" : "広島電鉄"
			}
		},
		{
			"type" : "Feature",
			"geometry" : {
				"type" : "Point",
				"coordinates" : [ 132.4652561951, 34.3932889409 ]
			},
			"properties" : {
				"駅名" : "胡町駅",
				"高さ" : "0",
				"鉄道区分" : "21",
				"事業者種別" : "4",
				"路線名" : "本線",
				"運営会社" : "広島電鉄"
			}
		},
		{
			"type" : "Feature",
			"geometry" : {
				"type" : "Point",
				"coordinates" : [ 132.4505023599, 34.3967887478 ]
			},
			"properties" : {
				"駅名" : "本川町駅",
				"高さ" : "0",
				"鉄道区分" : "21",
				"事業者種別" : "4",
				"路線名" : "本線",
				"運営会社" : "広島電鉄"
			}
		},
		{
			"type" : "Feature",
			"geometry" : {
				"type" : "Point",
				"coordinates" : [ 132.4477271097, 34.3973368833 ]
			},
			"properties" : {
				"駅名" : "十日市町駅",
				"高さ" : "3.7",
				"鉄道区分" : "21",
				"事業者種別" : "4",
				"路線名" : "本線",
				"運営会社" : "広島電鉄"
			}
		},
		{
			"type" : "Feature",
			"geometry" : {
				"type" : "Point",
				"coordinates" : [ 132.4569666451, 34.395414992 ]
			},
			"properties" : {
				"駅名" : "紙屋町西駅",
				"高さ" : "3.8",
				"鉄道区分" : "21",
				"事業者種別" : "4",
				"路線名" : "本線",
				"運営会社" : "広島電鉄"
			}
		},
		{
			"type" : "Feature",
			"geometry" : {
				"type" : "Point",
				"coordinates" : [ 132.4672473602, 34.3931637462 ]
			},
			"properties" : {
				"駅名" : "銀山町駅",
				"高さ" : "0",
				"鉄道区分" : "21",
				"事業者種別" : "4",
				"路線名" : "本線",
				"運営会社" : "広島電鉄"
			}
		},
		{
			"type" : "Feature",
			"geometry" : {
				"type" : "Point",
				"coordinates" : [ 132.4539570266, 34.3961928611 ]
			},
			"properties" : {
				"駅名" : "原爆ドーム前駅",
				"高さ" : "3.3",
				"鉄道区分" : "21",
				"事業者種別" : "4",
				"路線名" : "本線",
				"運営会社" : "広島電鉄"
			}
		},
		{
			"type" : "Feature",
			"geometry" : {
				"type" : "Point",
				"coordinates" : [ 132.4631073605, 34.393818747 ]
			},
			"properties" : {
				"駅名" : "八丁堀駅",
				"高さ" : "0",
				"鉄道区分" : "21",
				"事業者種別" : "4",
				"路線名" : "本線",
				"運営会社" : "広島電鉄"
			}
		},
		{
			"type" : "Feature",
			"geometry" : {
				"type" : "Point",
				"coordinates" : [ 132.4583123599, 34.3949787476 ]
			},
			"properties" : {
				"駅名" : "紙屋町東駅",
				"高さ" : "3.1",
				"鉄道区分" : "21",
				"事業者種別" : "4",
				"路線名" : "本線",
				"運営会社" : "広島電鉄"
			}
		},
		{
			"type" : "Feature",
			"geometry" : {
				"type" : "Point",
				"coordinates" : [ 132.4609823605, 34.3943287474 ]
			},
			"properties" : {
				"駅名" : "立町駅",
				"高さ" : "0",
				"鉄道区分" : "21",
				"事業者種別" : "4",
				"路線名" : "本線",
				"運営会社" : "広島電鉄"
			}
		},
		{
			"type" : "Feature",
			"geometry" : {
				"type" : "Point",
				"coordinates" : [ 132.4611938308, 34.4086014731 ]
			},
			"properties" : {
				"駅名" : "新白島駅",
				"高さ" : "11.9",
				"鉄道区分" : "11",
				"事業者種別" : "2",
				"路線名" : "山陽線",
				"運営会社" : "西日本旅客鉄道"
			}
		},
		{
			"type" : "Feature",
			"geometry" : {
				"type" : "Point",
				"coordinates" : [ 132.4615307482, 34.4084783256 ]
			},
			"properties" : {
				"駅名" : "新白島駅",
				"高さ" : "11.9",
				"鉄道区分" : "24",
				"事業者種別" : "5",
				"路線名" : "広島新交通1号線",
				"運営会社" : "広島高速交通"
			}
		},
		{
			"type" : "Feature",
			"geometry" : {
				"type" : "Point",
				"coordinates" : [ 132.4469494985, 34.3969839253 ]
			},
			"properties" : {
				"駅名" : "十日市町駅",
				"高さ" : "3.6",
				"鉄道区分" : "21",
				"事業者種別" : "4",
				"路線名" : "横川線",
				"運営会社" : "広島電鉄"
			}
		}
	]
}