{"features":[{"type":"Feature","geometry":{"type":"Point","coordinates":[132.4589129441,34.4054549259]},"properties":{"事業者種別":"5","路線名":"広島新交通1号線","運営会社":"広島高速交通","鉄道区分":"24","駅名":"城北駅","高さ":"9"}},{"type":"Feature","geometry":{"type":"Point","coordinates":[132.4581760806,34.3967090567]},"properties":{"事業者種別":"5","路線名":"広島新交通1号線","運営会社":"広島高速交通","鉄道区分":"24","駅名":"県庁前駅","高さ":"0"}},{"type":"Feature","geometry":{"type":"Point","coordinates":[132.4569642337,34.3934222705]},"properties":{"事業者種別":"5","路線名":"広島新交通1号線","運営会社":"広島高速交通","鉄道区分":"16","駅名":"本通駅","高さ":"3"}},{"type":"Feature","geometry":{"type":"Point","coordinates":[132.462817362,34.4109987482]},"properties":{"事業者種別":"5","路線名":"広島新交通1号線","運営会社":"広島高速交通","鉄道区分":"24","駅名":"白島駅","高さ":"16.7"}},{"type":"Feature","geometry":{"type":"Point","coordinates":[132.4583473588,34.3773487462]},"properties":{"事業者種別":"4","路線名":"宇品線","運営会社":"広島電鉄","鉄道区分":"21","駅名":"広電本社前駅","高さ":"0"}},{"type":"Feature","geometry":{"type":"Point","coordinates":[132.454436641,34.3857740996]},"properties":{"事業者種別":"4","路線名":"宇品線","運営会社":"広島電鉄","鉄道区分":"21","駅名":"市役所前駅","高さ":"3.5"}},{"type":"Feature","geometry":{"type":"Point","coordinates":[132.4593423581,34.3759587455]},"properties":{"事業者種別":"4","路線名":"宇品線","運営会社":"広島電鉄","鉄道区分":"21","駅名":"御幸橋駅","高さ":"0"}},{"type":"Feature","geometry":{"type":"Point","coordinates":[132.4558696844,34.3808137465]},"properties":{"事業者種別":"4","路線名":"宇品線","運営会社":"広島電鉄","鉄道区分":"21","駅名":"日赤病院前駅","高さ":"3"}},{"type":"Feature","geometry":{"type":"Point","coordinates":[132.4563123595,34.3911087466]},"properties":{"事業者種別":"4","路線名":"宇品線","運営会社":"広島電鉄","鉄道区分":"21","駅名":"袋町駅","高さ":"0"}},{"type":"Feature","geometry":{"type":"Point","coordinates":[132.4569052128,34.39325358]},"properties":{"事業者種別":"4","路線名":"宇品線","運営会社":"広島電鉄","鉄道区分":"21","駅名":"本通駅","高さ":"3"}},{"type":"Feature","geometry":{"type":"Point","coordinates":[132.4554175334,34.3886130951]},"properties":{"事業者種別":"4","路線名":"宇品線","運営会社":"広島電鉄","鉄道区分":"21","駅名":"中電前駅","高さ":"3.3"}},{"type":"Feature","geometry":{"type":"Point","coordinates":[132.4542101489,34.3832427934]},"properties":{"事業者種別":"4","路線名":"宇品線","運営会社":"広島電鉄","鉄道区分":"21","駅名":"鷹野橋駅","高さ":"3.4"}},{"type":"Feature","geometry":{"type":"Point","coordinates":[132.4583123599,34.3949787476]},"properties":{"事業者種別":"4","路線名":"宇品線","運営会社":"広島電鉄","鉄道区分":"21","駅名":"紙屋町東駅","高さ":"3.1"}},{"type":"Feature","geometry":{"type":"Point","coordinates":[132.4569666451,34.395414992]},"properties":{"事業者種別":"4","路線名":"宇品線","運営会社":"広島電鉄","鉄道区分":"21","駅名":"紙屋町西駅","高さ":"3.8"}},{"type":"Feature","geometry":{"type":"Point","coordinates":[132.4494318977,34.4045791305]},"properties":{"事業者種別":"4","路線名":"横川線","運営会社":"広島電鉄","鉄道区分":"21","駅名":"別院前駅","高さ":"3.9"}},{"type":"Feature","geometry":{"type":"Point","coordinates":[132.448135538,34.4008076841]},"properties":{"事業者種別":"4","路線名":"横川線","運営会社":"広島電鉄","鉄道区分":"21","駅名":"寺町駅","高さ":"3.3"}},{"type":"Feature","geometry":{"type":"Point","coordinates":[132.4469081946,34.3968783887]},"properties":{"事業者種別":"4","路線名":"横川線","運営会社":"広島電鉄","鉄道区分":"21","駅名":"十日市町駅","高さ":"3.6"}},{"type":"Feature","geometry":{"type":"Point","coordinates":[132.4358755765,34.3724500957]},"properties":{"事業者種別":"4","路線名":"江波線","運営会社":"広島電鉄","鉄道区分":"21","駅名":"江波駅","高さ":"4"}},{"type":"Feature","geometry":{"type":"Point","coordinates":[132.439552554,34.3804198221]},"properties":{"事業者種別":"4","路線名":"江波線","運営会社":"広島電鉄","鉄道区分":"21","駅名":"舟入川口町駅","高さ":"3.2"}},{"type":"Feature","geometry":{"type":"Point","coordinates":[132.4450641057,34.3894480061]},"properties":{"事業者種別":"4","路線名":"江波線","運営会社":"広島電鉄","鉄道区分":"21","駅名":"舟入町駅","高さ":"0"}},{"type":"Feature","geometry":{"type":"Point","coordinates":[132.4412873561,34.3833587473]},"properties":{"事業者種別":"4","路線名":"江波線","運営会社":"広島電鉄","鉄道区分":"21","駅名":"舟入幸町駅","高さ":"0"}},{"type":"Feature","geometry":{"type":"Point","coordinates":[132.4372273548,34.3749687473]},"properties":{"事業者種別":"4","路線名":"江波線","運営会社":"広島電鉄","鉄道区分":"21","駅名":"舟入南駅","高さ":"3.1"}},{"type":"Feature","geometry":{"type":"Point","coordinates":[132.4427923573,34.3858087481]},"properties":{"事業者種別":"4","路線名":"江波線","運営会社":"広島電鉄","鉄道区分":"21","駅名":"舟入本町駅","高さ":"0"}},{"type":"Feature","geometry":{"type":"Point","coordinates":[132.4463032681,34.3944997391]},"properties":{"事業者種別":"4","路線名":"江波線","運営会社":"広島電鉄","鉄道区分":"21","駅名":"土橋駅","高さ":"3.5"}},{"type":"Feature","geometry":{"type":"Point","coordinates":[132.4657023622,34.4040687471]},"properties":{"事業者種別":"4","路線名":"白島線","運営会社":"広島電鉄","鉄道区分":"21","駅名":"白島駅","高さ":"0"}},{"type":"Feature","geometry":{"type":"Point","coordinates":[132.4658823614,34.4013187471]},"properties":{"事業者種別":"4","路線名":"白島線","運営会社":"広島電鉄","鉄道区分":"21","駅名":"家庭裁判所前駅","高さ":"0"}},{"type":"Feature","geometry":{"type":"Point","coordinates":[132.4640273607,34.3952687468]},"properties":{"事業者種別":"4","路線名":"白島線","運営会社":"広島電鉄","鉄道区分":"21","駅名":"八丁堀駅","高さ":"0"}},{"type":"Feature","geometry":{"type":"Point","coordinates":[132.4653123619,34.3994437467]},"properties":{"事業者種別":"4","路線名":"白島線","運営会社":"広島電鉄","鉄道区分":"21","駅名":"縮景園前駅","高さ":"0"}},{"type":"Feature","geometry":{"type":"Point","coordinates":[132.4649123618,34.3981587469]},"properties":{"事業者種別":"4","路線名":"白島線","運営会社":"広島電鉄","鉄道区分":"21","駅名":"女学院前駅","高さ":"0"}},{"type":"Feature","geometry":{"type":"Point","coordinates":[132.4631073605,34.393818747]},"properties":{"事業者種別":"4","路線名":"白島線","運営会社":"広島電鉄","鉄道区分":"21","駅名":"八丁堀駅","高さ":"0"}},{"type":"Feature","geometry":{"type":"Point","coordinates":[132.4469081946,34.3968783887]},"properties":{"事業者種別":"4","路線名":"本線","運営会社":"広島電鉄","鉄道区分":"21","駅名":"十日市町駅","高さ":"3.6"}},{"type":"Feature","geometry":{"type":"Point","coordinates":[132.4463897926,34.394493674]},"properties":{"事業者種別":"4","路線名":"本線","運営会社":"広島電鉄","鉄道区分":"21","駅名":"土橋駅","高さ":"3.4"}},{"type":"Feature","geometry":{"type":"Point","coordinates":[132.4445023581,34.3944587484]},"properties":{"事業者種別":"4","路線名":"本線","運営会社":"広島電鉄","鉄道区分":"21","駅名":"小網町駅","高さ":"0"}},{"type":"Feature","geometry":{"type":"Point","coordinates":[132.4652561951,34.3932889409]},"properties":{"事業者種別":"4","路線名":"本線","運営会社":"広島電鉄","鉄道区分":"21","駅名":"胡町駅","高さ":"0"}},{"type":"Feature","geometry":{"type":"Point","coordinates":[132.4505023599,34.3967887478]},"properties":{"事業者種別":"4","路線名":"本線","運営会社":"広島電鉄","鉄道区分":"21","駅名":"本川町駅","高さ":"0"}},{"type":"Feature","geometry":{"type":"Point","coordinates":[132.4477271097,34.3973368833]},"properties":{"事業者種別":"4","路線名":"本線","運営会社":"広島電鉄","鉄道区分":"21","駅名":"十日市町駅","高さ":"3.7"}},{"type":"Feature","geometry":{"type":"Point","coordinates":[132.4569666451,34.395414992]},"properties":{"事業者種別":"4","路線名":"本線","運営会社":"広島電鉄","鉄道区分":"21","駅名":"紙屋町西駅","高さ":"3.8"}},{"type":"Feature","geometry":{"type":"Point","coordinates":[132.4672473602,34.3931637462]},"properties":{"事業者種別":"4","路線名":"本線","運営会社":"広島電鉄","鉄道区分":"21","駅名":"銀山町駅","高さ":"0"}},{"type":"Feature","geometry":{"type":"Point","coordinates":[132.4539570266,34.3961928611]},"properties":{"事業者種別":"4","路線名":"本線","運営会社":"広島電鉄","鉄道区分":"21","駅名":"原爆ドーム前駅","高さ":"3.3"}},{"type":"Feature","geometry":{"type":"Point","coordinates":[132.4631073605,34.393818747]},"properties":{"事業者種別":"4","路線名":"本線","運営会社":"広島電鉄","鉄道区分":"21","駅名":"八丁堀駅","高さ":"0"}},{"type":"Feature","geometry":{"type":"Point","coordinates":[132.4583123599,34.3949787476]},"properties":{"事業者種別":"4","路線名":"本線","運営会社":"広島電鉄","鉄道区分":"21","駅名":"紙屋町東駅","高さ":"3.1"}},{"type":"Feature","geometry":{"type":"Point","coordinates":[132.4609823605,34.3943287474]},"properties":{"事業者種別":"4","路線名":"本線","運営会社":"広島電鉄","鉄道区分":"21","駅名":"立町駅","高さ":"0"}},{"type":"Feature","geometry":{"type":"Point","coordinates":[132.4611938308,34.4086014731]},"properties":{"事業者種別":"2","路線名":"山陽線","運営会社":"西日本旅客鉄道","鉄道区分":"11","駅名":"新白島駅","高さ":"11.9"}},{"type":"Feature","geometry":{"type":"Point","coordinates":[132.4615307482,34.4084783256]},"properties":{"事業者種別":"5","路線名":"広島新交通1号線","運営会社":"広島高速交通","鉄道区分":"24","駅名":"新白島駅","高さ":"11.9"}},{"type":"Feature","geometry":{"type":"Point","coordinates":[132.4469494985,34.3969839253]},"properties":{"事業者種別":"4","路線名":"横川線","運営会社":"広島電鉄","鉄道区分":"21","駅名":"十日市町駅","高さ":"3.6"}},{"type":"Feature","geometry":{"type":"Point","coordinates":[132.464652363,34.4170437487]},"properties":{"事業者種別":"5","路線名":"広島新交通1号線","運営会社":"広島高速交通","鉄道区分":"24","駅名":"牛田駅","高さ":"15"}},{"type":"Feature","geometry":{"type":"Point","coordinates":[132.4690673645,34.4266537493]},"properties":{"事業者種別":"5","路線名":"広島新交通1号線","運営会社":"広島高速交通","鉄道区分":"24","駅名":"不動院前駅","高さ":"19.1"}},{"type":"Feature","geometry":{"type":"Point","coordinates":[132.4976497348,34.3992130391]},"properties":{"事業者種別":"2","路線名":"芸備線","運営会社":"西日本旅客鉄道","鉄道区分":"11","駅名":"矢賀駅","高さ":"4.8"}},{"type":"Feature","geometry":{"type":"Point","coordinates":[132.4912848906,34.4381248415]},"properties":{"事業者種別":"2","路線名":"芸備線","運営会社":"西日本旅客鉄道","鉄道区分":"11","駅名":"戸坂駅","高さ":"4.6"}},{"type":"Feature","geometry":{"type":"Point","coordinates":[132.4646073583,34.3715637448]},"properties":{"事業者種別":"4","路線名":"宇品線","運営会社":"広島電鉄","鉄道区分":"21","駅名":"広大附属学校前駅","高さ":"0"}},{"type":"Feature","geometry":{"type":"Point","coordinates":[132.4641123563,34.3601537442]},"properties":{"事業者種別":"4","路線名":"宇品線","運営会社":"広島電鉄","鉄道区分":"21","駅名":"宇品四丁目駅","高さ":"0"}},{"type":"Feature","geometry":{"type":"Point","coordinates":[132.4557823548,34.3526987446]},"properties":{"事業者種別":"4","路線名":"宇品線","運営会社":"広島電鉄","鉄道区分":"21","駅名":"広島港（宇品）駅","高さ":"10.4"}},{"type":"Feature","geometry":{"type":"Point","coordinates":[132.4648673578,34.3685037447]},"properties":{"事業者種別":"4","路線名":"宇品線","運営会社":"広島電鉄","鉄道区分":"21","駅名":"県病院前駅","高さ":"0"}},{"type":"Feature","geometry":{"type":"Point","coordinates":[132.4630451749,34.355175694]},"properties":{"事業者種別":"4","路線名":"宇品線","運営会社":"広島電鉄","鉄道区分":"21","駅名":"海岸通駅","高さ":"3.6"}},{"type":"Feature","geometry":{"type":"Point","coordinates":[132.463922356,34.3579887441]},"properties":{"事業者種別":"4","路線名":"宇品線","運営会社":"広島電鉄","鉄道区分":"21","駅名":"宇品五丁目駅","高さ":"0"}},{"type":"Feature","geometry":{"type":"Point","coordinates":[132.4645702411,34.3663235856]},"properties":{"事業者種別":"4","路線名":"宇品線","運営会社":"広島電鉄","鉄道区分":"21","駅名":"宇品二丁目駅","高さ":"3"}},{"type":"Feature","geometry":{"type":"Point","coordinates":[132.4644673576,34.3641437441]},"properties":{"事業者種別":"4","路線名":"宇品線","運営会社":"広島電鉄","鉄道区分":"21","駅名":"宇品三丁目駅","高さ":"0"}},{"type":"Feature","geometry":{"type":"Point","coordinates":[132.463977358,34.3741487456]},"properties":{"事業者種別":"4","路線名":"宇品線","運営会社":"広島電鉄","鉄道区分":"21","駅名":"皆実町六丁目駅","高さ":"0"}},{"type":"Feature","geometry":{"type":"Point","coordinates":[132.4597334086,34.3540061861]},"properties":{"事業者種別":"4","路線名":"宇品線","運営会社":"広島電鉄","鉄道区分":"21","駅名":"元宇品口駅","高さ":"3.6"}},{"type":"Feature","geometry":{"type":"Point","coordinates":[132.4711510046,34.3870493514]},"properties":{"事業者種別":"4","路線名":"皆実線","運営会社":"広島電鉄","鉄道区分":"21","駅名":"比治山下駅","高さ":"0"}},{"type":"Feature","geometry":{"type":"Point","coordinates":[132.4688723598,34.383298745]},"properties":{"事業者種別":"4","路線名":"皆実線","運営会社":"広島電鉄","鉄道区分":"21","駅名":"比治山橋駅","高さ":"0"}},{"type":"Feature","geometry":{"type":"Point","coordinates":[132.4752823628,34.3930287454]},"properties":{"事業者種別":"4","路線名":"皆実線","運営会社":"広島電鉄","鉄道区分":"21","駅名":"的場町駅","高さ":"0"}},{"type":"Feature","geometry":{"type":"Point","coordinates":[132.4671373596,34.380418745]},"properties":{"事業者種別":"4","路線名":"皆実線","運営会社":"広島電鉄","鉄道区分":"21","駅名":"南区役所前駅","高さ":"0"}},{"type":"Feature","geometry":{"type":"Point","coordinates":[132.4660223591,34.3773987447]},"properties":{"事業者種別":"4","路線名":"皆実線","運営会社":"広島電鉄","鉄道区分":"21","駅名":"皆実町二丁目駅","高さ":"0"}},{"type":"Feature","geometry":{"type":"Point","coordinates":[132.4648623583,34.3746387453]},"properties":{"事業者種別":"4","路線名":"皆実線","運営会社":"広島電鉄","鉄道区分":"21","駅名":"皆実町六丁目駅","高さ":"0"}},{"type":"Feature","geometry":{"type":"Point","coordinates":[132.4736325564,34.389991904]},"properties":{"事業者種別":"4","路線名":"皆実線","運営会社":"広島電鉄","鉄道区分":"21","駅名":"段原一丁目駅","高さ":"0"}},{"type":"Feature","geometry":{"type":"Point","coordinates":[132.4746373617,34.3932237459]},"properties":{"事業者種別":"4","路線名":"本線","運営会社":"広島電鉄","鉄道区分":"21","駅名":"的場町駅","高さ":"0"}},{"type":"Feature","geometry":{"type":"Point","coordinates":[132.4754423625,34.3963337459]},"properties":{"事業者種別":"4","路線名":"本線","運営会社":"広島電鉄","鉄道区分":"21","駅名":"広島駅駅","高さ":"5.1"}},{"type":"Feature","geometry":{"type":"Point","coordinates":[132.475967363,34.3952587458]},"properties":{"事業者種別":"4","路線名":"本線","運営会社":"広島電鉄","鉄道区分":"21","駅名":"猿猴橋町駅","高さ":"0"}},{"type":"Feature","geometry":{"type":"Point","coordinates":[132.4711373613,34.3926287456]},"properties":{"事業者種別":"4","路線名":"本線","運営会社":"広島電鉄","鉄道区分":"21","駅名":"稲荷町駅","高さ":"0"}},{"type":"Feature","geometry":{"type":"Point","coordinates":[132.4754810959,34.3975045885]},"properties":{"事業者種別":"2","路線名":"芸備線","運営会社":"西日本旅客鉄道","鉄道区分":"11","駅名":"広島駅","高さ":"17.5"}},{"type":"Feature","geometry":{"type":"Point","coordinates":[132.475230891,34.3984432811]},"properties":{"事業者種別":"1","路線名":"山陽新幹線","運営会社":"西日本旅客鉄道","鉄道区分":"11","駅名":"広島駅","高さ":"23.8"}},{"type":"Feature","geometry":{"type":"Point","coordinates":[132.4754810959,34.3975045885]},"properties":{"事業者種別":"2","路線名":"山陽線","運営会社":"西日本旅客鉄道","鉄道区分":"11","駅名":"広島駅","高さ":"17.5"}},{"type":"Feature","geometry":{"type":"Point","coordinates":[132.4975342238,34.389843331]},"properties":{"事業者種別":"2","路線名":"山陽線","運営会社":"西日本旅客鉄道","鉄道区分":"11","駅名":"天神川駅","高さ":"9.3"}},{"type":"Feature","geometry":{"type":"Point","coordinates":[132.4756973817,34.3972287579]},"properties":{"事業者種別":"2","路線名":"山陽線","運営会社":"西日本旅客鉄道","鉄道区分":"11","駅名":"広島駅","高さ":"17.5"}},{"type":"Feature","geometry":{"type":"Point","coordinates":[132.4500225389,34.4073033361]},"properties":{"事業者種別":"4","路線名":"横川線","運営会社":"広島電鉄","鉄道区分":"21","駅名":"横川一丁目駅","高さ":"3.4"}},{"type":"Feature","geometry":{"type":"Point","coordinates":[132.4506573612,34.4096087491]},"properties":{"事業者種別":"4","路線名":"横川線","運営会社":"広島電鉄","鉄道区分":"21","駅名":"横川駅駅","高さ":"13.7"}},{"type":"Feature","geometry":{"type":"Point","coordinates":[132.4202838362,34.391963909]},"properties":{"事業者種別":"4","路線名":"宮島線","運営会社":"広島電鉄","鉄道区分":"12","駅名":"東高須駅","高さ":"4.1"}},{"type":"Feature","geometry":{"type":"Point","coordinates":[132.4277803568,34.39674025]},"properties":{"事業者種別":"4","路線名":"宮島線","運営会社":"広島電鉄","鉄道区分":"12","駅名":"広電西広島（己斐）駅","高さ":"13.3"}},{"type":"Feature","geometry":{"type":"Point","coordinates":[132.3984472963,34.378062111]},"properties":{"事業者種別":"4","路線名":"宮島線","運営会社":"広島電鉄","鉄道区分":"12","駅名":"草津南駅","高さ":"9.8"}},{"type":"Feature","geometry":{"type":"Point","coordinates":[132.3857018951,34.3716264828]},"properties":{"事業者種別":"4","路線名":"宮島線","運営会社":"広島電鉄","鉄道区分":"12","駅名":"井口駅","高さ":"2.9"}},{"type":"Feature","geometry":{"type":"Point","coordinates":[132.3741791388,34.3681213274]},"properties":{"事業者種別":"4","路線名":"宮島線","運営会社":"広島電鉄","鉄道区分":"12","駅名":"修大協創中高前駅","高さ":"6.6"}},{"type":"Feature","geometry":{"type":"Point","coordinates":[132.4037929704,34.3815484298]},"properties":{"事業者種別":"4","路線名":"宮島線","運営会社":"広島電鉄","鉄道区分":"12","駅名":"草津駅","高さ":"4.4"}},{"type":"Feature","geometry":{"type":"Point","coordinates":[132.4169858388,34.3898134222]},"properties":{"事業者種別":"4","路線名":"宮島線","運営会社":"広島電鉄","鉄道区分":"12","駅名":"高須駅","高さ":"4.1"}},{"type":"Feature","geometry":{"type":"Point","coordinates":[132.4115316242,34.3862658911]},"properties":{"事業者種別":"4","路線名":"宮島線","運営会社":"広島電鉄","鉄道区分":"12","駅名":"古江駅","高さ":"2.1"}},{"type":"Feature","geometry":{"type":"Point","coordinates":[132.3919540327,34.3755188295]},"properties":{"事業者種別":"4","路線名":"宮島線","運営会社":"広島電鉄","鉄道区分":"12","駅名":"商工センター入口駅","高さ":"7.5"}},{"type":"Feature","geometry":{"type":"Point","coordinates":[132.4368673573,34.3939437494]},"properties":{"事業者種別":"4","路線名":"本線","運営会社":"広島電鉄","鉄道区分":"21","駅名":"西観音町駅","高さ":"0"}},{"type":"Feature","geometry":{"type":"Point","coordinates":[132.4410473578,34.3951537489]},"properties":{"事業者種別":"4","路線名":"本線","運営会社":"広島電鉄","鉄道区分":"21","駅名":"天満町駅","高さ":"0"}},{"type":"Feature","geometry":{"type":"Point","coordinates":[132.434093091,34.3948981456]},"properties":{"事業者種別":"4","路線名":"本線","運営会社":"広島電鉄","鉄道区分":"21","駅名":"福島町駅","高さ":"0"}},{"type":"Feature","geometry":{"type":"Point","coordinates":[132.4387173585,34.3955487492]},"properties":{"事業者種別":"4","路線名":"本線","運営会社":"広島電鉄","鉄道区分":"21","駅名":"観音町駅","高さ":"0"}},{"type":"Feature","geometry":{"type":"Point","coordinates":[132.4277803568,34.39674025]},"properties":{"事業者種別":"4","路線名":"本線","運営会社":"広島電鉄","鉄道区分":"21","駅名":"広電西広島（己斐）駅","高さ":"13.3"}},{"type":"Feature","geometry":{"type":"Point","coordinates":[132.4473587477,34.4172164646]},"properties":{"事業者種別":"2","路線名":"可部線","運営会社":"西日本旅客鉄道","鉄道区分":"11","駅名":"三滝駅","高さ":"6.9"}},{"type":"Feature","geometry":{"type":"Point","coordinates":[132.4507423607,34.4105287512]},"properties":{"事業者種別":"2","路線名":"可部線","運営会社":"西日本旅客鉄道","鉄道区分":"11","駅名":"横川駅","高さ":"10.4"}},{"type":"Feature","geometry":{"type":"Point","coordinates":[132.4507423607,34.4105287512]},"properties":{"事業者種別":"2","路線名":"山陽線","運営会社":"西日本旅客鉄道","鉄道区分":"11","駅名":"横川駅","高さ":"10.4"}},{"type":"Feature","geometry":{"type":"Point","coordinates":[132.450497874,34.4102786327]},"properties":{"事業者種別":"2","路線名":"山陽線","運営会社":"西日本旅客鉄道","鉄道区分":"11","駅名":"横川駅","高さ":"9.9"}},{"type":"Feature","geometry":{"type":"Point","coordinates":[132.4280384024,34.3980731057]},"properties":{"事業者種別":"2","路線名":"山陽線","運営会社":"西日本旅客鉄道","鉄道区分":"11","駅名":"西広島駅","高さ":"16.2"}},{"type":"Feature","geometry":{"type":"Point","coordinates":[132.391360668,34.3752005892]},"properties":{"事業者種別":"2","路線名":"山陽線","運営会社":"西日本旅客鉄道","鉄道区分":"11","駅名":"新井口駅","高さ":"4.9"}},{"type":"Feature","geometry":{"type":"Point","coordinates":[132.4534973699,34.4748837541]},"properties":{"事業者種別":"5","路線名":"広島新交通1号線","運営会社":"広島高速交通","鉄道区分":"24","駅名":"安東駅","高さ":"16.6"}},{"type":"Feature","geometry":{"type":"Point","coordinates":[132.4707064065,34.4615791696]},"properties":{"事業者種別":"5","路線名":"広島新交通1号線","運営会社":"広島高速交通","鉄道区分":"24","駅名":"大町駅","高さ":"22.7"}},{"type":"Feature","geometry":{"type":"Point","coordinates":[132.4449565214,34.4757367735]},"properties":{"事業者種別":"5","路線名":"広島新交通1号線","運営会社":"広島高速交通","鉄道区分":"24","駅名":"上安駅","高さ":"17.9"}},{"type":"Feature","geometry":{"type":"Point","coordinates":[132.4747773676,34.4433337494]},"properties":{"事業者種別":"5","路線名":"広島新交通1号線","運営会社":"広島高速交通","鉄道区分":"24","駅名":"西原駅","高さ":"16.7"}},{"type":"Feature","geometry":{"type":"Point","coordinates":[132.4051765269,34.4558275552]},"properties":{"事業者種別":"5","路線名":"広島新交通1号線","運営会社":"広島高速交通","鉄道区分":"24","駅名":"伴中央駅","高さ":"18.8"}},{"type":"Feature","geometry":{"type":"Point","coordinates":[132.4628862928,34.4694871977]},"properties":{"事業者種別":"5","路線名":"広島新交通1号線","運営会社":"広島高速交通","鉄道区分":"24","駅名":"毘沙門台駅","高さ":"19.6"}},{"type":"Feature","geometry":{"type":"Point","coordinates":[132.4029082575,34.441700816]},"properties":{"事業者種別":"5","路線名":"広島新交通1号線","運営会社":"広島高速交通","鉄道区分":"24","駅名":"大塚駅","高さ":"17.6"}},{"type":"Feature","geometry":{"type":"Point","coordinates":[132.4753603572,34.4575748868]},"properties":{"事業者種別":"5","路線名":"広島新交通1号線","運営会社":"広島高速交通","鉄道区分":"24","駅名":"古市駅","高さ":"17.1"}},{"type":"Feature","geometry":{"type":"Point","coordinates":[132.4309173654,34.4729287561]},"properties":{"事業者種別":"5","路線名":"広島新交通1号線","運営会社":"広島高速交通","鉄道区分":"24","駅名":"長楽寺駅","高さ":"16.2"}},{"type":"Feature","geometry":{"type":"Point","coordinates":[132.4769968443,34.4517213112]},"properties":{"事業者種別":"5","路線名":"広島新交通1号線","運営会社":"広島高速交通","鉄道区分":"24","駅名":"中筋駅","高さ":"16.7"}},{"type":"Feature","geometry":{"type":"Point","coordinates":[132.4001273572,34.4354437552]},"properties":{"事業者種別":"5","路線名":"広島新交通1号線","運営会社":"広島高速交通","鉄道区分":"24","駅名":"広域公園前駅","高さ":"18.1"}},{"type":"Feature","geometry":{"type":"Point","coordinates":[132.4710723664,34.4354037497]},"properties":{"事業者種別":"5","路線名":"広島新交通1号線","運営会社":"広島高速交通","鉄道区分":"24","駅名":"祇園新橋北駅","高さ":"16.9"}},{"type":"Feature","geometry":{"type":"Point","coordinates":[132.4125678366,34.4630220071]},"properties":{"事業者種別":"5","路線名":"広島新交通1号線","運営会社":"広島高速交通","鉄道区分":"24","駅名":"大原駅","高さ":"18.2"}},{"type":"Feature","geometry":{"type":"Point","coordinates":[132.4191923646,34.4698887572]},"properties":{"事業者種別":"5","路線名":"広島新交通1号線","運営会社":"広島高速交通","鉄道区分":"24","駅名":"伴駅","高さ":"20.2"}},{"type":"Feature","geometry":{"type":"Point","coordinates":[132.4384173673,34.4752437558]},"properties":{"事業者種別":"5","路線名":"広島新交通1号線","運営会社":"広島高速交通","鉄道区分":"24","駅名":"高取駅","高さ":"18.7"}},{"type":"Feature","geometry":{"type":"Point","coordinates":[132.5060432502,34.489854745]},"properties":{"事業者種別":"2","路線名":"可部線","運営会社":"西日本旅客鉄道","鉄道区分":"11","駅名":"上八木駅","高さ":"3.9"}},{"type":"Feature","geometry":{"type":"Point","coordinates":[132.4681333651,34.4506807715]},"properties":{"事業者種別":"2","路線名":"可部線","運営会社":"西日本旅客鉄道","鉄道区分":"11","駅名":"古市橋駅","高さ":"4.3"}},{"type":"Feature","geometry":{"type":"Point","coordinates":[132.494308411,34.4809081598]},"properties":{"事業者種別":"2","路線名":"可部線","運営会社":"西日本旅客鉄道","鉄道区分":"11","駅名":"梅林駅","高さ":"4.6"}},{"type":"Feature","geometry":{"type":"Point","coordinates":[132.4706517809,34.4611241206]},"properties":{"事業者種別":"2","路線名":"可部線","運営会社":"西日本旅客鉄道","鉄道区分":"11","駅名":"大町駅","高さ":"8.5"}},{"type":"Feature","geometry":{"type":"Point","coordinates":[132.4561123638,34.42839375]},"properties":{"事業者種別":"2","路線名":"可部線","運営会社":"西日本旅客鉄道","鉄道区分":"11","駅名":"安芸長束駅","高さ":"5.3"}},{"type":"Feature","geometry":{"type":"Point","coordinates":[132.4623476632,34.4393077078]},"properties":{"事業者種別":"2","路線名":"可部線","運営会社":"西日本旅客鉄道","鉄道区分":"11","駅名":"下祗園駅","高さ":"6.5"}},{"type":"Feature","geometry":{"type":"Point","coordinates":[132.4809537614,34.4723205076]},"properties":{"事業者種別":"2","路線名":"可部線","運営会社":"西日本旅客鉄道","鉄道区分":"11","駅名":"七軒茶屋駅","高さ":"4.2"}},{"type":"Feature","geometry":{"type":"Point","coordinates":[132.4758473707,34.4674737518]},"properties":{"事業者種別":"2","路線名":"可部線","運営会社":"西日本旅客鉄道","鉄道区分":"11","駅名":"緑井駅","高さ":"4.8"}},{"type":"Feature","geometry":{"type":"Point","coordinates":[132.5108496012,34.512024872]},"properties":{"事業者種別":"2","路線名":"可部線","運営会社":"西日本旅客鉄道","鉄道区分":"11","駅名":"可部駅","高さ":"5.1"}},{"type":"Feature","geometry":{"type":"Point","coordinates":[132.5130696329,34.5006032611]},"properties":{"事業者種別":"2","路線名":"可部線","運営会社":"西日本旅客鉄道","鉄道区分":"11","駅名":"中島駅","高さ":"4"}},{"type":"Feature","geometry":{"type":"Point","coordinates":[132.587825358,34.5005791823]},"properties":{"事業者種別":"2","路線名":"芸備線","運営会社":"西日本旅客鉄道","鉄道区分":"11","駅名":"白木山駅","高さ":"0"}},{"type":"Feature","geometry":{"type":"Point","coordinates":[132.6093918286,34.51359187]},"properties":{"事業者種別":"2","路線名":"芸備線","運営会社":"西日本旅客鉄道","鉄道区分":"11","駅名":"中三田駅","高さ":"0"}},{"type":"Feature","geometry":{"type":"Point","coordinates":[132.5333923806,34.4810987489]},"properties":{"事業者種別":"2","路線名":"芸備線","運営会社":"西日本旅客鉄道","鉄道区分":"11","駅名":"中深川駅","高さ":"0"}},{"type":"Feature","geometry":{"type":"Point","coordinates":[132.6438524017,34.5386837434]},"properties":{"事業者種別":"2","路線名":"芸備線","運営会社":"西日本旅客鉄道","鉄道区分":"11","駅名":"上三田駅","高さ":"0"}},{"type":"Feature","geometry":{"type":"Point","coordinates":[132.5624017255,34.4759137175]},"properties":{"事業者種別":"2","路線名":"芸備線","運営会社":"西日本旅客鉄道","鉄道区分":"11","駅名":"上深川駅","高さ":"4.2"}},{"type":"Feature","geometry":{"type":"Point","coordinates":[132.6756274103,34.5850137434]},"properties":{"事業者種別":"2","路線名":"芸備線","運営会社":"西日本旅客鉄道","鉄道区分":"11","駅名":"井原市駅","高さ":"0"}},{"type":"Feature","geometry":{"type":"Point","coordinates":[132.5082139864,34.4821695453]},"properties":{"事業者種別":"2","路線名":"芸備線","運営会社":"西日本旅客鉄道","鉄道区分":"11","駅名":"玖村駅","高さ":"4.8"}},{"type":"Feature","geometry":{"type":"Point","coordinates":[132.6581574056,34.5543737423]},"properties":{"事業者種別":"2","路線名":"芸備線","運営会社":"西日本旅客鉄道","鉄道区分":"11","駅名":"志和口駅","高さ":"0"}},{"type":"Feature","geometry":{"type":"Point","coordinates":[132.5246772563,34.4886845638]},"properties":{"事業者種別":"2","路線名":"芸備線","運営会社":"西日本旅客鉄道","鉄道区分":"11","駅名":"下深川駅","高さ":"10.4"}},{"type":"Feature","geometry":{"type":"Point","coordinates":[132.4950131519,34.4631768783]},"properties":{"事業者種別":"2","路線名":"芸備線","運営会社":"西日本旅客鉄道","鉄道区分":"11","駅名":"安芸矢口駅","高さ":"5.2"}},{"type":"Feature","geometry":{"type":"Point","coordinates":[132.5789430892,34.4867910144]},"properties":{"事業者種別":"2","路線名":"芸備線","運営会社":"西日本旅客鉄道","鉄道区分":"11","駅名":"狩留家駅","高さ":"5.7"}},{"type":"Feature","geometry":{"type":"Point","coordinates":[132.4962178544,34.5172151322]},"properties":{"事業者種別":"2","路線名":"可部線","運営会社":"西日本旅客鉄道","鉄道区分":"11","駅名":"あき亀山駅","高さ":"5.5"}},{"type":"Feature","geometry":{"type":"Point","coordinates":[132.5051722183,34.5167144995]},"properties":{"事業者種別":"2","路線名":"可部線","運営会社":"西日本旅客鉄道","鉄道区分":"11","駅名":"河戸帆待川駅","高さ":"5.2"}},{"type":"Feature","geometry":{"type":"Point","coordinates":[132.5949625252,34.4276222718]},"properties":{"事業者種別":"4","路線名":"広島短距離交通瀬野線","運営会社":"スカイレールサービス","鉄道区分":"22","駅名":"みどり中街駅","高さ":"14"}},{"type":"Feature","geometry":{"type":"Point","coordinates":[132.5896123811,34.430243739]},"properties":{"事業者種別":"4","路線名":"広島短距離交通瀬野線","運営会社":"スカイレールサービス","鉄道区分":"22","駅名":"みどり中央駅","高さ":"14"}},{"type":"Feature","geometry":{"type":"Point","coordinates":[132.5963223804,34.4223287373]},"properties":{"事業者種別":"4","路線名":"広島短距離交通瀬野線","運営会社":"スカイレールサービス","鉄道区分":"22","駅名":"みどり口駅","高さ":"18.1"}},{"type":"Feature","geometry":{"type":"Point","coordinates":[132.5322261958,34.3521713799]},"properties":{"事業者種別":"2","路線名":"呉線","運営会社":"西日本旅客鉄道","鉄道区分":"11","駅名":"矢野駅","高さ":"11.7"}},{"type":"Feature","geometry":{"type":"Point","coordinates":[132.578807802,34.4037694176]},"properties":{"事業者種別":"2","路線名":"山陽線","運営会社":"西日本旅客鉄道","鉄道区分":"11","駅名":"中野東駅","高さ":"10.7"}},{"type":"Feature","geometry":{"type":"Point","coordinates":[132.5967523816,34.4220137417]},"properties":{"事業者種別":"2","路線名":"山陽線","運営会社":"西日本旅客鉄道","鉄道区分":"11","駅名":"瀬野駅","高さ":"18.1"}},{"type":"Feature","geometry":{"type":"Point","coordinates":[132.5632783368,34.3909725041]},"properties":{"事業者種別":"2","路線名":"山陽線","運営会社":"西日本旅客鉄道","鉄道区分":"11","駅名":"安芸中野駅","高さ":"9.7"}},{"type":"Feature","geometry":{"type":"Point","coordinates":[132.3519379651,34.3642901854]},"properties":{"事業者種別":"4","路線名":"宮島線","運営会社":"広島電鉄","鉄道区分":"12","駅名":"楽々園駅","高さ":"4.2"}},{"type":"Feature","geometry":{"type":"Point","coordinates":[132.3678923445,34.3665087535]},"properties":{"事業者種別":"4","路線名":"宮島線","運営会社":"広島電鉄","鉄道区分":"12","駅名":"広電五日市駅","高さ":"4.3"}},{"type":"Feature","geometry":{"type":"Point","coordinates":[132.361792344,34.3654837531]},"properties":{"事業者種別":"4","路線名":"宮島線","運営会社":"広島電鉄","鉄道区分":"12","駅名":"佐伯区役所前駅","高さ":"7.2"}},{"type":"Feature","geometry":{"type":"Point","coordinates":[132.3677763962,34.3668978388]},"properties":{"事業者種別":"2","路線名":"山陽線","運営会社":"西日本旅客鉄道","鉄道区分":"11","駅名":"五日市駅","高さ":"13.2"}}],"name":"34100_hiroshima-shi_city_2022_station","type":"FeatureCollection"}