{"features":[{"type":"Feature","geometry":{"type":"Point","coordinates":[132.4480733582,34.3878227461]},"properties":{"レベル":"3","住所":"広島県広島市中区","収容人数":"1215","名称":"アステールプラザ","対象とする災害の分類":"指定なし","施設の種類":"生活避難場所","施設規模":null,"行政区域":"34101","高さ":"44.7"}},{"type":"Feature","geometry":{"type":"Point","coordinates":[132.464375363,34.4129677476]},"properties":{"レベル":"1","住所":"広島県広島市中区白島北町1-41","収容人数":"677","名称":"安田女子中学校・高等学校","対象とする災害の分類":"指定なし","施設の種類":"生活避難場所","施設規模":null,"行政区域":"34101","高さ":"14"}},{"type":"Feature","geometry":{"type":"Point","coordinates":[132.4559866816,34.4022753152]},"properties":{"レベル":"1","住所":"広島県広島市中区基町20-2","収容人数":"967","名称":"基町小学校","対象とする災害の分類":"指定なし","施設の種類":"生活避難場所","施設規模":null,"行政区域":"34101","高さ":"7.4"}},{"type":"Feature","geometry":{"type":"Point","coordinates":[132.4504924702,34.3780381826]},"properties":{"レベル":"1","住所":"広島県広島市中区中区羽衣町16番","収容人数":null,"名称":"吉島公園","対象とする災害の分類":"指定なし","施設の種類":"広域避難場所","施設規模":null,"行政区域":"34101","高さ":null}},{"type":"Feature","geometry":{"type":"Point","coordinates":[132.4445977529,34.3719151376]},"properties":{"レベル":"1","住所":"広島県広島市中区吉島西3-4-60","収容人数":"829","名称":"吉島小学校","対象とする災害の分類":"指定なし","施設の種類":"生活避難場所","施設規模":null,"行政区域":"34101","高さ":"13.8"}},{"type":"Feature","geometry":{"type":"Point","coordinates":[132.4461370079,34.3705648011]},"properties":{"レベル":"3","住所":"広島県広島市中区","収容人数":"261","名称":"吉島体育館","対象とする災害の分類":"指定なし","施設の種類":"生活避難場所","施設規模":null,"行政区域":"34101","高さ":"12.8"}},{"type":"Feature","geometry":{"type":"Point","coordinates":[132.451781076,34.3697967102]},"properties":{"レベル":"1","住所":"広島県広島市中区吉島東3-1-1","収容人数":"1146","名称":"吉島中学校","対象とする災害の分類":"指定なし","施設の種類":"生活避難場所","施設規模":null,"行政区域":"34101","高さ":"16.5"}},{"type":"Feature","geometry":{"type":"Point","coordinates":[132.4528503567,34.3684437453]},"properties":{"レベル":"1","住所":"広島県広島市中区吉島東3-2-7","収容人数":"1090","名称":"吉島東小学校","対象とする災害の分類":"指定なし","施設の種類":"生活避難場所","施設規模":null,"行政区域":"34101","高さ":"18.5"}},{"type":"Feature","geometry":{"type":"Point","coordinates":[132.4468773594,34.4008017487]},"properties":{"レベル":"1","住所":"広島県広島市中区広瀬町2-8","収容人数":"488","名称":"広瀬小学校","対象とする災害の分類":"指定なし","施設の種類":"生活避難場所","施設規模":null,"行政区域":"34101","高さ":"12.5"}},{"type":"Feature","geometry":{"type":"Point","coordinates":[132.4388137885,34.3856290085]},"properties":{"レベル":"4","住所":"広島県広島市中区舟入幸町14-11","収容人数":null,"名称":"広島原爆養護ホーム舟入むつみ園","対象とする災害の分類":"指定なし","施設の種類":"福祉避難所","施設規模":null,"行政区域":"34101","高さ":"27.1"}},{"type":"Feature","geometry":{"type":"Point","coordinates":[132.4591577784,34.4029500695]},"properties":{"レベル":"3","住所":"広島県広島市中区","収容人数":null,"名称":"広島城跡","対象とする災害の分類":"指定なし","施設の種類":"広域避難場所","施設規模":null,"行政区域":"34101","高さ":null}},{"type":"Feature","geometry":{"type":"Point","coordinates":[132.4330223769,34.3645290653]},"properties":{"レベル":"1","住所":"広島県広島市中区江波南2-2-53","収容人数":"1492","名称":"江波小学校","対象とする災害の分類":"指定なし","施設の種類":"生活避難場所","施設規模":null,"行政区域":"34101","高さ":"12.4"}},{"type":"Feature","geometry":{"type":"Point","coordinates":[132.4354423456,34.3733406318]},"properties":{"レベル":"1","住所":"広島県広島市中区江波西1-1-13","収容人数":"1367","名称":"江波中学校","対象とする災害の分類":"指定なし","施設の種類":"生活避難場所","施設規模":null,"行政区域":"34101","高さ":"14.4"}},{"type":"Feature","geometry":{"type":"Point","coordinates":[132.4509973594,34.3920947475]},"properties":{"レベル":"1","住所":"広島県広島市中区中島町1番5号","収容人数":"1069","名称":"国際会議場","対象とする災害の分類":"指定なし","施設の種類":"生活避難場所","施設規模":null,"行政区域":"34101","高さ":"12.5"}},{"type":"Feature","geometry":{"type":"Point","coordinates":[132.4584883588,34.3854977461]},"properties":{"レベル":"1","住所":"広島県広島市中区国泰寺町1-1-41","収容人数":"1496","名称":"国泰寺中学校","対象とする災害の分類":"指定なし","施設の種類":"生活避難場所","施設規模":null,"行政区域":"34101","高さ":"13"}},{"type":"Feature","geometry":{"type":"Point","coordinates":[132.4395814597,34.3789494662]},"properties":{"レベル":"1","住所":"広島県広島市中区舟入南1-4-4","収容人数":"1733","名称":"市立舟入高校学校","対象とする災害の分類":"指定なし","施設の種類":"生活避難場所","施設規模":null,"行政区域":"34101","高さ":"14.1"}},{"type":"Feature","geometry":{"type":"Point","coordinates":[132.4379063553,34.3789427475]},"properties":{"レベル":"1","住所":"広島県広島市中区舟入南2-9-48","収容人数":"1316","名称":"舟入小学校","対象とする災害の分類":"指定なし","施設の種類":"生活避難場所","施設規模":null,"行政区域":"34101","高さ":"10.8"}},{"type":"Feature","geometry":{"type":"Point","coordinates":[132.4666549868,34.4001351793]},"properties":{"レベル":"1","住所":"広島県広島市中区","収容人数":null,"名称":"縮景園","対象とする災害の分類":"指定なし","施設の種類":"広域避難場所","施設規模":null,"行政区域":"34101","高さ":null}},{"type":"Feature","geometry":{"type":"Point","coordinates":[132.4455723574,34.3873027478]},"properties":{"レベル":"1","住所":"広島県広島市中区舟入中町1-36","収容人数":"836","名称":"神崎小学校","対象とする災害の分類":"指定なし","施設の種類":"生活避難場所","施設規模":null,"行政区域":"34101","高さ":"13.3"}},{"type":"Feature","geometry":{"type":"Point","coordinates":[132.4595433581,34.3798037457]},"properties":{"レベル":"1","住所":"広島県広島市中区東千田町2-1-34","収容人数":"1051","名称":"千田小学校","対象とする災害の分類":"指定なし","施設の種類":"生活避難場所","施設規模":null,"行政区域":"34101","高さ":"13.3"}},{"type":"Feature","geometry":{"type":"Point","coordinates":[132.4582653593,34.3913857471]},"properties":{"レベル":"1","住所":"広島県広島市中区袋町6-36","収容人数":"867","名称":"袋町小学校","対象とする災害の分類":"指定なし","施設の種類":"生活避難場所","施設規模":null,"行政区域":"34101","高さ":"18.1"}},{"type":"Feature","geometry":{"type":"Point","coordinates":[132.4665572067,34.3858417154]},"properties":{"レベル":"1","住所":"広島県広島市中区鶴見町8-49","収容人数":"813","名称":"竹屋小学校","対象とする災害の分類":"指定なし","施設の種類":"生活避難場所","施設規模":null,"行政区域":"34101","高さ":"15.7"}},{"type":"Feature","geometry":{"type":"Point","coordinates":[132.4531528896,34.4011904871]},"properties":{"レベル":"1","住所":"広島県広島市中区","収容人数":null,"名称":"中央公園（芝生広場・自由広場）","対象とする災害の分類":"指定なし","施設の種類":"広域避難場所","施設規模":null,"行政区域":"34101","高さ":null}},{"type":"Feature","geometry":{"type":"Point","coordinates":[132.4570613578,34.3757517458]},"properties":{"レベル":"1","住所":"広島県広島市中区千田町三丁目8番12号","収容人数":"1062","名称":"中区スポーツセンター","対象とする災害の分類":"指定なし","施設の種類":"生活避難場所","施設規模":null,"行政区域":"34101","高さ":"23.9"}},{"type":"Feature","geometry":{"type":"Point","coordinates":[132.447994994,34.386800297]},"properties":{"レベル":"1","住所":"広島県広島市中区加古町10-8","収容人数":"795","名称":"中島小学校","対象とする災害の分類":"指定なし","施設の種類":"生活避難場所","施設規模":null,"行政区域":"34101","高さ":"16.7"}},{"type":"Feature","geometry":{"type":"Point","coordinates":[132.4574996206,34.3816957343]},"properties":{"レベル":"1","住所":"広島県広島市中区東千田町1丁目","収容人数":null,"名称":"東千田公園","対象とする災害の分類":"指定なし","施設の種類":"広域避難場所","施設規模":null,"行政区域":"34101","高さ":null}},{"type":"Feature","geometry":{"type":"Point","coordinates":[132.4289612853,34.3680268458]},"properties":{"レベル":"1","住所":"広島県広島市中区江波西二丁目14-8","収容人数":null,"名称":"特別養護老人ホーム悠悠タウン江波","対象とする災害の分類":"指定なし","施設の種類":"福祉避難所","施設規模":null,"行政区域":"34101","高さ":"25.9"}},{"type":"Feature","geometry":{"type":"Point","coordinates":[132.4616263617,34.4044127478]},"properties":{"レベル":"1","住所":"広島県広島市中区西白島町26-3","収容人数":"1438","名称":"白島小学校","対象とする災害の分類":"指定なし","施設の種類":"生活避難場所","施設規模":null,"行政区域":"34101","高さ":"17.6"}},{"type":"Feature","geometry":{"type":"Point","coordinates":[132.4525014536,34.3925925626]},"properties":{"レベル":"1","住所":"広島県広島市中区中島町、大手町1丁目","収容人数":null,"名称":"平和記念公園","対象とする災害の分類":"指定なし","施設の種類":"広域避難場所","施設規模":null,"行政区域":"34101","高さ":null}},{"type":"Feature","geometry":{"type":"Point","coordinates":[132.4510433594,34.3959967476]},"properties":{"レベル":"1","住所":"広島県広島市中区本川町1-5-39","収容人数":"1013","名称":"本川小学校","対象とする災害の分類":"指定なし","施設の種類":"生活避難場所","施設規模":null,"行政区域":"34101","高さ":"20.6"}},{"type":"Feature","geometry":{"type":"Point","coordinates":[132.4666263612,34.3965247463]},"properties":{"レベル":"1","住所":"広島県広島市中区幟町3-10","収容人数":"813","名称":"幟町小学校","対象とする災害の分類":"指定なし","施設の種類":"生活避難場所","施設規模":null,"行政区域":"34101","高さ":"13.5"}},{"type":"Feature","geometry":{"type":"Point","coordinates":[132.468986362,34.3993297469]},"properties":{"レベル":"1","住所":"広島県広島市中区上幟町6-29","収容人数":"1298","名称":"幟町中学校","対象とする災害の分類":"指定なし","施設の種類":"生活避難場所","施設規模":null,"行政区域":"34101","高さ":"14.9"}},{"type":"Feature","geometry":{"type":"Point","coordinates":[132.4685232971,34.4139668463]},"properties":{"レベル":"3","住所":"広島県広島市東区牛田本町五丁目1-2","収容人数":null,"名称":"デイサービスセンター光明","対象とする災害の分類":"指定なし","施設の種類":"福祉避難所","施設規模":null,"行政区域":"34102","高さ":"38"}},{"type":"Feature","geometry":{"type":"Point","coordinates":[132.5104823689,34.4158847439]},"properties":{"レベル":"1","住所":"広島県広島市東区温品7-8-8","収容人数":"1324","名称":"温品小学校","対象とする災害の分類":"指定なし","施設の種類":"生活避難場所","施設規模":null,"行政区域":"34102","高さ":"7"}},{"type":"Feature","geometry":{"type":"Point","coordinates":[132.4713079229,34.4128000903]},"properties":{"レベル":"1","住所":"広島県広島市東区牛田旭1-14-45","収容人数":"1985","名称":"牛田小学校","対象とする災害の分類":"指定なし","施設の種類":"生活避難場所","施設規模":null,"行政区域":"34102","高さ":"12"}},{"type":"Feature","geometry":{"type":"Point","coordinates":[132.4706243653,34.419466748]},"properties":{"レベル":"1","住所":"広島県広島市東区牛田新町1-15-1","収容人数":"905","名称":"牛田新町小学校","対象とする災害の分類":"指定なし","施設の種類":"生活避難場所","施設規模":null,"行政区域":"34102","高さ":"11.7"}},{"type":"Feature","geometry":{"type":"Point","coordinates":[132.4696243647,34.4211337484]},"properties":{"レベル":"1","住所":"広島県広島市東区牛田新町1-14-1","収容人数":"1463","名称":"牛田中学校","対象とする災害の分類":"指定なし","施設の種類":"生活避難場所","施設規模":null,"行政区域":"34102","高さ":"16.5"}},{"type":"Feature","geometry":{"type":"Point","coordinates":[132.5010313895,34.4237363872]},"properties":{"レベル":"3","住所":"広島県広島市東区","収容人数":null,"名称":"戸坂運動広場","対象とする災害の分類":"指定なし","施設の種類":"広域避難場所","施設規模":null,"行政区域":"34102","高さ":null}},{"type":"Feature","geometry":{"type":"Point","coordinates":[132.4856783682,34.4349387481]},"properties":{"レベル":"1","住所":"広島県広島市東区戸坂出江2-1-1","収容人数":"1396","名称":"戸坂小学校","対象とする災害の分類":"指定なし","施設の種類":"生活避難場所","施設規模":null,"行政区域":"34102","高さ":"13"}},{"type":"Feature","geometry":{"type":"Point","coordinates":[132.4883954259,34.4300962398]},"properties":{"レベル":"1","住所":"広島県広島市東区戸坂城山町1-2","収容人数":"945","名称":"戸坂城山小学校","対象とする災害の分類":"指定なし","施設の種類":"生活避難場所","施設規模":null,"行政区域":"34102","高さ":"16.6"}},{"type":"Feature","geometry":{"type":"Point","coordinates":[132.503000486,34.4246704474]},"properties":{"レベル":"1","住所":"広島県広島市東区戸坂新町3-1-1","収容人数":null,"名称":"戸坂中学校グラウンド","対象とする災害の分類":"指定なし","施設の種類":"広域避難場所","施設規模":null,"行政区域":"34102","高さ":null}},{"type":"Feature","geometry":{"type":"Point","coordinates":[132.5016526148,34.4248587116]},"properties":{"レベル":"3","住所":"広島県広島市東区","収容人数":null,"名称":"戸坂庭球場","対象とする災害の分類":"指定なし","施設の種類":"広域避難場所","施設規模":null,"行政区域":"34102","高さ":null}},{"type":"Feature","geometry":{"type":"Point","coordinates":[132.4729583413,34.4187001429]},"properties":{"レベル":"3","住所":"広島県広島市東区牛田新町一丁目18-2","収容人数":null,"名称":"広島原爆養護ホーム神田山やすらぎ園","対象とする災害の分類":"指定なし","施設の種類":"福祉避難所","施設規模":null,"行政区域":"34102","高さ":"16.9"}},{"type":"Feature","geometry":{"type":"Point","coordinates":[132.4841945031,34.4138489687]},"properties":{"レベル":"1","住所":"広島県広島市東区牛田東4-13-1","収容人数":null,"名称":"広島女学院大学グラウンド","対象とする災害の分類":"指定なし","施設の種類":"広域避難場所","施設規模":null,"行政区域":"34102","高さ":null}},{"type":"Feature","geometry":{"type":"Point","coordinates":[132.4875522236,34.4285318857]},"properties":{"レベル":"1","住所":"広島県広島市東区戸坂城山町1-3","収容人数":null,"名称":"広島城北学園グラウンド","対象とする災害の分類":"指定なし","施設の種類":"広域避難場所","施設規模":null,"行政区域":"34102","高さ":null}},{"type":"Feature","geometry":{"type":"Point","coordinates":[132.4942672333,34.4034368997]},"properties":{"レベル":"1","住所":"広島県広島市東区矢賀町ほか","収容人数":null,"名称":"高天原墓園","対象とする災害の分類":"指定なし","施設の種類":"広域避難場所","施設規模":null,"行政区域":"34102","高さ":null}},{"type":"Feature","geometry":{"type":"Point","coordinates":[132.5167043719,34.4278837443]},"properties":{"レベル":"1","住所":"広島県広島市東区上温品3-4-1","収容人数":"811","名称":"上温品小学校","対象とする災害の分類":"指定なし","施設の種類":"生活避難場所","施設規模":null,"行政区域":"34102","高さ":"11.5"}},{"type":"Feature","geometry":{"type":"Point","coordinates":[132.4654509837,34.4168999868]},"properties":{"レベル":"1","住所":"広島県広島市東区牛田新町1丁目8番","収容人数":null,"名称":"新牛田公園","対象とする災害の分類":"指定なし","施設の種類":"広域避難場所","施設規模":null,"行政区域":"34102","高さ":null}},{"type":"Feature","geometry":{"type":"Point","coordinates":[132.4802042681,34.4187881851]},"properties":{"レベル":"1","住所":"広島県広島市東区牛田早稲田4-9-1","収容人数":"992","名称":"早稲田小学校","対象とする災害の分類":"指定なし","施設の種類":"生活避難場所","施設規模":null,"行政区域":"34102","高さ":"23.1"}},{"type":"Feature","geometry":{"type":"Point","coordinates":[132.4859688365,34.4179029928]},"properties":{"レベル":"1","住所":"広島県広島市東区牛田早稲田4-15-1","収容人数":"871","名称":"早稲田中学校","対象とする災害の分類":"指定なし","施設の種類":"生活避難場所","施設規模":null,"行政区域":"34102","高さ":"8.5"}},{"type":"Feature","geometry":{"type":"Point","coordinates":[132.5002063672,34.4096077444]},"properties":{"レベル":"1","住所":"広島県広島市東区中山東1-2-1","収容人数":"925","名称":"中山小学校","対象とする災害の分類":"指定なし","施設の種類":"生活避難場所","施設規模":null,"行政区域":"34102","高さ":"13.9"}},{"type":"Feature","geometry":{"type":"Point","coordinates":[132.5000663691,34.4213567452]},"properties":{"レベル":"1","住所":"広島県広島市東区中山新町2-8-1","収容人数":"1060","名称":"東浄小学校","対象とする災害の分類":"指定なし","施設の種類":"生活避難場所","施設規模":null,"行政区域":"34102","高さ":"10.6"}},{"type":"Feature","geometry":{"type":"Point","coordinates":[132.5423943093,34.4539098432]},"properties":{"レベル":"1","住所":"広島県広島市東区福田五丁目1165-3","収容人数":null,"名称":"特別養護老人ホームふくだの里","対象とする災害の分類":"指定なし","施設の種類":"福祉避難所","施設規模":null,"行政区域":"34102","高さ":"8.8"}},{"type":"Feature","geometry":{"type":"Point","coordinates":[132.4900223005,34.4272748443]},"properties":{"レベル":"1","住所":"広島県広島市東区戸坂大上一丁目5-1-8","収容人数":null,"名称":"特別養護老人ホームへさか福寿苑","対象とする災害の分類":"指定なし","施設の種類":"福祉避難所","施設規模":null,"行政区域":"34102","高さ":"22"}},{"type":"Feature","geometry":{"type":"Point","coordinates":[132.4837782975,34.4057588444]},"properties":{"レベル":"3","住所":"広島県広島市東区山根町38-23","収容人数":null,"名称":"特別養護老人ホーム寿老園","対象とする災害の分類":"指定なし","施設の種類":"福祉避難所","施設規模":null,"行政区域":"34102","高さ":"21.4"}},{"type":"Feature","geometry":{"type":"Point","coordinates":[132.4734664521,34.4196360396]},"properties":{"レベル":"3","住所":"広島県広島市東区牛田新町一丁目18-1","収容人数":null,"名称":"特別養護老人ホーム神田山長生園","対象とする災害の分類":"指定なし","施設の種類":"福祉避難所","施設規模":null,"行政区域":"34102","高さ":"12.8"}},{"type":"Feature","geometry":{"type":"Point","coordinates":[132.5280825653,34.4381866049]},"properties":{"レベル":"4","住所":"広島県広島市東区馬木二丁目1398-1","収容人数":null,"名称":"特別養護老人ホーム虹の里","対象とする災害の分類":"指定なし","施設の種類":"福祉避難所","施設規模":null,"行政区域":"34102","高さ":"14.9"}},{"type":"Feature","geometry":{"type":"Point","coordinates":[132.4913412967,34.3985808428]},"properties":{"レベル":"1","住所":"広島県広島市東区東山町1-9","収容人数":null,"名称":"特別養護老人ホーム蓬莱園","対象とする災害の分類":"指定なし","施設の種類":"福祉避難所","施設規模":null,"行政区域":"34102","高さ":"23.9"}},{"type":"Feature","geometry":{"type":"Point","coordinates":[132.485818364,34.399608745]},"properties":{"レベル":"1","住所":"広島県広島市東区山根町21-10","収容人数":"1428","名称":"尾長小学校","対象とする災害の分類":"指定なし","施設の種類":"生活避難場所","施設規模":null,"行政区域":"34102","高さ":"16.7"}},{"type":"Feature","geometry":{"type":"Point","coordinates":[132.5359793763,34.4458547449]},"properties":{"レベル":"1","住所":"広島県広島市東区馬木9-1-2","収容人数":"1278","名称":"福木小学校","対象とする災害の分類":"指定なし","施設の種類":"生活避難場所","施設規模":null,"行政区域":"34102","高さ":"12.9"}},{"type":"Feature","geometry":{"type":"Point","coordinates":[132.4961233653,34.3985807441]},"properties":{"レベル":"1","住所":"広島県広島市東区矢賀2-10-67","収容人数":"792","名称":"矢賀小学校","対象とする災害の分類":"指定なし","施設の種類":"生活避難場所","施設規模":null,"行政区域":"34102","高さ":"13.5"}},{"type":"Feature","geometry":{"type":"Point","coordinates":[132.4611833565,34.3605287438]},"properties":{"レベル":"1","住所":"広島県広島市南区宇品御幸4-5-11","収容人数":"1442","名称":"宇品小学校","対象とする災害の分類":"指定なし","施設の種類":"生活避難場所","施設規模":null,"行政区域":"34103","高さ":"13.7"}},{"type":"Feature","geometry":{"type":"Point","coordinates":[132.471435858,34.3667338934]},"properties":{"レベル":"1","住所":"広島県広島市南区","収容人数":null,"名称":"宇品第一公園","対象とする災害の分類":"指定なし","施設の種類":"広域避難場所","施設規模":null,"行政区域":"34103","高さ":null}},{"type":"Feature","geometry":{"type":"Point","coordinates":[132.4726752765,34.3631338817]},"properties":{"レベル":"1","住所":"広島県広島市南区宇品東5-1-51","収容人数":"1334","名称":"宇品中学校","対象とする災害の分類":"指定なし","施設の種類":"生活避難場所","施設規模":null,"行政区域":"34103","高さ":"17.8"}},{"type":"Feature","geometry":{"type":"Point","coordinates":[132.4681907935,34.3579007784]},"properties":{"レベル":"1","住所":"広島県広島市南区宇品東7-11-8","収容人数":"1280","名称":"宇品東小学校","対象とする災害の分類":"指定なし","施設の種類":"生活避難場所","施設規模":null,"行政区域":"34103","高さ":"17.8"}},{"type":"Feature","geometry":{"type":"Point","coordinates":[132.4820962927,34.3717498419]},"properties":{"レベル":"1","住所":"広島県広島市南区北大河町35-1","収容人数":"806","名称":"黄金山小学校","対象とする災害の分類":"指定なし","施設の種類":"生活避難場所","施設規模":null,"行政区域":"34103","高さ":"20"}},{"type":"Feature","geometry":{"type":"Point","coordinates":[132.4682225569,34.3786951318]},"properties":{"レベル":"1","住所":"広島県広島市南区皆実町1-15-32","収容人数":"1120","名称":"皆実小学校","対象とする災害の分類":"指定なし","施設の種類":"生活避難場所","施設規模":null,"行政区域":"34103","高さ":"15.4"}},{"type":"Feature","geometry":{"type":"Point","coordinates":[132.4755220879,34.3761081787]},"properties":{"レベル":"1","住所":"広島県広島市南区出汐2-4-76","収容人数":"1570","名称":"県立広島皆実高等学校","対象とする災害の分類":"指定なし","施設の種類":"生活避難場所、広域避難場所","施設規模":null,"行政区域":"34103","高さ":"17.4"}},{"type":"Feature","geometry":{"type":"Point","coordinates":[132.4731532926,34.3751658425]},"properties":{"レベル":"1","住所":"広島県広島市南区出汐2-4-75","収容人数":"1357","名称":"県立広島工業高等学校","対象とする災害の分類":"指定なし","施設の種類":"生活避難場所、広域避難場所","施設規模":null,"行政区域":"34103","高さ":"13"}},{"type":"Feature","geometry":{"type":"Point","coordinates":[132.4687716102,34.3667302663]},"properties":{"レベル":"1","住所":"広島県広島市南区宇品東1-1-71","収容人数":"1600","名称":"県立広島大学広島キャンパス","対象とする災害の分類":"指定なし","施設の種類":"生活避難場所","施設規模":null,"行政区域":"34103","高さ":null}},{"type":"Feature","geometry":{"type":"Point","coordinates":[132.460849881,34.3487178104]},"properties":{"レベル":"1","住所":"広島県広島市南区元宇品町7-10","収容人数":"453","名称":"元宇品小学校","対象とする災害の分類":"指定なし","施設の種類":"生活避難場所","施設規模":null,"行政区域":"34103","高さ":"10.6"}},{"type":"Feature","geometry":{"type":"Point","coordinates":[132.5092999463,34.3666399128]},"properties":{"レベル":"1","住所":"広島県広島市南区向洋新町1-6-2","収容人数":"472","名称":"向洋新町小学校","対象とする災害の分類":"指定なし","施設の種類":"生活避難場所","施設規模":null,"行政区域":"34103","高さ":"11.9"}},{"type":"Feature","geometry":{"type":"Point","coordinates":[132.4664613305,34.3558578048]},"properties":{"レベル":"3","住所":"広島県広島市南区","収容人数":null,"名称":"広島競輪場","対象とする災害の分類":"指定なし","施設の種類":"広域避難場所","施設規模":null,"行政区域":"34103","高さ":null}},{"type":"Feature","geometry":{"type":"Point","coordinates":[132.4838303171,34.3919638158]},"properties":{"レベル":"3","住所":"広島県広島市南区","収容人数":null,"名称":"広島市民球場（マツダスタジアム）","対象とする災害の分類":"指定なし","施設の種類":"広域避難場所","施設規模":null,"行政区域":"34103","高さ":"29.5"}},{"type":"Feature","geometry":{"type":"Point","coordinates":[132.4656918897,34.3721602692]},"properties":{"レベル":"1","住所":"広島県広島市南区翠1-1-1","収容人数":"361","名称":"広島大学附属小・中・高等学校","対象とする災害の分類":"指定なし","施設の種類":"生活避難場所","施設規模":null,"行政区域":"34103","高さ":"18.7"}},{"type":"Feature","geometry":{"type":"Point","coordinates":[132.4953452957,34.3802768412]},"properties":{"レベル":"1","住所":"広島県広島市南区東雲3-1-33","収容人数":"1032","名称":"広島大学附属東雲小・中学校","対象とする災害の分類":"指定なし","施設の種類":"生活避難場所","施設規模":null,"行政区域":"34103","高さ":"17.6"}},{"type":"Feature","geometry":{"type":"Point","coordinates":[132.4797632946,34.3928038433]},"properties":{"レベル":"1","住所":"広島県広島市南区西蟹屋3-7-27","収容人数":"608","名称":"荒神町小学校","対象とする災害の分類":"指定なし","施設の種類":"生活避難場所","施設規模":null,"行政区域":"34103","高さ":"15.3"}},{"type":"Feature","geometry":{"type":"Point","coordinates":[132.4733256095,34.3760633174]},"properties":{"レベル":"4","住所":"広島県広島市南区出汐2-4-75","収容人数":"1960","名称":"市立広島工業高等学校","対象とする災害の分類":"指定なし","施設の種類":"生活避難場所","施設規模":null,"行政区域":"34103","高さ":"14.2"}},{"type":"Feature","geometry":{"type":"Point","coordinates":[132.4377683462,34.3048957412]},"properties":{"レベル":"1","住所":"広島県広島市南区似島町大黄2410","収容人数":"534","名称":"似島小学校","対象とする災害の分類":"指定なし","施設の種類":"生活避難場所","施設規模":null,"行政区域":"34103","高さ":null}},{"type":"Feature","geometry":{"type":"Point","coordinates":[132.4425796597,34.3521009065]},"properties":{"レベル":"1","住所":"広島県広島市南区","収容人数":null,"名称":"出島西公園","対象とする災害の分類":"指定なし","施設の種類":"広域避難場所","施設規模":null,"行政区域":"34103","高さ":null}},{"type":"Feature","geometry":{"type":"Point","coordinates":[132.4947174788,34.375415834]},"properties":{"レベル":"1","住所":"広島県広島市南区仁保新町2-8-30","収容人数":"1264","名称":"仁保小学校","対象とする災害の分類":"指定なし","施設の種類":"生活避難場所","施設規模":null,"行政区域":"34103","高さ":"17.8"}},{"type":"Feature","geometry":{"type":"Point","coordinates":[132.4918891913,34.36986704]},"properties":{"レベル":"1","住所":"広島県広島市南区仁保1-56-1","収容人数":"889","名称":"仁保中学校","対象とする災害の分類":"指定なし","施設の種類":"生活避難場所","施設規模":null,"行政区域":"34103","高さ":"19.6"}},{"type":"Feature","geometry":{"type":"Point","coordinates":[132.4742811706,34.3682995914]},"properties":{"レベル":"1","住所":"広島県広島市南区翠4-10-1","収容人数":"1099","名称":"翠町小学校","対象とする災害の分類":"指定なし","施設の種類":"生活避難場所","施設規模":null,"行政区域":"34103","高さ":"18.4"}},{"type":"Feature","geometry":{"type":"Point","coordinates":[132.4720422917,34.3682508416]},"properties":{"レベル":"1","住所":"広島県広島市南区翠4-15-1","収容人数":"1148","名称":"翠町中学校","対象とする災害の分類":"指定なし","施設の種類":"生活避難場所","施設規模":null,"行政区域":"34103","高さ":"17"}},{"type":"Feature","geometry":{"type":"Point","coordinates":[132.5059552969,34.3720008394]},"properties":{"レベル":"1","住所":"広島県広島市南区青崎1-15-51","収容人数":"991","名称":"青崎小学校","対象とする災害の分類":"指定なし","施設の種類":"生活避難場所","施設規模":null,"行政区域":"34103","高さ":"13.9"}},{"type":"Feature","geometry":{"type":"Point","coordinates":[132.4785972932,34.3751108419]},"properties":{"レベル":"1","住所":"広島県広島市南区旭1-8-1","収容人数":"1160","名称":"大河小学校","対象とする災害の分類":"指定なし","施設の種類":"生活避難場所","施設規模":null,"行政区域":"34103","高さ":"14.5"}},{"type":"Feature","geometry":{"type":"Point","coordinates":[132.4976342459,34.3848170945]},"properties":{"レベル":"1","住所":"広島県広島市南区大州5-10-12","収容人数":"720","名称":"大州小学校","対象とする災害の分類":"指定なし","施設の種類":"生活避難場所","施設規模":null,"行政区域":"34103","高さ":"13.8"}},{"type":"Feature","geometry":{"type":"Point","coordinates":[132.497790342,34.3858256]},"properties":{"レベル":"1","住所":"広島県広島市南区大州5-10-4","収容人数":"821","名称":"大州中学校","対象とする災害の分類":"指定なし","施設の種類":"生活避難場所","施設規模":null,"行政区域":"34103","高さ":"16.6"}},{"type":"Feature","geometry":{"type":"Point","coordinates":[132.4748753228,34.3919357494]},"properties":{"レベル":"1","住所":"広島県広島市南区的場町2-4-19","収容人数":"814","名称":"段原小学校","対象とする災害の分類":"指定なし","施設の種類":"生活避難場所","施設規模":null,"行政区域":"34103","高さ":"8.1"}},{"type":"Feature","geometry":{"type":"Point","coordinates":[132.4815142865,34.3855757033]},"properties":{"レベル":"1","住所":"広島県広島市南区段原山崎町4-42","収容人数":"1202","名称":"段原中学校","対象とする災害の分類":"指定なし","施設の種類":"生活避難場所","施設規模":null,"行政区域":"34103","高さ":"24.6"}},{"type":"Feature","geometry":{"type":"Point","coordinates":[132.46811542,34.3610897527]},"properties":{"レベル":"3","住所":"広島県広島市南区","収容人数":"893","名称":"中国郵政研修センター","対象とする災害の分類":"指定なし","施設の種類":"生活避難場所","施設規模":null,"行政区域":"34103","高さ":"20.9"}},{"type":"Feature","geometry":{"type":"Point","coordinates":[132.4927072935,34.3655288395]},"properties":{"レベル":"3","住所":"広島県広島市南区日宇那町30-1","収容人数":null,"名称":"特別養護老人ホームひうな荘","対象とする災害の分類":"指定なし","施設の種類":"福祉避難所","施設規模":null,"行政区域":"34103","高さ":"31.5"}},{"type":"Feature","geometry":{"type":"Point","coordinates":[132.4758984765,34.3756285965]},"properties":{"レベル":"3","住所":"広島県広島市南区出汐二丁目3-46","収容人数":null,"名称":"特別養護老人ホーム光清苑","対象とする災害の分類":"指定なし","施設の種類":"福祉避難所","施設規模":null,"行政区域":"34103","高さ":"9.6"}},{"type":"Feature","geometry":{"type":"Point","coordinates":[132.4721799056,34.3639745286]},"properties":{"レベル":"1","住所":"広島県広島市南区宇品東三丁目6-26","収容人数":null,"名称":"特別養護老人ホーム広島和光園","対象とする災害の分類":"指定なし","施設の種類":"福祉避難所","施設規模":null,"行政区域":"34103","高さ":"2.6"}},{"type":"Feature","geometry":{"type":"Point","coordinates":[132.4867701005,34.3634446553]},"properties":{"レベル":"1","住所":"広島県広島市南区楠那町7番31号","収容人数":"901","名称":"南区スポーツセンター","対象とする災害の分類":"指定なし","施設の種類":"生活避難場所","施設規模":null,"行政区域":"34103","高さ":"5.8"}},{"type":"Feature","geometry":{"type":"Point","coordinates":[132.4647321139,34.3554453169]},"properties":{"レベル":"3","住所":"広島県広島市南区","収容人数":"395","名称":"南区スポーツセンター宇品体育館","対象とする災害の分類":"指定なし","施設の種類":"生活避難場所","施設規模":null,"行政区域":"34103","高さ":"19.6"}},{"type":"Feature","geometry":{"type":"Point","coordinates":[132.4685103597,34.3810987449]},"properties":{"レベル":"1","住所":"広島県広島市南区比治山本町16番27号","収容人数":"389","名称":"南区民文化センター","対象とする災害の分類":"指定なし","施設の種類":"生活避難場所","施設規模":null,"行政区域":"34103","高さ":"53.8"}},{"type":"Feature","geometry":{"type":"Point","coordinates":[132.4862352921,34.3627788394]},"properties":{"レベル":"1","住所":"広島県広島市南区楠那町5-7","収容人数":"742","名称":"楠那小学校","対象とする災害の分類":"指定なし","施設の種類":"生活避難場所","施設規模":null,"行政区域":"34103","高さ":"17.9"}},{"type":"Feature","geometry":{"type":"Point","coordinates":[132.4882641008,34.362939647]},"properties":{"レベル":"1","住所":"広島県広島市南区楠那町4-1","収容人数":"513","名称":"楠那中学校","対象とする災害の分類":"指定なし","施設の種類":"生活避難場所","施設規模":null,"行政区域":"34103","高さ":"9.4"}},{"type":"Feature","geometry":{"type":"Point","coordinates":[132.4724279723,34.3842628846]},"properties":{"レベル":"1","住所":"広島県広島市南区","収容人数":null,"名称":"比治山公園","対象とする災害の分類":"指定なし","施設の種類":"広域避難場所","施設規模":null,"行政区域":"34103","高さ":null}},{"type":"Feature","geometry":{"type":"Point","coordinates":[132.4854580729,34.3852338359]},"properties":{"レベル":"1","住所":"広島県広島市南区上東雲町28-28","収容人数":"1366","名称":"比治山小学校","対象とする災害の分類":"指定なし","施設の種類":"生活避難場所","施設規模":null,"行政区域":"34103","高さ":"13.6"}},{"type":"Feature","geometry":{"type":"Point","coordinates":[132.4433233479,34.3078957401]},"properties":{"レベル":"1","住所":"広島県広島市南区似島町東大谷3073-5","収容人数":null,"名称":"養護老人ホーム広島平和養老館","対象とする災害の分類":"指定なし","施設の種類":"福祉避難所","施設規模":null,"行政区域":"34103","高さ":null}},{"type":"Feature","geometry":{"type":"Point","coordinates":[132.498261005,34.375048298]},"properties":{"レベル":"1","住所":"広島県広島市南区","収容人数":null,"名称":"渕崎公園","対象とする災害の分類":"指定なし","施設の種類":"広域避難場所","施設規模":null,"行政区域":"34103","高さ":null}},{"type":"Feature","geometry":{"type":"Point","coordinates":[132.432223432,34.4029037725]},"properties":{"レベル":"1","住所":"広島県広島市西区己斐東1-10-1","収容人数":"813","名称":"ノートルダム清心中・高等学校","対象とする災害の分類":"指定なし","施設の種類":"生活避難場所","施設規模":null,"行政区域":"34104","高さ":"25.4"}},{"type":"Feature","geometry":{"type":"Point","coordinates":[132.3777862797,34.3712858497]},"properties":{"レベル":"1","住所":"広島県広島市西区井口鈴が台二丁目14番8号","収容人数":"329","名称":"井口公民館","対象とする災害の分類":"指定なし","施設の種類":"生活避難場所","施設規模":null,"行政区域":"34104","高さ":"15.4"}},{"type":"Feature","geometry":{"type":"Point","coordinates":[132.3844352809,34.3721378491]},"properties":{"レベル":"1","住所":"広島県広島市西区井口2-13-1","収容人数":"1217","名称":"井口小学校","対象とする災害の分類":"指定なし","施設の種類":"生活避難場所","施設規模":null,"行政区域":"34104","高さ":"19.2"}},{"type":"Feature","geometry":{"type":"Point","coordinates":[132.3819082797,34.3801368499]},"properties":{"レベル":"1","住所":"広島県広島市西区井口台3-5-1","収容人数":"1039","名称":"井口台小学校","対象とする災害の分類":"指定なし","施設の種類":"生活避難場所","施設規模":null,"行政区域":"34104","高さ":"18.3"}},{"type":"Feature","geometry":{"type":"Point","coordinates":[132.3874882958,34.3793021891]},"properties":{"レベル":"1","住所":"広島県広島市西区井口台4-2-1","収容人数":"1307","名称":"井口台中学校","対象とする災害の分類":"指定なし","施設の種類":"生活避難場所","施設規模":null,"行政区域":"34104","高さ":"14.1"}},{"type":"Feature","geometry":{"type":"Point","coordinates":[132.3869185595,34.3700687797]},"properties":{"レベル":"1","住所":"広島県広島市西区井口明神2-12-1","収容人数":"962","名称":"井口中学校","対象とする災害の分類":"指定なし","施設の種類":"生活避難場所、広域避難場所","施設規模":null,"行政区域":"34104","高さ":"16.8"}},{"type":"Feature","geometry":{"type":"Point","coordinates":[132.3903735931,34.3725533392]},"properties":{"レベル":"1","住所":"広島県広島市西区井口明神1-13-1","収容人数":"902","名称":"井口明神小学校","対象とする災害の分類":"指定なし","施設の種類":"生活避難場所","施設規模":null,"行政区域":"34104","高さ":"16.8"}},{"type":"Feature","geometry":{"type":"Point","coordinates":[132.435099289,34.3904978464]},"properties":{"レベル":"1","住所":"広島県広島市西区観音本町2-1-26","収容人数":"1349","名称":"観音小学校","対象とする災害の分類":"指定なし","施設の種類":"生活避難場所","施設規模":null,"行政区域":"34104","高さ":"12.2"}},{"type":"Feature","geometry":{"type":"Point","coordinates":[132.4305451364,34.3874360258]},"properties":{"レベル":"1","住所":"広島県広島市西区南観音3-4-6","収容人数":"1648","名称":"観音中学校","対象とする災害の分類":"指定なし","施設の種類":"生活避難場所","施設規模":null,"行政区域":"34104","高さ":"22.4"}},{"type":"Feature","geometry":{"type":"Point","coordinates":[132.422590568,34.3757248933]},"properties":{"レベル":"1","住所":"広島県広島市西区","収容人数":null,"名称":"県総合グラウンド","対象とする災害の分類":"指定なし","施設の種類":"広域避難場所","施設規模":null,"行政区域":"34104","高さ":null}},{"type":"Feature","geometry":{"type":"Point","coordinates":[132.38531722,34.3694392573]},"properties":{"レベル":"1","住所":"広島県広島市西区井口明神2-11-1","収容人数":null,"名称":"県立広島井口高等学校グラウンド","対象とする災害の分類":"指定なし","施設の種類":"広域避難場所","施設規模":null,"行政区域":"34104","高さ":null}},{"type":"Feature","geometry":{"type":"Point","coordinates":[132.4360546143,34.3868240969]},"properties":{"レベル":"1","住所":"広島県広島市西区南観音町4-10","収容人数":"984","名称":"県立広島観音高等学校","対象とする災害の分類":"指定なし","施設の種類":"生活避難場所","施設規模":null,"行政区域":"34104","高さ":"7.9"}},{"type":"Feature","geometry":{"type":"Point","coordinates":[132.4073782853,34.3869978494]},"properties":{"レベル":"1","住所":"広島県広島市西区古江西町18-43","収容人数":"1561","名称":"古田小学校","対象とする災害の分類":"指定なし","施設の種類":"生活避難場所","施設規模":null,"行政区域":"34104","高さ":"20"}},{"type":"Feature","geometry":{"type":"Point","coordinates":[132.4031012867,34.39219185]},"properties":{"レベル":"1","住所":"広島県広島市西区古田台1-5-1","収容人数":"1104","名称":"古田台小学校","対象とする災害の分類":"指定なし","施設の種類":"生活避難場所","施設規模":null,"行政区域":"34104","高さ":"18.8"}},{"type":"Feature","geometry":{"type":"Point","coordinates":[132.4045529335,34.3858851712]},"properties":{"レベル":"1","住所":"広島県広島市西区古江西町27-1","収容人数":"1303","名称":"古田中学校","対象とする災害の分類":"指定なし","施設の種類":"生活避難場所","施設規模":null,"行政区域":"34104","高さ":"12.8"}},{"type":"Feature","geometry":{"type":"Point","coordinates":[132.4223037176,34.3999569282]},"properties":{"レベル":"1","住所":"広島県広島市西区己斐上2-1-1","収容人数":"1050","名称":"己斐小学校","対象とする災害の分類":"指定なし","施設の種類":"生活避難場所","施設規模":null,"行政区域":"34104","高さ":"16.9"}},{"type":"Feature","geometry":{"type":"Point","coordinates":[132.4247252002,34.4171417938]},"properties":{"レベル":"1","住所":"広島県広島市西区己斐上6-455","収容人数":"1459","名称":"己斐上小学校","対象とする災害の分類":"指定なし","施設の種類":"生活避難場所","施設規模":null,"行政区域":"34104","高さ":"17.7"}},{"type":"Feature","geometry":{"type":"Point","coordinates":[132.428624987,34.4181426515]},"properties":{"レベル":"1","住所":"広島県広島市西区己斐上6-452-4","収容人数":"963","名称":"己斐上中学校","対象とする災害の分類":"指定なし","施設の種類":"生活避難場所","施設規模":null,"行政区域":"34104","高さ":"12.6"}},{"type":"Feature","geometry":{"type":"Point","coordinates":[132.414100288,34.4072458492]},"properties":{"レベル":"1","住所":"広島県広島市西区己斐上3-35-1","収容人数":"1212","名称":"己斐中学校","対象とする災害の分類":"指定なし","施設の種類":"生活避難場所","施設規模":null,"行政区域":"34104","高さ":"17.9"}},{"type":"Feature","geometry":{"type":"Point","coordinates":[132.4251629421,34.4066067991]},"properties":{"レベル":"1","住所":"広島県広島市西区己斐中3-127","収容人数":"416","名称":"己斐東小学校","対象とする災害の分類":"指定なし","施設の種類":"生活避難場所","施設規模":null,"行政区域":"34104","高さ":"18.2"}},{"type":"Feature","geometry":{"type":"Point","coordinates":[132.4597009169,34.4171817909]},"properties":{"レベル":"1","住所":"広島県広島市西区","収容人数":null,"名称":"交通ランド・大芝公園","対象とする災害の分類":"指定なし","施設の種類":"広域避難場所","施設規模":null,"行政区域":"34104","高さ":null}},{"type":"Feature","geometry":{"type":"Point","coordinates":[132.3775477713,34.3665763457]},"properties":{"レベル":"1","住所":"広島県広島市西区井口5-34-1","収容人数":"717","名称":"広島工業大学高等学校","対象とする災害の分類":"指定なし","施設の種類":"生活避難場所","施設規模":null,"行政区域":"34104","高さ":"20.7"}},{"type":"Feature","geometry":{"type":"Point","coordinates":[132.4168651628,34.3835662305]},"properties":{"レベル":"1","住所":"広島県広島市西区庚午中1-15-1","収容人数":"1336","名称":"庚午小学校","対象とする災害の分類":"指定なし","施設の種類":"生活避難場所","施設規模":null,"行政区域":"34104","高さ":"19.3"}},{"type":"Feature","geometry":{"type":"Point","coordinates":[132.4171010345,34.3811031059]},"properties":{"レベル":"1","住所":"広島県広島市西区庚午中4-12-48","収容人数":"1218","名称":"庚午中学校","対象とする災害の分類":"指定なし","施設の種類":"生活避難場所","施設規模":null,"行政区域":"34104","高さ":"17.3"}},{"type":"Feature","geometry":{"type":"Point","coordinates":[132.4146461182,34.3967305662]},"properties":{"レベル":"1","住所":"広島県広島市西区高須4-16-1","収容人数":"364","名称":"高須小学校","対象とする災害の分類":"指定なし","施設の種類":"生活避難場所","施設規模":null,"行政区域":"34104","高さ":"13.6"}},{"type":"Feature","geometry":{"type":"Point","coordinates":[132.4516544351,34.412488908]},"properties":{"レベル":"1","住所":"広島県広島市西区三篠町1-9-25","収容人数":"1169","名称":"三篠小学校","対象とする災害の分類":"指定なし","施設の種類":"生活避難場所","施設規模":null,"行政区域":"34104","高さ":"3.8"}},{"type":"Feature","geometry":{"type":"Point","coordinates":[132.4367996879,34.4163143068]},"properties":{"レベル":"3","住所":"広島県広島市西区","収容人数":"255","名称":"三滝少年自然の家","対象とする災害の分類":"指定なし","施設の種類":"生活避難場所","施設規模":null,"行政区域":"34104","高さ":"27.8"}},{"type":"Feature","geometry":{"type":"Point","coordinates":[132.387102284,34.3981348513]},"properties":{"レベル":"1","住所":"広島県広島市西区山田新町2-21-1","収容人数":"568","名称":"山田小学校","対象とする災害の分類":"指定なし","施設の種類":"生活避難場所","施設規模":null,"行政区域":"34104","高さ":"12.7"}},{"type":"Feature","geometry":{"type":"Point","coordinates":[132.41647396,34.3655001819]},"properties":{"レベル":"1","住所":"広島県広島市西区観音新町4-12-5","収容人数":"270","名称":"山陽高等学校","対象とする災害の分類":"指定なし","施設の種類":"生活避難場所","施設規模":null,"行政区域":"34104","高さ":"18.5"}},{"type":"Feature","geometry":{"type":"Point","coordinates":[132.4597283017,34.4140148033]},"properties":{"レベル":"1","住所":"広島県広島市西区楠木町4-15-13","収容人数":"2374","名称":"崇徳高等学校","対象とする災害の分類":"指定なし","施設の種類":"生活避難場所","施設規模":null,"行政区域":"34104","高さ":"12.5"}},{"type":"Feature","geometry":{"type":"Point","coordinates":[132.4091918495,34.376053441]},"properties":{"レベル":"1","住所":"広島県広島市西区庚午南二丁目41番1号","収容人数":"560","名称":"西区スポーツセンター","対象とする災害の分類":"指定なし","施設の種類":"生活避難場所","施設規模":null,"行政区域":"34104","高さ":"19.4"}},{"type":"Feature","geometry":{"type":"Point","coordinates":[132.3852695634,34.3704787076]},"properties":{"レベル":"1","住所":"広島県広島市西区井口明神2丁目10番","収容人数":null,"名称":"西部埋立第二公園","対象とする災害の分類":"指定なし","施設の種類":"広域避難場所","施設規模":null,"行政区域":"34104","高さ":null}},{"type":"Feature","geometry":{"type":"Point","coordinates":[132.4079238049,34.3778125654]},"properties":{"レベル":"1","住所":"広島県広島市西区庚午南2丁目38番","収容人数":null,"名称":"草津公園","対象とする災害の分類":"指定なし","施設の種類":"広域避難場所","施設規模":null,"行政区域":"34104","高さ":null}},{"type":"Feature","geometry":{"type":"Point","coordinates":[132.4045342837,34.3808098484]},"properties":{"レベル":"1","住所":"広島県広島市西区","収容人数":"251","名称":"草津公民館・集会所","対象とする災害の分類":"指定なし","施設の種類":"生活避難場所","施設規模":null,"行政区域":"34104","高さ":"16"}},{"type":"Feature","geometry":{"type":"Point","coordinates":[132.405626746,34.3815618852]},"properties":{"レベル":"1","住所":"広島県広島市西区草津東2-12-1","収容人数":"1219","名称":"草津小学校","対象とする災害の分類":"指定なし","施設の種類":"生活避難場所","施設規模":null,"行政区域":"34104","高さ":"18.3"}},{"type":"Feature","geometry":{"type":"Point","coordinates":[132.4570972951,34.4168008473]},"properties":{"レベル":"1","住所":"広島県広島市西区大芝1-25-18","収容人数":"1149","名称":"大芝小学校","対象とする災害の分類":"指定なし","施設の種類":"生活避難場所","施設規模":null,"行政区域":"34104","高さ":"13.1"}},{"type":"Feature","geometry":{"type":"Point","coordinates":[132.4470012548,34.406105429]},"properties":{"レベル":"1","住所":"広島県広島市西区中広町3-1-41","収容人数":"2584","名称":"中広中学校","対象とする災害の分類":"指定なし","施設の種類":"生活避難場所","施設規模":null,"行政区域":"34104","高さ":"17.9"}},{"type":"Feature","geometry":{"type":"Point","coordinates":[132.4417652906,34.3973858458]},"properties":{"レベル":"1","住所":"広島県広島市西区天満町1-27","収容人数":"1058","名称":"天満小学校","対象とする災害の分類":"指定なし","施設の種類":"生活避難場所","施設規模":null,"行政区域":"34104","高さ":"13.9"}},{"type":"Feature","geometry":{"type":"Point","coordinates":[132.4310451808,34.3920190243]},"properties":{"レベル":"1","住所":"広島県広島市西区福島町二丁目33-30","収容人数":null,"名称":"特別養護老人ホームくすの木苑","対象とする災害の分類":"指定なし","施設の種類":"福祉避難所","施設規模":null,"行政区域":"34104","高さ":"9.2"}},{"type":"Feature","geometry":{"type":"Point","coordinates":[132.4399883177,34.4038789753]},"properties":{"レベル":"1","住所":"広島県広島市西区中広町二丁目15-15","収容人数":null,"名称":"特別養護老人ホームリバーサイド中広","対象とする災害の分類":"指定なし","施設の種類":"福祉避難所","施設規模":null,"行政区域":"34104","高さ":"13.4"}},{"type":"Feature","geometry":{"type":"Point","coordinates":[132.3876311047,34.399379303]},"properties":{"レベル":"1","住所":"広島県広島市西区山田新町二丁目7-2","収容人数":null,"名称":"特別養護老人ホーム千歳園","対象とする災害の分類":"指定なし","施設の種類":"福祉避難所","施設規模":null,"行政区域":"34104","高さ":"8.8"}},{"type":"Feature","geometry":{"type":"Point","coordinates":[132.4209062855,34.3750908472]},"properties":{"レベル":"1","住所":"広島県広島市西区観音新町二丁目16番46号","収容人数":"235","名称":"南観音公民館","対象とする災害の分類":"指定なし","施設の種類":"生活避難場所","施設規模":null,"行政区域":"34104","高さ":"8.3"}},{"type":"Feature","geometry":{"type":"Point","coordinates":[132.4267767908,34.3822942307]},"properties":{"レベル":"1","住所":"広島県広島市西区南観音6-5-45","収容人数":"1636","名称":"南観音小学校","対象とする災害の分類":"指定なし","施設の種類":"生活避難場所","施設規模":null,"行政区域":"34104","高さ":"19.2"}},{"type":"Feature","geometry":{"type":"Point","coordinates":[132.3936852823,34.379997848]},"properties":{"レベル":"1","住所":"広島県広島市西区鈴が峰町36-2","収容人数":"1248","名称":"鈴が峰小学校","対象とする災害の分類":"指定なし","施設の種類":"生活避難場所","施設規模":null,"行政区域":"34104","高さ":"16.1"}},{"type":"Feature","geometry":{"type":"Point","coordinates":[132.4444694901,34.4830203739]},"properties":{"レベル":"1","住所":"広島県広島市安佐南区上安六丁目31-1","収容人数":null,"名称":"ケアハウスふれ愛","対象とする災害の分類":"指定なし","施設の種類":"福祉避難所","施設規模":null,"行政区域":"34105","高さ":"31.5"}},{"type":"Feature","geometry":{"type":"Point","coordinates":[132.4466796503,34.4739270848]},"properties":{"レベル":"1","住所":"広島県広島市安佐南区上安二丁目2番46号","収容人数":"550","名称":"安公民館","対象とする災害の分類":"指定なし","施設の種類":"生活避難場所","施設規模":null,"行政区域":"34105","高さ":"11.5"}},{"type":"Feature","geometry":{"type":"Point","coordinates":[132.466097267,34.468579291]},"properties":{"レベル":"1","住所":"広島県広島市安佐南区大町東4-1-6","収容人数":"1417","名称":"安佐中学校","対象とする災害の分類":"指定なし","施設の種類":"生活避難場所","施設規模":null,"行政区域":"34105","高さ":"18"}},{"type":"Feature","geometry":{"type":"Point","coordinates":[132.4134912958,34.4695418545]},"properties":{"レベル":"1","住所":"広島県広島市安佐南区沼田町伴4720番地の1","収容人数":"1280","名称":"安佐南区スポーツセンター","対象とする災害の分類":"指定なし","施設の種類":"生活避難場所","施設規模":null,"行政区域":"34105","高さ":"24.2"}},{"type":"Feature","geometry":{"type":"Point","coordinates":[132.442790299,34.4733778526]},"properties":{"レベル":"1","住所":"広島県広島市安佐南区上安2-7-56","収容人数":"1045","名称":"安小学校","対象とする災害の分類":"指定なし","施設の種類":"生活避難場所","施設規模":null,"行政区域":"34105","高さ":"16.9"}},{"type":"Feature","geometry":{"type":"Point","coordinates":[132.4327082966,34.4677398517]},"properties":{"レベル":"1","住所":"広島県広島市安佐南区高取南2-18-1","収容人数":"1215","名称":"安西小学校","対象とする災害の分類":"指定なし","施設の種類":"生活避難場所","施設規模":null,"行政区域":"34105","高さ":"13.1"}},{"type":"Feature","geometry":{"type":"Point","coordinates":[132.4521500175,34.4777122569]},"properties":{"レベル":"1","住所":"広島県広島市安佐南区安東6-13-1","収容人数":null,"名称":"安田女子大学グラウンド","対象とする災害の分類":"指定なし","施設の種類":"広域避難場所","施設規模":null,"行政区域":"34105","高さ":null}},{"type":"Feature","geometry":{"type":"Point","coordinates":[132.4565523011,34.4740578524]},"properties":{"レベル":"1","住所":"広島県広島市安佐南区安東二丁目16番42号","収容人数":"335","名称":"安東公民館","対象とする災害の分類":"指定なし","施設の種類":"生活避難場所","施設規模":null,"行政区域":"34105","高さ":"12.7"}},{"type":"Feature","geometry":{"type":"Point","coordinates":[132.4592333,34.4744338512]},"properties":{"レベル":"1","住所":"広島県広島市安佐南区安東1-28-1","収容人数":"1254","名称":"安東小学校","対象とする災害の分類":"指定なし","施設の種類":"生活避難場所","施設規模":null,"行政区域":"34105","高さ":"18.7"}},{"type":"Feature","geometry":{"type":"Point","coordinates":[132.4355953229,34.4809124283]},"properties":{"レベル":"1","住所":"広島県広島市安佐南区高取北2-30-1","収容人数":"1071","名称":"安北小学校","対象とする災害の分類":"指定なし","施設の種類":"生活避難場所","施設規模":null,"行政区域":"34105","高さ":"20.5"}},{"type":"Feature","geometry":{"type":"Point","coordinates":[132.4640086728,34.4426988643]},"properties":{"レベル":"1","住所":"広島県広島市安佐南区祇園3-1-27","収容人数":"1178","名称":"祇園小学校","対象とする災害の分類":"指定なし","施設の種類":"生活避難場所","施設規模":null,"行政区域":"34105","高さ":"16.6"}},{"type":"Feature","geometry":{"type":"Point","coordinates":[132.470130129,34.4395829599]},"properties":{"レベル":"1","住所":"広島県広島市安佐南区西原6-29-6","収容人数":"1150","名称":"原小学校","対象とする災害の分類":"指定なし","施設の種類":"生活避難場所","施設規模":null,"行政区域":"34105","高さ":"15.6"}},{"type":"Feature","geometry":{"type":"Point","coordinates":[132.4678186657,34.4317928182]},"properties":{"レベル":"1","住所":"広島県広島市安佐南区西原2-19-23","収容人数":"874","名称":"原南小学校","対象とする災害の分類":"指定なし","施設の種類":"生活避難場所","施設規模":null,"行政区域":"34105","高さ":"8.8"}},{"type":"Feature","geometry":{"type":"Point","coordinates":[132.4717659285,34.4546558868]},"properties":{"レベル":"1","住所":"広島県広島市安佐南区古市2-21-1","収容人数":"939","名称":"古市小学校","対象とする災害の分類":"指定なし","施設の種類":"生活避難場所","施設規模":null,"行政区域":"34105","高さ":"17.3"}},{"type":"Feature","geometry":{"type":"Point","coordinates":[132.3539093583,34.4828747632]},"properties":{"レベル":"1","住所":"広島県広島市安佐南区沼田町阿戸3722","収容人数":"512","名称":"戸山小学校","対象とする災害の分類":"指定なし","施設の種類":"生活避難場所","施設規模":null,"行政区域":"34105","高さ":null}},{"type":"Feature","geometry":{"type":"Point","coordinates":[132.4568797622,34.4481842331]},"properties":{"レベル":"1","住所":"広島県広島市安佐南区祇園5-37-1","収容人数":null,"名称":"広島経済大学グラウンド","対象とする災害の分類":"指定なし","施設の種類":"広域避難場所","施設規模":null,"行政区域":"34105","高さ":null}},{"type":"Feature","geometry":{"type":"Point","coordinates":[132.4054242002,34.4342057677]},"properties":{"レベル":"1","住所":"広島県広島市安佐南区大塚東1-1-1","収容人数":null,"名称":"広島修道大学グラウンド","対象とする災害の分類":"指定なし","施設の種類":"広域避難場所","施設規模":null,"行政区域":"34105","高さ":null}},{"type":"Feature","geometry":{"type":"Point","coordinates":[132.4128168972,34.4710487259]},"properties":{"レベル":"1","住所":"広島県広島市安佐南区沼田町伴4754","収容人数":null,"名称":"広陵高等学校グラウンド","対象とする災害の分類":"指定なし","施設の種類":"広域避難場所","施設規模":null,"行政区域":"34105","高さ":null}},{"type":"Feature","geometry":{"type":"Point","coordinates":[132.4530962965,34.4383258481]},"properties":{"レベル":"1","住所":"広島県広島市安佐南区山本3-13-1","収容人数":"1235","名称":"山本小学校","対象とする災害の分類":"指定なし","施設の種類":"生活避難場所","施設規模":null,"行政区域":"34105","高さ":"19.3"}},{"type":"Feature","geometry":{"type":"Point","coordinates":[132.4227317523,34.4602152811]},"properties":{"レベル":"1","住所":"広島県広島市安佐南区伴東6-1-1","収容人数":null,"名称":"市立沼田高等学校グラウンド","対象とする災害の分類":"指定なし","施設の種類":"広域避難場所","施設規模":null,"行政区域":"34105","高さ":null}},{"type":"Feature","geometry":{"type":"Point","coordinates":[132.4342266338,34.4420381858]},"properties":{"レベル":"3","住所":"広島県広島市安佐南区","収容人数":"1318","名称":"春日野小学校","対象とする災害の分類":"指定なし","施設の種類":"生活避難場所","施設規模":null,"行政区域":"34105","高さ":"13"}},{"type":"Feature","geometry":{"type":"Point","coordinates":[132.4471087158,34.4852271509]},"properties":{"レベル":"1","住所":"広島県広島市安佐南区上安5-21-52","収容人数":"939","名称":"上安小学校","対象とする災害の分類":"指定なし","施設の種類":"生活避難場所","施設規模":null,"行政区域":"34105","高さ":"17.9"}},{"type":"Feature","geometry":{"type":"Point","coordinates":[132.4906972933,34.4732853495]},"properties":{"レベル":"1","住所":"広島県広島市安佐南区川内6-8-1","収容人数":null,"名称":"城南中学校・川内第二公園","対象とする災害の分類":"指定なし","施設の種類":"広域避難場所","施設規模":null,"行政区域":"34105","高さ":null}},{"type":"Feature","geometry":{"type":"Point","coordinates":[132.4865958592,34.464540556]},"properties":{"レベル":"1","住所":"広島県広島市安佐南区川内5-40-1","収容人数":"1231","名称":"川内小学校","対象とする災害の分類":"指定なし","施設の種類":"生活避難場所","施設規模":null,"行政区域":"34105","高さ":"14.3"}},{"type":"Feature","geometry":{"type":"Point","coordinates":[132.4622922232,34.4576316102]},"properties":{"レベル":"1","住所":"広島県広島市安佐南区大町西2-24-1","収容人数":"1140","名称":"大町小学校","対象とする災害の分類":"指定なし","施設の種類":"生活避難場所","施設規模":null,"行政区域":"34105","高さ":"9.8"}},{"type":"Feature","geometry":{"type":"Point","coordinates":[132.3927122899,34.4488798543]},"properties":{"レベル":"1","住所":"広島県広島市安佐南区大塚西6-1-1","収容人数":"1120","名称":"大塚小学校","対象とする災害の分類":"指定なし","施設の種類":"生活避難場所","施設規模":null,"行政区域":"34105","高さ":"18.1"}},{"type":"Feature","geometry":{"type":"Point","coordinates":[132.4792043009,34.4494648489]},"properties":{"レベル":"1","住所":"広島県広島市安佐南区中筋2-15-5","収容人数":"1249","名称":"中筋小学校","対象とする災害の分類":"指定なし","施設の種類":"生活避難場所","施設規模":null,"行政区域":"34105","高さ":"18.4"}},{"type":"Feature","geometry":{"type":"Point","coordinates":[132.4546949007,34.4270724301]},"properties":{"レベル":"1","住所":"広島県広島市安佐南区長束4-15-1","収容人数":"1203","名称":"長束小学校","対象とする災害の分類":"指定なし","施設の種類":"生活避難場所","施設規模":null,"行政区域":"34105","高さ":"16.2"}},{"type":"Feature","geometry":{"type":"Point","coordinates":[132.4487362947,34.4284658486]},"properties":{"レベル":"1","住所":"広島県広島市安佐南区長束西1-26-1","収容人数":"850","名称":"長束西小学校","対象とする災害の分類":"指定なし","施設の種類":"生活避難場所","施設規模":null,"行政区域":"34105","高さ":"12.6"}},{"type":"Feature","geometry":{"type":"Point","coordinates":[132.4851883015,34.4456048474]},"properties":{"レベル":"3","住所":"広島市安佐南区東野一丁目7番1号","収容人数":"1030","名称":"東野小学校","対象とする災害の分類":"指定なし","施設の種類":"生活避難場所","施設規模":null,"行政区域":"34105","高さ":"14.4"}},{"type":"Feature","geometry":{"type":"Point","coordinates":[132.4413193684,34.4773787538]},"properties":{"レベル":"1","住所":"広島県広島市安佐南区高取北一丁目17-41","収容人数":null,"名称":"特別養護老人ホーム慈光園","対象とする災害の分類":"指定なし","施設の種類":"福祉避難所","施設規模":null,"行政区域":"34105","高さ":"19.1"}},{"type":"Feature","geometry":{"type":"Point","coordinates":[132.4345082609,34.4404601626]},"properties":{"レベル":"1","住所":"広島県広島市安佐南区山本新町二丁目18-9-14","収容人数":null,"名称":"特別養護老人ホーム春日野園","対象とする災害の分類":"指定なし","施設の種類":"福祉避難所","施設規模":null,"行政区域":"34105","高さ":"18"}},{"type":"Feature","geometry":{"type":"Point","coordinates":[132.4156615384,34.4748248665]},"properties":{"レベル":"1","住所":"広島県広島市安佐南区沼田町伴9000","収容人数":null,"名称":"特別養護老人ホーム友愛園","対象とする災害の分類":"指定なし","施設の種類":"福祉避難所","施設規模":null,"行政区域":"34105","高さ":"16.4"}},{"type":"Feature","geometry":{"type":"Point","coordinates":[132.3757121309,34.459208647]},"properties":{"レベル":"3","住所":"広島県広島市安佐南区沼田町伴1432-1","収容人数":null,"名称":"特別養護老人ホーム和楽荘","対象とする災害の分類":"指定なし","施設の種類":"福祉避難所","施設規模":null,"行政区域":"34105","高さ":"24.8"}},{"type":"Feature","geometry":{"type":"Point","coordinates":[132.4922583061,34.4803228497]},"properties":{"レベル":"1","住所":"広島県広島市安佐南区八木3-3-9","収容人数":"1074","名称":"梅林小学校","対象とする災害の分類":"指定なし","施設の種類":"生活避難場所","施設規模":null,"行政区域":"34105","高さ":"10.3"}},{"type":"Feature","geometry":{"type":"Point","coordinates":[132.5067293096,34.4882938486]},"properties":{"レベル":"1","住所":"広島県広島市安佐南区八木9-17-1","収容人数":"995","名称":"八木小学校","対象とする災害の分類":"指定なし","施設の種類":"生活避難場所","施設規模":null,"行政区域":"34105","高さ":"16.1"}},{"type":"Feature","geometry":{"type":"Point","coordinates":[132.4071832931,34.4619888534]},"properties":{"レベル":"1","住所":"広島県広島市安佐南区沼田町伴6153","収容人数":"1008","名称":"伴小学校","対象とする災害の分類":"指定なし","施設の種類":"生活避難場所","施設規模":null,"行政区域":"34105","高さ":"11.1"}},{"type":"Feature","geometry":{"type":"Point","coordinates":[132.4208482947,34.4627678522]},"properties":{"レベル":"1","住所":"広島県広島市安佐南区沼田町伴179-1","収容人数":"1089","名称":"伴東小学校","対象とする災害の分類":"指定なし","施設の種類":"生活避難場所","施設規模":null,"行政区域":"34105","高さ":"15.2"}},{"type":"Feature","geometry":{"type":"Point","coordinates":[132.3844532896,34.451633855]},"properties":{"レベル":"1","住所":"広島県広島市安佐南区伴南1-29-1","収容人数":"1317","名称":"伴南小学校","対象とする災害の分類":"指定なし","施設の種類":"生活避難場所","施設規模":null,"行政区域":"34105","高さ":"11.4"}},{"type":"Feature","geometry":{"type":"Point","coordinates":[132.4663181063,34.4801488573]},"properties":{"レベル":"1","住所":"広島県広島市安佐南区毘沙門台3-1-1","収容人数":"969","名称":"毘沙門台小学校","対象とする災害の分類":"指定なし","施設の種類":"生活避難場所","施設規模":null,"行政区域":"34105","高さ":"7.7"}},{"type":"Feature","geometry":{"type":"Point","coordinates":[132.4728973831,34.4698462001]},"properties":{"レベル":"1","住所":"広島県広島市安佐南区緑井4-31-1","収容人数":"1009","名称":"緑井小学校","対象とする災害の分類":"指定なし","施設の種類":"生活避難場所","施設規模":null,"行政区域":"34105","高さ":"17.8"}},{"type":"Feature","geometry":{"type":"Point","coordinates":[132.4632036791,34.4348958483]},"properties":{"レベル":"1","住所":"広島県広島市安佐南区","収容人数":"431","名称":"祗園公民館","対象とする災害の分類":"指定なし","施設の種類":"生活避難場所","施設規模":null,"行政区域":"34105","高さ":"5.3"}},{"type":"Feature","geometry":{"type":"Point","coordinates":[132.4556150813,34.4449893736]},"properties":{"レベル":"1","住所":"広島市安佐南区祇園五丁目39番1号","収容人数":"1097","名称":"祗園中学校","対象とする災害の分類":"指定なし","施設の種類":"生活避難場所","施設規模":null,"行政区域":"34105","高さ":"17.1"}},{"type":"Feature","geometry":{"type":"Point","coordinates":[132.4750532115,34.4390507281]},"properties":{"レベル":"1","住所":"広島市安佐南区西原七丁目16番1号","収容人数":"1165","名称":"祗園東中学校","対象とする災害の分類":"指定なし","施設の種類":"生活避難場所、広域避難場所","施設規模":null,"行政区域":"34105","高さ":"19.8"}},{"type":"Feature","geometry":{"type":"Point","coordinates":[132.4032887977,34.4313355617]},"properties":{"レベル":"1","住所":"広島県広島市佐伯区五月が丘四丁目15-6","収容人数":null,"名称":"特別養護老人ホームやすらぎの里","対象とする災害の分類":"指定なし","施設の種類":"福祉避難所","施設規模":null,"行政区域":"34108","高さ":"21.1"}},{"type":"Feature","geometry":{"type":"Point","coordinates":[132.5109483137,34.5244088514]},"properties":{"レベル":"1","住所":"広島県広島市安佐北区可部七丁目13-15-1-7","収容人数":null,"名称":"ケアハウスかんべ村","対象とする災害の分類":"指定なし","施設の種類":"福祉避難所","施設規模":null,"行政区域":"34106","高さ":"17"}},{"type":"Feature","geometry":{"type":"Point","coordinates":[132.6771864116,34.5861467435]},"properties":{"レベル":"1","住所":"広島県広島市安佐北区白木町大字井原825","収容人数":"429","名称":"井原小学校","対象とする災害の分類":"指定なし","施設の種類":"生活避難場所","施設規模":null,"行政区域":"34106","高さ":null}},{"type":"Feature","geometry":{"type":"Point","coordinates":[132.509645822,34.5185463828]},"properties":{"レベル":"1","住所":"広島県広島市安佐北区可部4-9-1","収容人数":"1234","名称":"可部小学校","対象とする災害の分類":"指定なし","施設の種類":"生活避難場所","施設規模":null,"行政区域":"34106","高さ":"16.9"}},{"type":"Feature","geometry":{"type":"Point","coordinates":[132.5168320806,34.5042305288]},"properties":{"レベル":"1","住所":"広島県広島市安佐北区可部南2-11-1","収容人数":"1120","名称":"可部南小学校","対象とする災害の分類":"指定なし","施設の種類":"生活避難場所","施設規模":null,"行政区域":"34106","高さ":"16.6"}},{"type":"Feature","geometry":{"type":"Point","coordinates":[132.5256994478,34.48346399]},"properties":{"レベル":"1","住所":"広島県広島市安佐北区亀崎4-2-1","収容人数":"994","名称":"亀崎小学校","対象とする災害の分類":"指定なし","施設の種類":"生活避難場所","施設規模":null,"行政区域":"34106","高さ":"10.6"}},{"type":"Feature","geometry":{"type":"Point","coordinates":[132.4967876382,34.5270606941]},"properties":{"レベル":"1","住所":"広島県広島市安佐北区亀山5-11-1","収容人数":"1122","名称":"亀山小学校","対象とする災害の分類":"指定なし","施設の種類":"生活避難場所","施設規模":null,"行政区域":"34106","高さ":"7.8"}},{"type":"Feature","geometry":{"type":"Point","coordinates":[132.4929166549,34.5202316711]},"properties":{"レベル":"1","住所":"広島県広島市安佐北区亀山南3-28-1","収容人数":null,"名称":"亀山中学校グラウンド","対象とする災害の分類":"指定なし","施設の種類":"広域避難場所","施設規模":null,"行政区域":"34106","高さ":null}},{"type":"Feature","geometry":{"type":"Point","coordinates":[132.4941385216,34.5201866701]},"properties":{"レベル":"1","住所":"広島県広島市安佐北区亀山南3-28-2","収容人数":"1231","名称":"亀山南小学校","対象とする災害の分類":"指定なし","施設の種類":"生活避難場所、広域避難場所","施設規模":null,"行政区域":"34106","高さ":"14.8"}},{"type":"Feature","geometry":{"type":"Point","coordinates":[132.4060713692,34.5203717605]},"properties":{"レベル":"1","住所":"広島県広島市安佐北区安佐町大字久地4477-2","収容人数":"572","名称":"久地小学校","対象とする災害の分類":"指定なし","施設の種類":"生活避難場所","施設規模":null,"行政区域":"34106","高さ":null}},{"type":"Feature","geometry":{"type":"Point","coordinates":[132.3930173647,34.4998457611]},"properties":{"レベル":"1","住所":"広島県広島市安佐北区安佐町くすの木台55-1","収容人数":"909","名称":"久地南小学校","対象とする災害の分類":"指定なし","施設の種類":"生活避難場所","施設規模":null,"行政区域":"34106","高さ":null}},{"type":"Feature","geometry":{"type":"Point","coordinates":[132.5314532966,34.4696447304]},"properties":{"レベル":"1","住所":"広島県広島市安佐北区倉掛2-33-2","収容人数":null,"名称":"県消防学校グラウンド","対象とする災害の分類":"指定なし","施設の種類":"広域避難場所","施設規模":null,"行政区域":"34106","高さ":null}},{"type":"Feature","geometry":{"type":"Point","coordinates":[132.4959347973,34.4584339098]},"properties":{"レベル":"1","住所":"広島県広島市安佐北区口田南2-7-2","収容人数":"1002","名称":"口田小学校","対象とする災害の分類":"指定なし","施設の種類":"生活避難場所","施設規模":null,"行政区域":"34106","高さ":"11.7"}},{"type":"Feature","geometry":{"type":"Point","coordinates":[132.5015841681,34.4691039851]},"properties":{"レベル":"1","住所":"広島県広島市安佐北区口田2-1-1","収容人数":"1171","名称":"口田東小学校","対象とする災害の分類":"指定なし","施設の種類":"生活避難場所","施設規模":null,"行政区域":"34106","高さ":"17.5"}},{"type":"Feature","geometry":{"type":"Point","coordinates":[132.5320148351,34.4740547574]},"properties":{"レベル":"3","住所":"広島県広島市安佐北区倉掛三丁目50-1","収容人数":null,"名称":"広島原爆養護ホーム倉掛のぞみ園","対象とする災害の分類":"指定なし","施設の種類":"福祉避難所","施設規模":null,"行政区域":"34106","高さ":"24.2"}},{"type":"Feature","geometry":{"type":"Point","coordinates":[132.6589944051,34.5498727425]},"properties":{"レベル":"1","住所":"広島県広島市安佐北区白木町大字秋山1188","収容人数":"753","名称":"高南小学校","対象とする災害の分類":"指定なし","施設の種類":"生活避難場所","施設規模":null,"行政区域":"34106","高さ":null}},{"type":"Feature","geometry":{"type":"Point","coordinates":[132.6115553942,34.5131827432]},"properties":{"レベル":"1","住所":"広島県広島市安佐北区白木町大字三田2649","収容人数":"671","名称":"三田小学校","対象とする災害の分類":"指定なし","施設の種類":"生活避難場所","施設規模":null,"行政区域":"34106","高さ":null}},{"type":"Feature","geometry":{"type":"Point","coordinates":[132.5268933174,34.539316851]},"properties":{"レベル":"1","住所":"広島県広島市安佐北区三入3-12-1","収容人数":"870","名称":"三入小学校","対象とする災害の分類":"指定なし","施設の種類":"生活避難場所","施設規模":null,"行政区域":"34106","高さ":"12.6"}},{"type":"Feature","geometry":{"type":"Point","coordinates":[132.5351153875,34.5355947508]},"properties":{"レベル":"1","住所":"広島県広島市安佐北区三入東1-3-1","収容人数":"890","名称":"三入東小学校","対象とする災害の分類":"指定なし","施設の種類":"生活避難場所","施設規模":null,"行政区域":"34106","高さ":null}},{"type":"Feature","geometry":{"type":"Point","coordinates":[132.5318697733,34.4702265542]},"properties":{"レベル":"3","住所":"広島市安佐北区倉掛二丁目33","収容人数":null,"名称":"市総合防災センターグラウンド","対象とする災害の分類":"指定なし","施設の種類":"広域避難場所","施設規模":null,"行政区域":"34106","高さ":null}},{"type":"Feature","geometry":{"type":"Point","coordinates":[132.6178594028,34.5782017477]},"properties":{"レベル":"1","住所":"広島県広島市安佐北区白木町大字志路3890-1","収容人数":"446","名称":"志屋小学校","対象とする災害の分類":"指定なし","施設の種類":"生活避難場所","施設規模":null,"行政区域":"34106","高さ":null}},{"type":"Feature","geometry":{"type":"Point","coordinates":[132.5150905947,34.5134161174]},"properties":{"レベル":"1","住所":"広島県広島市安佐北区可部東四丁目28番","収容人数":null,"名称":"寺山公園","対象とする災害の分類":"指定なし","施設の種類":"広域避難場所","施設規模":null,"行政区域":"34106","高さ":null}},{"type":"Feature","geometry":{"type":"Point","coordinates":[132.5193350224,34.4798734686]},"properties":{"レベル":"1","住所":"広島県広島市安佐北区真亀1丁目9番","収容人数":null,"名称":"寺迫公園","対象とする災害の分類":"指定なし","施設の種類":"広域避難場所","施設規模":null,"行政区域":"34106","高さ":null}},{"type":"Feature","geometry":{"type":"Point","coordinates":[132.5670023155,34.4814908449]},"properties":{"レベル":"1","住所":"広島県広島市安佐北区上深川町1345","収容人数":"625","名称":"狩小川小学校","対象とする災害の分類":"指定なし","施設の種類":"生活避難場所","施設規模":null,"行政区域":"34106","高さ":"17.5"}},{"type":"Feature","geometry":{"type":"Point","coordinates":[132.4177913782,34.5820867653]},"properties":{"レベル":"1","住所":"広島県広島市安佐北区安佐町小河内4734","収容人数":"406","名称":"小河内小学校","対象とする災害の分類":"指定なし","施設の種類":"生活避難場所","施設規模":null,"行政区域":"34106","高さ":null}},{"type":"Feature","geometry":{"type":"Point","coordinates":[132.531563342,34.4825384474]},"properties":{"レベル":"1","住所":"広島県広島市安佐北区深川5-12-1","収容人数":"755","名称":"深川小学校","対象とする災害の分類":"指定なし","施設の種類":"生活避難場所","施設規模":null,"行政区域":"34106","高さ":"12.3"}},{"type":"Feature","geometry":{"type":"Point","coordinates":[132.5181733102,34.4831008483]},"properties":{"レベル":"1","住所":"広島県広島市安佐北区真亀5-28-1","収容人数":"1171","名称":"真亀小学校","対象とする災害の分類":"指定なし","施設の種類":"生活避難場所","施設規模":null,"行政区域":"34106","高さ":"17.4"}},{"type":"Feature","geometry":{"type":"Point","coordinates":[132.5287563096,34.4730188457]},"properties":{"レベル":"1","住所":"広島県広島市安佐北区倉掛1-13-1","収容人数":"925","名称":"倉掛小学校","対象とする災害の分類":"指定なし","施設の種類":"生活避難場所","施設規模":null,"行政区域":"34106","高さ":"16.4"}},{"type":"Feature","geometry":{"type":"Point","coordinates":[132.5458643216,34.5545098516]},"properties":{"レベル":"1","住所":"広島県広島市安佐北区大林4-14-1","収容人数":"463","名称":"大林小学校","対象とする災害の分類":"指定なし","施設の種類":"生活避難場所","施設規模":null,"行政区域":"34106","高さ":"10.4"}},{"type":"Feature","geometry":{"type":"Point","coordinates":[132.5123646511,34.4756302174]},"properties":{"レベル":"1","住所":"広島県広島市安佐北区落合4丁目","収容人数":null,"名称":"中山公園","対象とする災害の分類":"指定なし","施設の種類":"広域避難場所","施設規模":null,"行政区域":"34106","高さ":null}},{"type":"Feature","geometry":{"type":"Point","coordinates":[132.470705375,34.4966257538]},"properties":{"レベル":"1","住所":"広島県広島市安佐北区安佐町筒瀬1598","収容人数":"393","名称":"筒瀬小学校","対象とする災害の分類":"指定なし","施設の種類":"生活避難場所","施設規模":null,"行政区域":"34106","高さ":null}},{"type":"Feature","geometry":{"type":"Point","coordinates":[132.5140633061,34.461658845]},"properties":{"レベル":"1","住所":"広島県広島市安佐北区落合南町196-1","収容人数":null,"名称":"特別養護老人ホームなごみの郷","対象とする災害の分類":"指定なし","施設の種類":"福祉避難所","施設規模":null,"行政区域":"34106","高さ":"25.3"}},{"type":"Feature","geometry":{"type":"Point","coordinates":[132.562447395,34.5712857525]},"properties":{"レベル":"1","住所":"広島県広島市安佐北区大林町162-2","収容人数":null,"名称":"特別養護老人ホーム山まゆ","対象とする災害の分類":"指定なし","施設の種類":"福祉避難所","施設規模":null,"行政区域":"34106","高さ":null}},{"type":"Feature","geometry":{"type":"Point","coordinates":[132.4847303851,34.5625347569]},"properties":{"レベル":"1","住所":"広島県広島市安佐北区可部綾ケ谷2175","収容人数":null,"名称":"特別養護老人ホーム谷和の里","対象とする災害の分類":"指定なし","施設の種類":"福祉避難所","施設規模":null,"行政区域":"34106","高さ":null}},{"type":"Feature","geometry":{"type":"Point","coordinates":[132.4393189889,34.5077605873]},"properties":{"レベル":"1","住所":"広島県広島市安佐北区あさひが丘7-12-1","収容人数":"1290","名称":"日浦小学校","対象とする災害の分類":"指定なし","施設の種類":"生活避難場所","施設規模":null,"行政区域":"34106","高さ":"19"}},{"type":"Feature","geometry":{"type":"Point","coordinates":[132.4451503787,34.5520357609]},"properties":{"レベル":"1","住所":"広島県広島市安佐北区安佐町飯室1544","収容人数":"648","名称":"飯室小学校","対象とする災害の分類":"指定なし","施設の種類":"生活避難場所","施設規模":null,"行政区域":"34106","高さ":null}},{"type":"Feature","geometry":{"type":"Point","coordinates":[132.4295768523,34.5265474323]},"properties":{"レベル":"3","住所":"広島県広島市安佐北区","収容人数":"87","名称":"毛木集会所","対象とする災害の分類":"指定なし","施設の種類":"生活避難場所","施設規模":null,"行政区域":"34106","高さ":null}},{"type":"Feature","geometry":{"type":"Point","coordinates":[132.5045051035,34.5254829014]},"properties":{"レベル":"3","住所":"広島県広島市安佐北区可部六丁目9-14","収容人数":null,"名称":"養護老人ホーム緑が丘静養園","対象とする災害の分類":"指定なし","施設の種類":"福祉避難所","施設規模":null,"行政区域":"34106","高さ":"7.9"}},{"type":"Feature","geometry":{"type":"Point","coordinates":[132.5137297486,34.4666983266]},"properties":{"レベル":"1","住所":"広島県広島市安佐北区落合南2-13-1","収容人数":"763","名称":"落合小学校","対象とする災害の分類":"指定なし","施設の種類":"生活避難場所","施設規模":null,"行政区域":"34106","高さ":"18.8"}},{"type":"Feature","geometry":{"type":"Point","coordinates":[132.5149797417,34.4757826611]},"properties":{"レベル":"1","住所":"広島県広島市安佐北区落合4-13-1","収容人数":"1277","名称":"落合東小学校","対象とする災害の分類":"指定なし","施設の種類":"生活避難場所","施設規模":null,"行政区域":"34106","高さ":"10.7"}},{"type":"Feature","geometry":{"type":"Point","coordinates":[132.4605103845,34.5840597622]},"properties":{"レベル":"1","住所":"広島県広島市安佐北区安佐町鈴張1896","収容人数":"641","名称":"鈴張小学校","対象とする災害の分類":"指定なし","施設の種類":"生活避難場所","施設規模":null,"行政区域":"34106","高さ":null}},{"type":"Feature","geometry":{"type":"Point","coordinates":[132.5895997864,34.4262759829]},"properties":{"レベル":"3","住所":"広島市安芸区瀬野西一丁目38-1","収容人数":"1462","名称":"みどり坂小学校","対象とする災害の分類":"指定なし","施設の種類":"生活避難場所","施設規模":null,"行政区域":"34107","高さ":"13.2"}},{"type":"Feature","geometry":{"type":"Point","coordinates":[132.6266123795,34.384946732]},"properties":{"レベル":"1","住所":"広島県広島市安芸区阿戸町2862-1","収容人数":"183","名称":"阿戸小学校","対象とする災害の分類":"指定なし","施設の種類":"生活避難場所","施設規模":null,"行政区域":"34107","高さ":null}},{"type":"Feature","geometry":{"type":"Point","coordinates":[132.5214832953,34.3504198368]},"properties":{"レベル":"1","住所":"広島県広島市安芸区矢野西2-15-1","収容人数":"1153","名称":"県立安芸南高等学校","対象とする災害の分類":"指定なし","施設の種類":"生活避難場所、広域避難場所","施設規模":null,"行政区域":"34107","高さ":"19.2"}},{"type":"Feature","geometry":{"type":"Point","coordinates":[132.5404303004,34.3615388349]},"properties":{"レベル":"3","住所":"広島県広島市安芸区矢野東二丁目4-25","収容人数":null,"名称":"広島原爆養護ホーム矢野おりづる園","対象とする災害の分類":"指定なし","施設の種類":"福祉避難所","施設規模":null,"行政区域":"34107","高さ":"13.6"}},{"type":"Feature","geometry":{"type":"Point","coordinates":[132.6069413543,34.4217980463]},"properties":{"レベル":"1","住所":"広島県広島市安芸区瀬野1-35-32","収容人数":"987","名称":"瀬野小学校","対象とする災害の分類":"指定なし","施設の種類":"生活避難場所","施設規模":null,"行政区域":"34107","高さ":"13"}},{"type":"Feature","geometry":{"type":"Point","coordinates":[132.5725515694,34.4007586682]},"properties":{"レベル":"1","住所":"広島県広島市安芸区中野4-24-1","収容人数":null,"名称":"瀬野川中学校グラウンド","対象とする災害の分類":"指定なし","施設の種類":"広域避難場所","施設規模":null,"行政区域":"34107","高さ":null}},{"type":"Feature","geometry":{"type":"Point","coordinates":[132.527209123,34.3745684895]},"properties":{"レベル":"1","住所":"広島県広島市安芸区船越5-22-11","収容人数":"1273","名称":"船越小学校","対象とする災害の分類":"指定なし","施設の種類":"生活避難場所","施設規模":null,"行政区域":"34107","高さ":"12.8"}},{"type":"Feature","geometry":{"type":"Point","coordinates":[132.5334098154,34.3832212268]},"properties":{"レベル":"1","住所":"広島県広島市安芸区船越6-44-1","収容人数":"737","名称":"船越中学校","対象とする災害の分類":"指定なし","施設の種類":"生活避難場所","施設規模":null,"行政区域":"34107","高さ":"17.7"}},{"type":"Feature","geometry":{"type":"Point","coordinates":[132.573282307,34.3982208372]},"properties":{"レベル":"1","住所":"広島県広島市安芸区中野4-21-1","収容人数":"1060","名称":"中野小学校","対象とする災害の分類":"指定なし","施設の種類":"生活避難場所","施設規模":null,"行政区域":"34107","高さ":"12.2"}},{"type":"Feature","geometry":{"type":"Point","coordinates":[132.5810156677,34.403915378]},"properties":{"レベル":"1","住所":"広島県広島市安芸区中野5-11-1","収容人数":"1019","名称":"中野東小学校","対象とする災害の分類":"指定なし","施設の種類":"生活避難場所","施設規模":null,"行政区域":"34107","高さ":"18.5"}},{"type":"Feature","geometry":{"type":"Point","coordinates":[132.5645053054,34.3927768356]},"properties":{"レベル":"1","住所":"広島県広島市安芸区中野三丁目9-5","収容人数":null,"名称":"特別養護老人ホームあきなかの","対象とする災害の分類":"指定なし","施設の種類":"福祉避難所","施設規模":null,"行政区域":"34107","高さ":"27.1"}},{"type":"Feature","geometry":{"type":"Point","coordinates":[132.5503784957,34.3939506137]},"properties":{"レベル":"1","住所":"広島県広島市安芸区畑賀3-28-16","収容人数":"714","名称":"畑賀小学校","対象とする災害の分類":"指定なし","施設の種類":"生活避難場所","施設規模":null,"行政区域":"34107","高さ":"15.8"}},{"type":"Feature","geometry":{"type":"Point","coordinates":[132.5353702973,34.3479208359]},"properties":{"レベル":"1","住所":"広島県広島市安芸区矢野西6-11-1","収容人数":"1131","名称":"矢野小学校","対象とする災害の分類":"指定なし","施設の種類":"生活避難場所","施設規模":null,"行政区域":"34107","高さ":"19.1"}},{"type":"Feature","geometry":{"type":"Point","coordinates":[132.5336482961,34.350336836]},"properties":{"レベル":"1","住所":"広島県広島市安芸区矢野西4-5-1","収容人数":"1006","名称":"矢野西小学校","対象とする災害の分類":"指定なし","施設の種類":"生活避難場所","施設規模":null,"行政区域":"34107","高さ":"18.6"}},{"type":"Feature","geometry":{"type":"Point","coordinates":[132.5400569686,34.3591803778]},"properties":{"レベル":"1","住所":"広島県広島市安芸区矢野東2-16-1","収容人数":"1089","名称":"矢野中学校","対象とする災害の分類":"指定なし","施設の種類":"生活避難場所","施設規模":null,"行政区域":"34107","高さ":"13.4"}},{"type":"Feature","geometry":{"type":"Point","coordinates":[132.5345550438,34.3381691443]},"properties":{"レベル":"1","住所":"広島県広島市安芸区矢野南4-17-1","収容人数":"1246","名称":"矢野南小学校","対象とする災害の分類":"指定なし","施設の種類":"生活避難場所","施設規模":null,"行政区域":"34107","高さ":"15.3"}},{"type":"Feature","geometry":{"type":"Point","coordinates":[132.354404281,34.4143308544]},"properties":{"レベル":"1","住所":"広島県広島市佐伯区五日市町上河内537番地","収容人数":"124","名称":"河内公民館","対象とする災害の分類":"指定なし","施設の種類":"生活避難場所","施設規模":null,"行政区域":"34108","高さ":"10.7"}},{"type":"Feature","geometry":{"type":"Point","coordinates":[132.3515222817,34.4132158538]},"properties":{"レベル":"1","住所":"広島県広島市佐伯区五日市町上河内371","収容人数":"797","名称":"河内小学校","対象とする災害の分類":"指定なし","施設の種類":"生活避難場所","施設規模":null,"行政区域":"34108","高さ":"10.5"}},{"type":"Feature","geometry":{"type":"Point","coordinates":[132.3547071161,34.4146402929]},"properties":{"レベル":"3","住所":"広島県広島市佐伯区","収容人数":"183","名称":"河内体育館","対象とする災害の分類":"指定なし","施設の種類":"生活避難場所","施設規模":null,"行政区域":"34108","高さ":"5.1"}},{"type":"Feature","geometry":{"type":"Point","coordinates":[132.354771618,34.3580494824]},"properties":{"レベル":"1","住所":"広島県広島市佐伯区楽々園6-8-1","収容人数":"1181","名称":"楽々園小学校","対象とする災害の分類":"指定なし","施設の種類":"生活避難場所","施設規模":null,"行政区域":"34108","高さ":"14.1"}},{"type":"Feature","geometry":{"type":"Point","coordinates":[132.3408298443,34.38776859]},"properties":{"レベル":"1","住所":"広島県広島市佐伯区観音台3-15-1","収容人数":"1655","名称":"県立五日市高等学校","対象とする災害の分類":"指定なし","施設の種類":"生活避難場所","施設規模":null,"行政区域":"34108","高さ":"15.5"}},{"type":"Feature","geometry":{"type":"Point","coordinates":[132.4054892892,34.4225488524]},"properties":{"レベル":"1","住所":"広島県広島市佐伯区五月が丘2-22-1","収容人数":"1241","名称":"五月が丘小学校","対象とする災害の分類":"指定なし","施設の種類":"生活避難場所、広域避難場所","施設規模":null,"行政区域":"34108","高さ":"15.8"}},{"type":"Feature","geometry":{"type":"Point","coordinates":[132.4050487256,34.4207157321]},"properties":{"レベル":"1","住所":"広島県広島市佐伯区五月が丘2-23-1","収容人数":null,"名称":"五月が丘中学校グラウンド","対象とする災害の分類":"指定なし","施設の種類":"広域避難場所","施設規模":null,"行政区域":"34108","高さ":null}},{"type":"Feature","geometry":{"type":"Point","coordinates":[132.34944594,34.3737384925]},"properties":{"レベル":"1","住所":"広島県広島市佐伯区三宅4-10-1","収容人数":"1157","名称":"五日市観音小学校","対象とする災害の分類":"指定なし","施設の種類":"生活避難場所","施設規模":null,"行政区域":"34108","高さ":"16.5"}},{"type":"Feature","geometry":{"type":"Point","coordinates":[132.3388292748,34.3814138537]},"properties":{"レベル":"1","住所":"広島県広島市佐伯区坪井3-877","収容人数":"1063","名称":"五日市観音西小学校","対象とする災害の分類":"指定なし","施設の種類":"生活避難場所","施設規模":null,"行政区域":"34108","高さ":"17.1"}},{"type":"Feature","geometry":{"type":"Point","coordinates":[132.3392182756,34.3792748528]},"properties":{"レベル":"1","住所":"広島県広島市佐伯区坪井3-88","収容人数":"1102","名称":"五日市観音中学校","対象とする災害の分類":"指定なし","施設の種類":"生活避難場所","施設規模":null,"行政区域":"34108","高さ":"19.4"}},{"type":"Feature","geometry":{"type":"Point","coordinates":[132.3618872779,34.3707238498]},"properties":{"レベル":"1","住所":"広島県広島市佐伯区","収容人数":"1493","名称":"五日市公民館・佐伯勤労青少年ホーム","対象とする災害の分類":"指定なし","施設の種類":"生活避難場所","施設規模":null,"行政区域":"34108","高さ":"12.8"}},{"type":"Feature","geometry":{"type":"Point","coordinates":[132.361576741,34.3691044476]},"properties":{"レベル":"1","住所":"広島県広島市佐伯区五日市3-1-1","収容人数":"1293","名称":"五日市小学校","対象とする災害の分類":"指定なし","施設の種類":"生活避難場所","施設規模":null,"行政区域":"34108","高さ":"7.7"}},{"type":"Feature","geometry":{"type":"Point","coordinates":[132.3529919856,34.3689493895]},"properties":{"レベル":"1","住所":"広島県広島市佐伯区五日市中央3-12-1","収容人数":"1241","名称":"五日市中央小学校","対象とする災害の分類":"指定なし","施設の種類":"生活避難場所","施設規模":null,"行政区域":"34108","高さ":"19.8"}},{"type":"Feature","geometry":{"type":"Point","coordinates":[132.3560562942,34.3773877251]},"properties":{"レベル":"1","住所":"広島県広島市佐伯区五日市中央6-4-1","収容人数":"1856","名称":"五日市中学校","対象とする災害の分類":"指定なし","施設の種類":"生活避難場所、広域避難場所","施設規模":null,"行政区域":"34108","高さ":"15.5"}},{"type":"Feature","geometry":{"type":"Point","coordinates":[132.3689671486,34.3754747905]},"properties":{"レベル":"1","住所":"広島県広島市佐伯区皆賀2-3-1","収容人数":"1076","名称":"五日市東小学校","対象とする災害の分類":"指定なし","施設の種類":"生活避難場所","施設規模":null,"行政区域":"34108","高さ":"14.2"}},{"type":"Feature","geometry":{"type":"Point","coordinates":[132.3572702766,34.3612218506]},"properties":{"レベル":"1","住所":"広島県広島市佐伯区海老園3-18-1","収容人数":"1611","名称":"五日市南小学校","対象とする災害の分類":"指定なし","施設の種類":"生活避難場所","施設規模":null,"行政区域":"34108","高さ":"17.3"}},{"type":"Feature","geometry":{"type":"Point","coordinates":[132.3599722094,34.3594575861]},"properties":{"レベル":"1","住所":"広島県広島市佐伯区海老園4-2-21","収容人数":"1205","名称":"五日市南中学校","対象とする災害の分類":"指定なし","施設の種類":"生活避難場所","施設規模":null,"行政区域":"34108","高さ":"16.7"}},{"type":"Feature","geometry":{"type":"Point","coordinates":[132.3428842755,34.3712758522]},"properties":{"レベル":"1","住所":"広島県広島市佐伯区三宅2-1-1","収容人数":"1533","名称":"広島工業大学","対象とする災害の分類":"指定なし","施設の種類":"生活避難場所、広域避難場所","施設規模":null,"行政区域":"34108","高さ":"6.6"}},{"type":"Feature","geometry":{"type":"Point","coordinates":[132.3568806361,34.3592584703]},"properties":{"レベル":"1","住所":"広島県広島市佐伯区楽-園六丁目1番27号","収容人数":"1102","名称":"佐伯区スポーツセンター","対象とする災害の分類":"指定なし","施設の種類":"生活避難場所","施設規模":null,"行政区域":"34108","高さ":"7.9"}},{"type":"Feature","geometry":{"type":"Point","coordinates":[132.3604798366,34.3797704615]},"properties":{"レベル":"1","住所":"広島県広島市佐伯区五日市中央六丁目1番10号","収容人数":"643","名称":"佐伯区民文化センター","対象とする災害の分類":"指定なし","施設の種類":"生活避難場所","施設規模":null,"行政区域":"34108","高さ":"12.1"}},{"type":"Feature","geometry":{"type":"Point","coordinates":[132.3440227068,34.4103107068]},"properties":{"レベル":"1","住所":"広島県広島市佐伯区河内南2-10-1","収容人数":"1000","名称":"彩が丘小学校","対象とする災害の分類":"指定なし","施設の種類":"生活避難場所","施設規模":null,"行政区域":"34108","高さ":"17.8"}},{"type":"Feature","geometry":{"type":"Point","coordinates":[132.3627712822,34.4009668539]},"properties":{"レベル":"1","住所":"広島県広島市佐伯区利松3-10-1","収容人数":"1325","名称":"三和中学校","対象とする災害の分類":"指定なし","施設の種類":"生活避難場所","施設規模":null,"行政区域":"34108","高さ":"19.2"}},{"type":"Feature","geometry":{"type":"Point","coordinates":[132.3530587969,34.3861831633]},"properties":{"レベル":"1","住所":"広島県広島市佐伯区城山2-17-1","収容人数":"909","名称":"城山中学校","対象とする災害の分類":"指定なし","施設の種類":"生活避難場所","施設規模":null,"行政区域":"34108","高さ":"17.5"}},{"type":"Feature","geometry":{"type":"Point","coordinates":[132.3844973458,34.4192761466]},"properties":{"レベル":"1","住所":"広島県広島市佐伯区五日市町石内3276","収容人数":"567","名称":"石内小学校","対象とする災害の分類":"指定なし","施設の種類":"生活避難場所","施設規模":null,"行政区域":"34108","高さ":"15.4"}},{"type":"Feature","geometry":{"type":"Point","coordinates":[132.3775239069,34.4078950823]},"properties":{"レベル":"1","住所":"広島県広島市佐伯区石内南一丁目5番1号","収容人数":"356","名称":"石内福祉センター","対象とする災害の分類":"指定なし","施設の種類":"生活避難場所","施設規模":null,"行政区域":"34108","高さ":"10"}},{"type":"Feature","geometry":{"type":"Point","coordinates":[132.3566185732,34.3787694346]},"properties":{"レベル":"3","住所":"広島県広島市佐伯区","収容人数":null,"名称":"造幣局広島支局グラウンド","対象とする災害の分類":"指定なし","施設の種類":"広域避難場所","施設規模":null,"行政区域":"34108","高さ":null}},{"type":"Feature","geometry":{"type":"Point","coordinates":[132.2339273419,34.4700317721]},"properties":{"レベル":"1","住所":"広島県広島市佐伯区湯来町多田2419","収容人数":"331","名称":"湯来西小学校","対象とする災害の分類":"指定なし","施設の種類":"生活避難場所","施設規模":null,"行政区域":"34108","高さ":null}},{"type":"Feature","geometry":{"type":"Point","coordinates":[132.3163423593,34.5258867695]},"properties":{"レベル":"1","住所":"広島県広島市佐伯区湯来町麦谷1803-1","収容人数":"354","名称":"湯来東小学校","対象とする災害の分類":"指定なし","施設の種類":"生活避難場所","施設規模":null,"行政区域":"34108","高さ":null}},{"type":"Feature","geometry":{"type":"Point","coordinates":[132.2901753437,34.4334917647]},"properties":{"レベル":"1","住所":"広島県広島市佐伯区湯来町白砂3555-1","収容人数":"598","名称":"湯来南小学校","対象とする災害の分類":"指定なし","施設の種類":"生活避難場所","施設規模":null,"行政区域":"34108","高さ":null}},{"type":"Feature","geometry":{"type":"Point","coordinates":[132.3642111614,34.4267182682]},"properties":{"レベル":"1","住所":"広島県広島市佐伯区藤の木2-2-1","収容人数":"1101","名称":"藤の木小学校","対象とする災害の分類":"指定なし","施設の種類":"生活避難場所","施設規模":null,"行政区域":"34108","高さ":"13.4"}},{"type":"Feature","geometry":{"type":"Point","coordinates":[132.3537740813,34.408975521]},"properties":{"レベル":"1","住所":"広島県広島市佐伯区五日市町下河内591-1","収容人数":null,"名称":"特別養護老人ホーム五日市あかり園","対象とする災害の分類":"指定なし","施設の種類":"福祉避難所","施設規模":null,"行政区域":"34108","高さ":"37.9"}},{"type":"Feature","geometry":{"type":"Point","coordinates":[132.3680762819,34.403716853]},"properties":{"レベル":"4","住所":"広島県広島市佐伯区五日市町石内6405-1","収容人数":null,"名称":"特別養護老人ホーム石内慈光園","対象とする災害の分類":"指定なし","施設の種類":"福祉避難所","施設規模":null,"行政区域":"34108","高さ":"20"}},{"type":"Feature","geometry":{"type":"Point","coordinates":[132.2837023409,34.4142687637]},"properties":{"レベル":"1","住所":"広島県広島市佐伯区湯来町大字白砂82-4","収容人数":null,"名称":"特別養護老人ホーム湯来保養園","対象とする災害の分類":"指定なし","施設の種類":"福祉避難所","施設規模":null,"行政区域":"34108","高さ":null}},{"type":"Feature","geometry":{"type":"Point","coordinates":[132.3361083427,34.3800527565]},"properties":{"レベル":"1","住所":"広島県広島市佐伯区三宅六丁目105","収容人数":null,"名称":"特別養護老人ホーム陽光の家","対象とする災害の分類":"指定なし","施設の種類":"福祉避難所","施設規模":null,"行政区域":"34108","高さ":"12.1"}},{"type":"Feature","geometry":{"type":"Point","coordinates":[132.3582439435,34.3923514841]},"properties":{"レベル":"1","住所":"広島県広島市佐伯区八幡2-2-1","収容人数":"1453","名称":"八幡小学校","対象とする災害の分類":"指定なし","施設の種類":"生活避難場所","施設規模":null,"行政区域":"34108","高さ":"14.9"}},{"type":"Feature","geometry":{"type":"Point","coordinates":[132.3654885773,34.3938666529]},"properties":{"レベル":"1","住所":"広島県広島市佐伯区八幡東4-27-1","収容人数":"1615","名称":"八幡東小学校","対象とする災害の分類":"指定なし","施設の種類":"生活避難場所","施設規模":null,"行政区域":"34108","高さ":"19"}},{"type":"Feature","geometry":{"type":"Point","coordinates":[132.3803885751,34.3920185894]},"properties":{"レベル":"1","住所":"広島県広島市佐伯区美鈴が丘西1-8-1","収容人数":"1574","名称":"美鈴が丘小学校","対象とする災害の分類":"指定なし","施設の種類":"生活避難場所","施設規模":null,"行政区域":"34108","高さ":"21.1"}},{"type":"Feature","geometry":{"type":"Point","coordinates":[132.3775703973,34.3900319206]},"properties":{"レベル":"1","住所":"広島県広島市佐伯区美鈴が丘南1-12-1","収容人数":"2049","名称":"美鈴が丘中学校","対象とする災害の分類":"指定なし","施設の種類":"生活避難場所","施設規模":null,"行政区域":"34108","高さ":"19.9"}},{"type":"Feature","geometry":{"type":"Point","coordinates":[132.3595237245,34.5558332235]},"properties":{"レベル":"3","住所":"広島県広島市佐伯区湯来町下20-1","収容人数":null,"名称":"宇佐集会所","対象とする災害の分類":"指定なし","施設の種類":"地区避難施設","施設規模":null,"行政区域":"34368","高さ":null}}],"name":"34100_hiroshima-shi_city_2022_shelter","type":"FeatureCollection"}